{
"type": "FeatureCollection",
"name": "Alfamart Points",
"crs": { "type": "name", "properties": { "name": "urn:ogc:def:crs:EPSG::32750" } },
"features": [
{ "type": "Feature", "properties": { "id": 1, "Point": "Alfamart Penjaringan" }, "geometry": { "type": "Point", "coordinates": [ -634715.148090861737728, 9311567.157155884429812 ] } },
{ "type": "Feature", "properties": { "id": 1, "Point": "Alfamart Penjaringan" }, "geometry": { "type": "Point", "coordinates": [ -634512.894233799772337, 9311580.518441770225763 ] } },
{ "type": "Feature", "properties": { "id": 2, "Point": "Alfamart Penjaringan" }, "geometry": { "type": "Point", "coordinates": [ -633959.573756223078817, 9311804.472093939781189 ] } },
{ "type": "Feature", "properties": { "id": 3, "Point": "Alfamart Pluit" }, "geometry": { "type": "Point", "coordinates": [ -634709.03110491274856, 9312265.224688645452261 ] } },
{ "type": "Feature", "properties": { "id": 4, "Point": "Alfamart Pluit" }, "geometry": { "type": "Point", "coordinates": [ -634562.135880950605497, 9312282.336476132273674 ] } },
{ "type": "Feature", "properties": { "id": 5, "Point": "Alfamart Penjaringan" }, "geometry": { "type": "Point", "coordinates": [ -634212.7065989759285, 9313444.381854148581624 ] } },
{ "type": "Feature", "properties": { "id": 6, "Point": "Alfamart Pejagalan" }, "geometry": { "type": "Point", "coordinates": [ -634608.662414730526507, 9310662.183985026553273 ] } },
{ "type": "Feature", "properties": { "id": 7, "Point": "Alfamart Pejagalan" }, "geometry": { "type": "Point", "coordinates": [ -635484.418109360849485, 9310694.501324225217104 ] } },
{ "type": "Feature", "properties": { "id": 8, "Point": "Alfamart Pejagalan" }, "geometry": { "type": "Point", "coordinates": [ -634755.199938457459211, 9310305.329596033319831 ] } },
{ "type": "Feature", "properties": { "id": 9, "Point": "Alfamart Pejagalan" }, "geometry": { "type": "Point", "coordinates": [ -636011.335436313878745, 9310509.877140568569303 ] } },
{ "type": "Feature", "properties": { "id": 10, "Point": "Alfamart Pejagalan" }, "geometry": { "type": "Point", "coordinates": [ -636505.551416095113382, 9310975.764253199100494 ] } },
{ "type": "Feature", "properties": { "id": 11, "Point": "Alfamart Pluit" }, "geometry": { "type": "Point", "coordinates": [ -635751.64361779903993, 9311972.286070046946406 ] } },
{ "type": "Feature", "properties": { "id": 12, "Point": "Alfamart Pejagalan" }, "geometry": { "type": "Point", "coordinates": [ -636997.299142808653414, 9311729.320619150996208 ] } },
{ "type": "Feature", "properties": { "id": 13, "Point": "Alfamart Pluit" }, "geometry": { "type": "Point", "coordinates": [ -635597.163948636502028, 9312393.610883001238108 ] } },
{ "type": "Feature", "properties": { "id": 14, "Point": "Alfamart Pluit" }, "geometry": { "type": "Point", "coordinates": [ -635803.725398605223745, 9312453.393078621476889 ] } },
{ "type": "Feature", "properties": { "id": 15, "Point": "Alfamart Pluit" }, "geometry": { "type": "Point", "coordinates": [ -636386.470605262089521, 9312608.719584155827761 ] } },
{ "type": "Feature", "properties": { "id": 16, "Point": "Alfamart Pluit" }, "geometry": { "type": "Point", "coordinates": [ -635619.457451841328293, 9313152.81315254420042 ] } },
{ "type": "Feature", "properties": { "id": 17, "Point": "Alfamart Pluit" }, "geometry": { "type": "Point", "coordinates": [ -637130.931251946603879, 9312406.87940414622426 ] } },
{ "type": "Feature", "properties": { "id": 18, "Point": "Alfamart Pluit" }, "geometry": { "type": "Point", "coordinates": [ -636763.025499380426481, 9312993.111682401970029 ] } },
{ "type": "Feature", "properties": { "id": 19, "Point": "Alfamart Pluit" }, "geometry": { "type": "Point", "coordinates": [ -636949.428409179439768, 9313032.245867369696498 ] } },
{ "type": "Feature", "properties": { "id": 20, "Point": "Alfamart Pluit" }, "geometry": { "type": "Point", "coordinates": [ -637307.10975241009146, 9313030.108508188277483 ] } },
{ "type": "Feature", "properties": { "id": 21, "Point": "Alfamart Pluit" }, "geometry": { "type": "Point", "coordinates": [ -636634.66042715171352, 9313120.598909635096788 ] } },
{ "type": "Feature", "properties": { "id": 22, "Point": "Alfamart Pluit" }, "geometry": { "type": "Point", "coordinates": [ -636951.596383967669681, 9313284.26257705502212 ] } },
{ "type": "Feature", "properties": { "id": 23, "Point": "Alfamart Pluit" }, "geometry": { "type": "Point", "coordinates": [ -636845.398811878170818, 9313565.161725547164679 ] } },
{ "type": "Feature", "properties": { "id": 24, "Point": "Alfamart Pluit" }, "geometry": { "type": "Point", "coordinates": [ -636664.335678985342383, 9313645.117059791460633 ] } },
{ "type": "Feature", "properties": { "id": 25, "Point": "Alfamart Pluit" }, "geometry": { "type": "Point", "coordinates": [ -636947.614586442243308, 9313949.6123037468642 ] } },
{ "type": "Feature", "properties": { "id": 26, "Point": "Alfamart Pluit" }, "geometry": { "type": "Point", "coordinates": [ -637437.496054909424856, 9313570.04987346380949 ] } },
{ "type": "Feature", "properties": { "id": 27, "Point": "Alfamart Kapuk Muara" }, "geometry": { "type": "Point", "coordinates": [ -639209.998728473670781, 9312045.345239650458097 ] } },
{ "type": "Feature", "properties": { "id": 28, "Point": "Alfamart Kapuk Muara" }, "geometry": { "type": "Point", "coordinates": [ -639453.417916322592646, 9312047.9582490157336 ] } },
{ "type": "Feature", "properties": { "id": 29, "Point": "Alfamart Kamal Muara" }, "geometry": { "type": "Point", "coordinates": [ -640370.625976546201855, 9312063.506174327805638 ] } },
{ "type": "Feature", "properties": { "id": 30, "Point": "Alfamart Kamal Muara" }, "geometry": { "type": "Point", "coordinates": [ -641206.777557748369873, 9312159.14380850084126 ] } },
{ "type": "Feature", "properties": { "id": 31, "Point": "Alfamart Kamal Muara" }, "geometry": { "type": "Point", "coordinates": [ -640265.084650134202093, 9313372.004379034042358 ] } },
{ "type": "Feature", "properties": { "id": 32, "Point": "Alfamart Kamal Muara" }, "geometry": { "type": "Point", "coordinates": [ -641133.667740287724882, 9313619.223376100882888 ] } },
{ "type": "Feature", "properties": { "id": 33, "Point": "Alfamart Kamal Muara" }, "geometry": { "type": "Point", "coordinates": [ -641248.709098007297143, 9314329.618779307231307 ] } },
{ "type": "Feature", "properties": { "id": 34, "Point": "Alfamart Kamal Muara" }, "geometry": { "type": "Point", "coordinates": [ -641137.753846067469567, 9314269.559979747980833 ] } },
{ "type": "Feature", "properties": { "id": 35, "Point": "Alfamart Kapuk Muara" }, "geometry": { "type": "Point", "coordinates": [ -637460.68621931085363, 9310595.921369776129723 ] } },
{ "type": "Feature", "properties": { "id": 36, "Point": "Alfamart Kamal Muara" }, "geometry": { "type": "Point", "coordinates": [ -640618.768873204477131, 9311411.40076575614512 ] } },
{ "type": "Feature", "properties": { "id": 37, "Point": "Alfamart Pejagalan" }, "geometry": { "type": "Point", "coordinates": [ -637064.609117516083643, 9311394.700065584853292 ] } },
{ "type": "Feature", "properties": { "id": 38, "Point": "Alfamart Pejagalan" }, "geometry": { "type": "Point", "coordinates": [ -636702.269769724458456, 9311183.602967100217938 ] } },
{ "type": "Feature", "properties": { "id": 40, "Point": "Alfamart Pejagalan" }, "geometry": { "type": "Point", "coordinates": [ -636955.818191904807463, 9310603.813549865037203 ] } }
]
}
