{
"type": "FeatureCollection",
"name": "Buffers Indomaret",
"crs": { "type": "name", "properties": { "name": "urn:ogc:def:crs:EPSG::32750" } },
"features": [
{ "type": "Feature", "properties": { "id": 1, "Indomaret": "Indomaret Penjaringan" }, "geometry": { "type": "MultiPolygon", "coordinates": [ [ [ [ -634084.388015668839216, 9313664.513815339654684 ], [ -634108.859757521306165, 9313510.005318151786923 ], [ -634179.879518481320702, 9313370.621189193800092 ], [ -634290.495389522635378, 9313260.005318151786923 ], [ -634429.879518481320702, 9313188.98555719293654 ], [ -634584.388015668839216, 9313164.513815339654684 ], [ -634738.896512856357731, 9313188.98555719293654 ], [ -634878.280641815043055, 9313260.005318151786923 ], [ -634988.896512856357731, 9313370.621189193800092 ], [ -635059.916273816372268, 9313510.005318151786923 ], [ -635084.388015668839216, 9313664.513815339654684 ], [ -635059.916273816372268, 9313819.022312527522445 ], [ -634988.896512856357731, 9313958.406441485509276 ], [ -634878.280641815043055, 9314069.022312527522445 ], [ -634738.896512856357731, 9314140.042073486372828 ], [ -634584.388015668839216, 9314164.513815339654684 ], [ -634429.879518481320702, 9314140.042073486372828 ], [ -634290.495389522635378, 9314069.022312527522445 ], [ -634179.879518481320702, 9313958.406441485509276 ], [ -634108.859757521306165, 9313819.022312527522445 ], [ -634084.388015668839216, 9313664.513815339654684 ] ] ] ] } },
{ "type": "Feature", "properties": { "id": 2, "Indomaret": "Indomaret Penjaringan" }, "geometry": { "type": "MultiPolygon", "coordinates": [ [ [ [ -633706.093394229654223, 9313392.049097439274192 ], [ -633730.565136082121171, 9313237.540600251406431 ], [ -633801.584897042135708, 9313098.1564712934196 ], [ -633912.200768083450384, 9312987.540600251406431 ], [ -634051.584897042135708, 9312916.520839292556047 ], [ -634206.093394229654223, 9312892.049097439274192 ], [ -634360.601891417172737, 9312916.520839292556047 ], [ -634499.986020375858061, 9312987.540600251406431 ], [ -634610.601891417172737, 9313098.1564712934196 ], [ -634681.621652377187274, 9313237.540600251406431 ], [ -634706.093394229654223, 9313392.049097439274192 ], [ -634681.621652377187274, 9313546.557594627141953 ], [ -634610.601891417172737, 9313685.941723585128784 ], [ -634499.986020375858061, 9313796.557594627141953 ], [ -634360.601891417172737, 9313867.577355585992336 ], [ -634206.093394229654223, 9313892.049097439274192 ], [ -634051.584897042135708, 9313867.577355585992336 ], [ -633912.200768083450384, 9313796.557594627141953 ], [ -633801.584897042135708, 9313685.941723585128784 ], [ -633730.565136082121171, 9313546.557594627141953 ], [ -633706.093394229654223, 9313392.049097439274192 ] ] ] ] } },
{ "type": "Feature", "properties": { "id": 3, "Indomaret": "Indomaret Penjaringan" }, "geometry": { "type": "MultiPolygon", "coordinates": [ [ [ [ -633158.225607955129817, 9312585.025376297533512 ], [ -633182.697349807596765, 9312430.516879109665751 ], [ -633253.717110767611302, 9312291.13275015167892 ], [ -633364.332981808925979, 9312180.516879109665751 ], [ -633503.717110767611302, 9312109.497118150815368 ], [ -633658.225607955129817, 9312085.025376297533512 ], [ -633812.734105142648332, 9312109.497118150815368 ], [ -633952.118234101333655, 9312180.516879109665751 ], [ -634062.734105142648332, 9312291.13275015167892 ], [ -634133.753866102662869, 9312430.516879109665751 ], [ -634158.225607955129817, 9312585.025376297533512 ], [ -634133.753866102662869, 9312739.533873485401273 ], [ -634062.734105142648332, 9312878.918002443388104 ], [ -633952.118234101333655, 9312989.533873485401273 ], [ -633812.734105142648332, 9313060.553634444251657 ], [ -633658.225607955129817, 9313085.025376297533512 ], [ -633503.717110767611302, 9313060.553634444251657 ], [ -633364.332981808925979, 9312989.533873485401273 ], [ -633253.717110767611302, 9312878.918002443388104 ], [ -633182.697349807596765, 9312739.533873485401273 ], [ -633158.225607955129817, 9312585.025376297533512 ] ] ] ] } },
{ "type": "Feature", "properties": { "id": 4, "Indomaret": "Indomaret Penjaringan" }, "geometry": { "type": "MultiPolygon", "coordinates": [ [ [ [ -633537.636257069418207, 9312500.657843232154846 ], [ -633562.107998921885155, 9312346.149346044287086 ], [ -633633.127759881899692, 9312206.765217086300254 ], [ -633743.743630923214369, 9312096.149346044287086 ], [ -633883.127759881899692, 9312025.129585085436702 ], [ -634037.636257069418207, 9312000.657843232154846 ], [ -634192.144754256936722, 9312025.129585085436702 ], [ -634331.528883215622045, 9312096.149346044287086 ], [ -634442.144754256936722, 9312206.765217086300254 ], [ -634513.164515216951258, 9312346.149346044287086 ], [ -634537.636257069418207, 9312500.657843232154846 ], [ -634513.164515216951258, 9312655.166340420022607 ], [ -634442.144754256936722, 9312794.550469378009439 ], [ -634331.528883215622045, 9312905.166340420022607 ], [ -634192.144754256936722, 9312976.186101378872991 ], [ -634037.636257069418207, 9313000.657843232154846 ], [ -633883.127759881899692, 9312976.186101378872991 ], [ -633743.743630923214369, 9312905.166340420022607 ], [ -633633.127759881899692, 9312794.550469378009439 ], [ -633562.107998921885155, 9312655.166340420022607 ], [ -633537.636257069418207, 9312500.657843232154846 ] ] ] ] } },
{ "type": "Feature", "properties": { "id": 5, "Indomaret": "Indomaret Penjaringan" }, "geometry": { "type": "MultiPolygon", "coordinates": [ [ [ [ -633007.215049857273698, 9311855.908339612185955 ], [ -633031.686791709740646, 9311701.399842424318194 ], [ -633102.706552669755183, 9311562.015713466331363 ], [ -633213.32242371106986, 9311451.399842424318194 ], [ -633352.706552669755183, 9311380.380081465467811 ], [ -633507.215049857273698, 9311355.908339612185955 ], [ -633661.723547044792213, 9311380.380081465467811 ], [ -633801.107676003477536, 9311451.399842424318194 ], [ -633911.723547044792213, 9311562.015713466331363 ], [ -633982.74330800480675, 9311701.399842424318194 ], [ -634007.215049857273698, 9311855.908339612185955 ], [ -633982.74330800480675, 9312010.416836800053716 ], [ -633911.723547044792213, 9312149.800965758040547 ], [ -633801.107676003477536, 9312260.416836800053716 ], [ -633661.723547044792213, 9312331.436597758904099 ], [ -633507.215049857273698, 9312355.908339612185955 ], [ -633352.706552669755183, 9312331.436597758904099 ], [ -633213.32242371106986, 9312260.416836800053716 ], [ -633102.706552669755183, 9312149.800965758040547 ], [ -633031.686791709740646, 9312010.416836800053716 ], [ -633007.215049857273698, 9311855.908339612185955 ] ] ] ] } },
{ "type": "Feature", "properties": { "id": 6, "Indomaret": "Indomaret Penjaringan" }, "geometry": { "type": "MultiPolygon", "coordinates": [ [ [ [ -633405.807999959215522, 9311597.427461696788669 ], [ -633430.27974181168247, 9311442.918964508920908 ], [ -633501.299502771697007, 9311303.534835550934076 ], [ -633611.915373813011684, 9311192.918964508920908 ], [ -633751.299502771697007, 9311121.899203550070524 ], [ -633905.807999959215522, 9311097.427461696788669 ], [ -634060.316497146734037, 9311121.899203550070524 ], [ -634199.70062610541936, 9311192.918964508920908 ], [ -634310.316497146734037, 9311303.534835550934076 ], [ -634381.336258106748573, 9311442.918964508920908 ], [ -634405.807999959215522, 9311597.427461696788669 ], [ -634381.336258106748573, 9311751.935958884656429 ], [ -634310.316497146734037, 9311891.320087842643261 ], [ -634199.70062610541936, 9312001.935958884656429 ], [ -634060.316497146734037, 9312072.955719843506813 ], [ -633905.807999959215522, 9312097.427461696788669 ], [ -633751.299502771697007, 9312072.955719843506813 ], [ -633611.915373813011684, 9312001.935958884656429 ], [ -633501.299502771697007, 9311891.320087842643261 ], [ -633430.27974181168247, 9311751.935958884656429 ], [ -633405.807999959215522, 9311597.427461696788669 ] ] ] ] } },
{ "type": "Feature", "properties": { "id": 7, "Indomaret": "Indomaret Penjaringan" }, "geometry": { "type": "MultiPolygon", "coordinates": [ [ [ [ -633460.497431789524853, 9311814.005217544734478 ], [ -633484.969173641991802, 9311659.496720356866717 ], [ -633555.988934602006339, 9311520.112591398879886 ], [ -633666.604805643321015, 9311409.496720356866717 ], [ -633805.988934602006339, 9311338.476959398016334 ], [ -633960.497431789524853, 9311314.005217544734478 ], [ -634115.005928977043368, 9311338.476959398016334 ], [ -634254.390057935728692, 9311409.496720356866717 ], [ -634365.005928977043368, 9311520.112591398879886 ], [ -634436.025689937057905, 9311659.496720356866717 ], [ -634460.497431789524853, 9311814.005217544734478 ], [ -634436.025689937057905, 9311968.513714732602239 ], [ -634365.005928977043368, 9312107.89784369058907 ], [ -634254.390057935728692, 9312218.513714732602239 ], [ -634115.005928977043368, 9312289.533475691452622 ], [ -633960.497431789524853, 9312314.005217544734478 ], [ -633805.988934602006339, 9312289.533475691452622 ], [ -633666.604805643321015, 9312218.513714732602239 ], [ -633555.988934602006339, 9312107.89784369058907 ], [ -633484.969173641991802, 9311968.513714732602239 ], [ -633460.497431789524853, 9311814.005217544734478 ] ] ] ] } },
{ "type": "Feature", "properties": { "id": 8, "Indomaret": "Indomaret Penjaringan" }, "geometry": { "type": "MultiPolygon", "coordinates": [ [ [ [ -633585.94795828172937, 9311946.221401989459991 ], [ -633610.419700134196319, 9311791.712904801592231 ], [ -633681.439461094210856, 9311652.328775843605399 ], [ -633792.055332135525532, 9311541.712904801592231 ], [ -633931.439461094210856, 9311470.693143842741847 ], [ -634085.94795828172937, 9311446.221401989459991 ], [ -634240.456455469247885, 9311470.693143842741847 ], [ -634379.840584427933209, 9311541.712904801592231 ], [ -634490.456455469247885, 9311652.328775843605399 ], [ -634561.476216429262422, 9311791.712904801592231 ], [ -634585.94795828172937, 9311946.221401989459991 ], [ -634561.476216429262422, 9312100.729899177327752 ], [ -634490.456455469247885, 9312240.114028135314584 ], [ -634379.840584427933209, 9312350.729899177327752 ], [ -634240.456455469247885, 9312421.749660136178136 ], [ -634085.94795828172937, 9312446.221401989459991 ], [ -633931.439461094210856, 9312421.749660136178136 ], [ -633792.055332135525532, 9312350.729899177327752 ], [ -633681.439461094210856, 9312240.114028135314584 ], [ -633610.419700134196319, 9312100.729899177327752 ], [ -633585.94795828172937, 9311946.221401989459991 ] ] ] ] } },
{ "type": "Feature", "properties": { "id": 9, "Indomaret": "Indomaret Penjaringan" }, "geometry": { "type": "MultiPolygon", "coordinates": [ [ [ [ -633666.173340919194743, 9312085.048549400642514 ], [ -633690.645082771661691, 9311930.540052212774754 ], [ -633761.664843731676228, 9311791.155923254787922 ], [ -633872.280714772990905, 9311680.540052212774754 ], [ -634011.664843731676228, 9311609.52029125392437 ], [ -634166.173340919194743, 9311585.048549400642514 ], [ -634320.681838106713258, 9311609.52029125392437 ], [ -634460.065967065398581, 9311680.540052212774754 ], [ -634570.681838106713258, 9311791.155923254787922 ], [ -634641.701599066727795, 9311930.540052212774754 ], [ -634666.173340919194743, 9312085.048549400642514 ], [ -634641.701599066727795, 9312239.557046588510275 ], [ -634570.681838106713258, 9312378.941175546497107 ], [ -634460.065967065398581, 9312489.557046588510275 ], [ -634320.681838106713258, 9312560.576807547360659 ], [ -634166.173340919194743, 9312585.048549400642514 ], [ -634011.664843731676228, 9312560.576807547360659 ], [ -633872.280714772990905, 9312489.557046588510275 ], [ -633761.664843731676228, 9312378.941175546497107 ], [ -633690.645082771661691, 9312239.557046588510275 ], [ -633666.173340919194743, 9312085.048549400642514 ] ] ] ] } },
{ "type": "Feature", "properties": { "id": 10, "Indomaret": "Indomaret Penjaringan" }, "geometry": { "type": "MultiPolygon", "coordinates": [ [ [ [ -633552.500208720564842, 9312151.359544077888131 ], [ -633576.971950573031791, 9311996.85104689002037 ], [ -633647.991711533046328, 9311857.466917932033539 ], [ -633758.607582574361004, 9311746.85104689002037 ], [ -633897.991711533046328, 9311675.831285931169987 ], [ -634052.500208720564842, 9311651.359544077888131 ], [ -634207.008705908083357, 9311675.831285931169987 ], [ -634346.392834866768681, 9311746.85104689002037 ], [ -634457.008705908083357, 9311857.466917932033539 ], [ -634528.028466868097894, 9311996.85104689002037 ], [ -634552.500208720564842, 9312151.359544077888131 ], [ -634528.028466868097894, 9312305.868041265755892 ], [ -634457.008705908083357, 9312445.252170223742723 ], [ -634346.392834866768681, 9312555.868041265755892 ], [ -634207.008705908083357, 9312626.887802224606276 ], [ -634052.500208720564842, 9312651.359544077888131 ], [ -633897.991711533046328, 9312626.887802224606276 ], [ -633758.607582574361004, 9312555.868041265755892 ], [ -633647.991711533046328, 9312445.252170223742723 ], [ -633576.971950573031791, 9312305.868041265755892 ], [ -633552.500208720564842, 9312151.359544077888131 ] ] ] ] } },
{ "type": "Feature", "properties": { "id": 11, "Indomaret": "Indomaret Penjaringan" }, "geometry": { "type": "MultiPolygon", "coordinates": [ [ [ [ -633755.412329551531002, 9311611.689943309873343 ], [ -633779.88407140399795, 9311457.181446122005582 ], [ -633850.903832364012487, 9311317.79731716401875 ], [ -633961.519703405327164, 9311207.181446122005582 ], [ -634100.903832364012487, 9311136.161685163155198 ], [ -634255.412329551531002, 9311111.689943309873343 ], [ -634409.920826739049517, 9311136.161685163155198 ], [ -634549.30495569773484, 9311207.181446122005582 ], [ -634659.920826739049517, 9311317.79731716401875 ], [ -634730.940587699064054, 9311457.181446122005582 ], [ -634755.412329551531002, 9311611.689943309873343 ], [ -634730.940587699064054, 9311766.198440497741103 ], [ -634659.920826739049517, 9311905.582569455727935 ], [ -634549.30495569773484, 9312016.198440497741103 ], [ -634409.920826739049517, 9312087.218201456591487 ], [ -634255.412329551531002, 9312111.689943309873343 ], [ -634100.903832364012487, 9312087.218201456591487 ], [ -633961.519703405327164, 9312016.198440497741103 ], [ -633850.903832364012487, 9311905.582569455727935 ], [ -633779.88407140399795, 9311766.198440497741103 ], [ -633755.412329551531002, 9311611.689943309873343 ] ] ] ] } },
{ "type": "Feature", "properties": { "id": 12, "Indomaret": "Indomaret Penjaringan" }, "geometry": { "type": "MultiPolygon", "coordinates": [ [ [ [ -634298.621528041083366, 9311558.497491927817464 ], [ -634323.093269893550314, 9311403.988994739949703 ], [ -634394.113030853564851, 9311264.604865781962872 ], [ -634504.728901894879527, 9311153.988994739949703 ], [ -634644.113030853564851, 9311082.969233781099319 ], [ -634798.621528041083366, 9311058.497491927817464 ], [ -634953.13002522860188, 9311082.969233781099319 ], [ -635092.514154187287204, 9311153.988994739949703 ], [ -635203.13002522860188, 9311264.604865781962872 ], [ -635274.149786188616417, 9311403.988994739949703 ], [ -635298.621528041083366, 9311558.497491927817464 ], [ -635274.149786188616417, 9311713.005989115685225 ], [ -635203.13002522860188, 9311852.390118073672056 ], [ -635092.514154187287204, 9311963.005989115685225 ], [ -634953.13002522860188, 9312034.025750074535608 ], [ -634798.621528041083366, 9312058.497491927817464 ], [ -634644.113030853564851, 9312034.025750074535608 ], [ -634504.728901894879527, 9311963.005989115685225 ], [ -634394.113030853564851, 9311852.390118073672056 ], [ -634323.093269893550314, 9311713.005989115685225 ], [ -634298.621528041083366, 9311558.497491927817464 ] ] ] ] } },
{ "type": "Feature", "properties": { "id": 13, "Indomaret": "Indomaret Penjaringan" }, "geometry": { "type": "MultiPolygon", "coordinates": [ [ [ [ -634454.998809528304264, 9311570.500491207465529 ], [ -634479.470551380771212, 9311415.991994019597769 ], [ -634550.490312340785749, 9311276.607865061610937 ], [ -634661.106183382100426, 9311165.991994019597769 ], [ -634800.490312340785749, 9311094.972233060747385 ], [ -634954.998809528304264, 9311070.500491207465529 ], [ -635109.507306715822779, 9311094.972233060747385 ], [ -635248.891435674508102, 9311165.991994019597769 ], [ -635359.507306715822779, 9311276.607865061610937 ], [ -635430.527067675837316, 9311415.991994019597769 ], [ -635454.998809528304264, 9311570.500491207465529 ], [ -635430.527067675837316, 9311725.00898839533329 ], [ -635359.507306715822779, 9311864.393117353320122 ], [ -635248.891435674508102, 9311975.00898839533329 ], [ -635109.507306715822779, 9312046.028749354183674 ], [ -634954.998809528304264, 9312070.500491207465529 ], [ -634800.490312340785749, 9312046.028749354183674 ], [ -634661.106183382100426, 9311975.00898839533329 ], [ -634550.490312340785749, 9311864.393117353320122 ], [ -634479.470551380771212, 9311725.00898839533329 ], [ -634454.998809528304264, 9311570.500491207465529 ] ] ] ] } },
{ "type": "Feature", "properties": { "id": 14, "Indomaret": "Indomaret Penjaringan" }, "geometry": { "type": "MultiPolygon", "coordinates": [ [ [ [ -634646.667207607068121, 9311760.57226169295609 ], [ -634671.13894945953507, 9311606.063764505088329 ], [ -634742.158710419549607, 9311466.679635547101498 ], [ -634852.774581460864283, 9311356.063764505088329 ], [ -634992.158710419549607, 9311285.044003546237946 ], [ -635146.667207607068121, 9311260.57226169295609 ], [ -635301.175704794586636, 9311285.044003546237946 ], [ -635440.55983375327196, 9311356.063764505088329 ], [ -635551.175704794586636, 9311466.679635547101498 ], [ -635622.195465754601173, 9311606.063764505088329 ], [ -635646.667207607068121, 9311760.57226169295609 ], [ -635622.195465754601173, 9311915.080758880823851 ], [ -635551.175704794586636, 9312054.464887838810682 ], [ -635440.55983375327196, 9312165.080758880823851 ], [ -635301.175704794586636, 9312236.100519839674234 ], [ -635146.667207607068121, 9312260.57226169295609 ], [ -634992.158710419549607, 9312236.100519839674234 ], [ -634852.774581460864283, 9312165.080758880823851 ], [ -634742.158710419549607, 9312054.464887838810682 ], [ -634671.13894945953507, 9311915.080758880823851 ], [ -634646.667207607068121, 9311760.57226169295609 ] ] ] ] } },
{ "type": "Feature", "properties": { "id": 15, "Indomaret": "Indomaret Penjaringan" }, "geometry": { "type": "MultiPolygon", "coordinates": [ [ [ [ -634802.396900410763919, 9311857.18631836771965 ], [ -634826.868642263230868, 9311702.67782117985189 ], [ -634897.888403223245405, 9311563.293692221865058 ], [ -635008.504274264560081, 9311452.67782117985189 ], [ -635147.888403223245405, 9311381.658060221001506 ], [ -635302.396900410763919, 9311357.18631836771965 ], [ -635456.905397598282434, 9311381.658060221001506 ], [ -635596.289526556967758, 9311452.67782117985189 ], [ -635706.905397598282434, 9311563.293692221865058 ], [ -635777.925158558296971, 9311702.67782117985189 ], [ -635802.396900410763919, 9311857.18631836771965 ], [ -635777.925158558296971, 9312011.694815555587411 ], [ -635706.905397598282434, 9312151.078944513574243 ], [ -635596.289526556967758, 9312261.694815555587411 ], [ -635456.905397598282434, 9312332.714576514437795 ], [ -635302.396900410763919, 9312357.18631836771965 ], [ -635147.888403223245405, 9312332.714576514437795 ], [ -635008.504274264560081, 9312261.694815555587411 ], [ -634897.888403223245405, 9312151.078944513574243 ], [ -634826.868642263230868, 9312011.694815555587411 ], [ -634802.396900410763919, 9311857.18631836771965 ] ] ] ] } },
{ "type": "Feature", "properties": { "id": 16, "Indomaret": "Indomaret Pluit" }, "geometry": { "type": "MultiPolygon", "coordinates": [ [ [ [ -634263.65681207831949, 9312262.099466076120734 ], [ -634288.128553930786438, 9312107.590968888252974 ], [ -634359.148314890800975, 9311968.206839930266142 ], [ -634469.764185932115652, 9311857.590968888252974 ], [ -634609.148314890800975, 9311786.57120792940259 ], [ -634763.65681207831949, 9311762.099466076120734 ], [ -634918.165309265838005, 9311786.57120792940259 ], [ -635057.549438224523328, 9311857.590968888252974 ], [ -635168.165309265838005, 9311968.206839930266142 ], [ -635239.185070225852542, 9312107.590968888252974 ], [ -635263.65681207831949, 9312262.099466076120734 ], [ -635239.185070225852542, 9312416.607963263988495 ], [ -635168.165309265838005, 9312555.992092221975327 ], [ -635057.549438224523328, 9312666.607963263988495 ], [ -634918.165309265838005, 9312737.627724222838879 ], [ -634763.65681207831949, 9312762.099466076120734 ], [ -634609.148314890800975, 9312737.627724222838879 ], [ -634469.764185932115652, 9312666.607963263988495 ], [ -634359.148314890800975, 9312555.992092221975327 ], [ -634288.128553930786438, 9312416.607963263988495 ], [ -634263.65681207831949, 9312262.099466076120734 ] ] ] ] } },
{ "type": "Feature", "properties": { "id": 17, "Indomaret": "Indomaret Pluit" }, "geometry": { "type": "MultiPolygon", "coordinates": [ [ [ [ -634088.921898155007511, 9312279.636989165097475 ], [ -634113.39364000747446, 9312125.128491977229714 ], [ -634184.413400967488997, 9311985.744363019242883 ], [ -634295.029272008803673, 9311875.128491977229714 ], [ -634434.413400967488997, 9311804.108731018379331 ], [ -634588.921898155007511, 9311779.636989165097475 ], [ -634743.430395342526026, 9311804.108731018379331 ], [ -634882.81452430121135, 9311875.128491977229714 ], [ -634993.430395342526026, 9311985.744363019242883 ], [ -635064.450156302540563, 9312125.128491977229714 ], [ -635088.921898155007511, 9312279.636989165097475 ], [ -635064.450156302540563, 9312434.145486352965236 ], [ -634993.430395342526026, 9312573.529615310952067 ], [ -634882.81452430121135, 9312684.145486352965236 ], [ -634743.430395342526026, 9312755.165247311815619 ], [ -634588.921898155007511, 9312779.636989165097475 ], [ -634434.413400967488997, 9312755.165247311815619 ], [ -634295.029272008803673, 9312684.145486352965236 ], [ -634184.413400967488997, 9312573.529615310952067 ], [ -634113.39364000747446, 9312434.145486352965236 ], [ -634088.921898155007511, 9312279.636989165097475 ] ] ] ] } },
{ "type": "Feature", "properties": { "id": 18, "Indomaret": "Indomaret Pluit" }, "geometry": { "type": "MultiPolygon", "coordinates": [ [ [ [ -634068.301913178758696, 9312206.882341096177697 ], [ -634092.773655031225644, 9312052.373843908309937 ], [ -634163.793415991240181, 9311912.989714950323105 ], [ -634274.409287032554857, 9311802.373843908309937 ], [ -634413.793415991240181, 9311731.354082949459553 ], [ -634568.301913178758696, 9311706.882341096177697 ], [ -634722.81041036627721, 9311731.354082949459553 ], [ -634862.194539324962534, 9311802.373843908309937 ], [ -634972.81041036627721, 9311912.989714950323105 ], [ -635043.830171326291747, 9312052.373843908309937 ], [ -635068.301913178758696, 9312206.882341096177697 ], [ -635043.830171326291747, 9312361.390838284045458 ], [ -634972.81041036627721, 9312500.77496724203229 ], [ -634862.194539324962534, 9312611.390838284045458 ], [ -634722.81041036627721, 9312682.410599242895842 ], [ -634568.301913178758696, 9312706.882341096177697 ], [ -634413.793415991240181, 9312682.410599242895842 ], [ -634274.409287032554857, 9312611.390838284045458 ], [ -634163.793415991240181, 9312500.77496724203229 ], [ -634092.773655031225644, 9312361.390838284045458 ], [ -634068.301913178758696, 9312206.882341096177697 ] ] ] ] } },
{ "type": "Feature", "properties": { "id": 19, "Indomaret": "Indomaret Pluit" }, "geometry": { "type": "MultiPolygon", "coordinates": [ [ [ [ -633900.200878550298512, 9312000.721658950671554 ], [ -633924.67262040276546, 9311846.213161762803793 ], [ -633995.692381362779997, 9311706.829032804816961 ], [ -634106.308252404094674, 9311596.213161762803793 ], [ -634245.692381362779997, 9311525.193400803953409 ], [ -634400.200878550298512, 9311500.721658950671554 ], [ -634554.709375737817027, 9311525.193400803953409 ], [ -634694.09350469650235, 9311596.213161762803793 ], [ -634804.709375737817027, 9311706.829032804816961 ], [ -634875.729136697831564, 9311846.213161762803793 ], [ -634900.200878550298512, 9312000.721658950671554 ], [ -634875.729136697831564, 9312155.230156138539314 ], [ -634804.709375737817027, 9312294.614285096526146 ], [ -634694.09350469650235, 9312405.230156138539314 ], [ -634554.709375737817027, 9312476.249917097389698 ], [ -634400.200878550298512, 9312500.721658950671554 ], [ -634245.692381362779997, 9312476.249917097389698 ], [ -634106.308252404094674, 9312405.230156138539314 ], [ -633995.692381362779997, 9312294.614285096526146 ], [ -633924.67262040276546, 9312155.230156138539314 ], [ -633900.200878550298512, 9312000.721658950671554 ] ] ] ] } },
{ "type": "Feature", "properties": { "id": 20, "Indomaret": "Indomaret Penjaringan" }, "geometry": { "type": "MultiPolygon", "coordinates": [ [ [ [ -634883.062612151261419, 9311421.215881368145347 ], [ -634907.534354003728367, 9311266.707384180277586 ], [ -634978.554114963742904, 9311127.323255222290754 ], [ -635089.169986005057581, 9311016.707384180277586 ], [ -635228.554114963742904, 9310945.687623221427202 ], [ -635383.062612151261419, 9310921.215881368145347 ], [ -635537.571109338779934, 9310945.687623221427202 ], [ -635676.955238297465257, 9311016.707384180277586 ], [ -635787.571109338779934, 9311127.323255222290754 ], [ -635858.590870298794471, 9311266.707384180277586 ], [ -635883.062612151261419, 9311421.215881368145347 ], [ -635858.590870298794471, 9311575.724378556013107 ], [ -635787.571109338779934, 9311715.108507513999939 ], [ -635676.955238297465257, 9311825.724378556013107 ], [ -635537.571109338779934, 9311896.744139514863491 ], [ -635383.062612151261419, 9311921.215881368145347 ], [ -635228.554114963742904, 9311896.744139514863491 ], [ -635089.169986005057581, 9311825.724378556013107 ], [ -634978.554114963742904, 9311715.108507513999939 ], [ -634907.534354003728367, 9311575.724378556013107 ], [ -634883.062612151261419, 9311421.215881368145347 ] ] ] ] } },
{ "type": "Feature", "properties": { "id": 21, "Indomaret": "Indomaret Penjaringan" }, "geometry": { "type": "MultiPolygon", "coordinates": [ [ [ [ -634672.604818839812651, 9310767.939581923186779 ], [ -634697.0765606922796, 9310613.431084735319018 ], [ -634768.096321652294137, 9310474.046955777332187 ], [ -634878.712192693608813, 9310363.431084735319018 ], [ -635018.096321652294137, 9310292.411323776468635 ], [ -635172.604818839812651, 9310267.939581923186779 ], [ -635327.113316027331166, 9310292.411323776468635 ], [ -635466.49744498601649, 9310363.431084735319018 ], [ -635577.113316027331166, 9310474.046955777332187 ], [ -635648.133076987345703, 9310613.431084735319018 ], [ -635672.604818839812651, 9310767.939581923186779 ], [ -635648.133076987345703, 9310922.44807911105454 ], [ -635577.113316027331166, 9311061.832208069041371 ], [ -635466.49744498601649, 9311172.44807911105454 ], [ -635327.113316027331166, 9311243.467840069904923 ], [ -635172.604818839812651, 9311267.939581923186779 ], [ -635018.096321652294137, 9311243.467840069904923 ], [ -634878.712192693608813, 9311172.44807911105454 ], [ -634768.096321652294137, 9311061.832208069041371 ], [ -634697.0765606922796, 9310922.44807911105454 ], [ -634672.604818839812651, 9310767.939581923186779 ] ] ] ] } },
{ "type": "Feature", "properties": { "id": 22, "Indomaret": "Indomaret Pejagalan" }, "geometry": { "type": "MultiPolygon", "coordinates": [ [ [ [ -634682.118355963146314, 9310521.964749660342932 ], [ -634706.590097815613262, 9310367.456252472475171 ], [ -634777.609858775627799, 9310228.072123514488339 ], [ -634888.225729816942476, 9310117.456252472475171 ], [ -635027.609858775627799, 9310046.436491513624787 ], [ -635182.118355963146314, 9310021.964749660342932 ], [ -635336.626853150664829, 9310046.436491513624787 ], [ -635476.010982109350152, 9310117.456252472475171 ], [ -635586.626853150664829, 9310228.072123514488339 ], [ -635657.646614110679366, 9310367.456252472475171 ], [ -635682.118355963146314, 9310521.964749660342932 ], [ -635657.646614110679366, 9310676.473246848210692 ], [ -635586.626853150664829, 9310815.857375806197524 ], [ -635476.010982109350152, 9310926.473246848210692 ], [ -635336.626853150664829, 9310997.493007807061076 ], [ -635182.118355963146314, 9311021.964749660342932 ], [ -635027.609858775627799, 9310997.493007807061076 ], [ -634888.225729816942476, 9310926.473246848210692 ], [ -634777.609858775627799, 9310815.857375806197524 ], [ -634706.590097815613262, 9310676.473246848210692 ], [ -634682.118355963146314, 9310521.964749660342932 ] ] ] ] } },
{ "type": "Feature", "properties": { "id": 23, "Indomaret": "Indomaret Pejagalan" }, "geometry": { "type": "MultiPolygon", "coordinates": [ [ [ [ -634651.227478868560866, 9310258.233037404716015 ], [ -634675.699220721027814, 9310103.724540216848254 ], [ -634746.718981681042351, 9309964.340411258861423 ], [ -634857.334852722357027, 9309853.724540216848254 ], [ -634996.718981681042351, 9309782.70477925799787 ], [ -635151.227478868560866, 9309758.233037404716015 ], [ -635305.73597605607938, 9309782.70477925799787 ], [ -635445.120105014764704, 9309853.724540216848254 ], [ -635555.73597605607938, 9309964.340411258861423 ], [ -635626.755737016093917, 9310103.724540216848254 ], [ -635651.227478868560866, 9310258.233037404716015 ], [ -635626.755737016093917, 9310412.741534592583776 ], [ -635555.73597605607938, 9310552.125663550570607 ], [ -635445.120105014764704, 9310662.741534592583776 ], [ -635305.73597605607938, 9310733.761295551434159 ], [ -635151.227478868560866, 9310758.233037404716015 ], [ -634996.718981681042351, 9310733.761295551434159 ], [ -634857.334852722357027, 9310662.741534592583776 ], [ -634746.718981681042351, 9310552.125663550570607 ], [ -634675.699220721027814, 9310412.741534592583776 ], [ -634651.227478868560866, 9310258.233037404716015 ] ] ] ] } },
{ "type": "Feature", "properties": { "id": 24, "Indomaret": "Indomaret Pejagalan" }, "geometry": { "type": "MultiPolygon", "coordinates": [ [ [ [ -634772.977423063945025, 9310269.855860777199268 ], [ -634797.449164916411974, 9310115.347363589331508 ], [ -634868.468925876426511, 9309975.963234631344676 ], [ -634979.084796917741187, 9309865.347363589331508 ], [ -635118.468925876426511, 9309794.327602630481124 ], [ -635272.977423063945025, 9309769.855860777199268 ], [ -635427.48592025146354, 9309794.327602630481124 ], [ -635566.870049210148863, 9309865.347363589331508 ], [ -635677.48592025146354, 9309975.963234631344676 ], [ -635748.505681211478077, 9310115.347363589331508 ], [ -635772.977423063945025, 9310269.855860777199268 ], [ -635748.505681211478077, 9310424.364357965067029 ], [ -635677.48592025146354, 9310563.748486923053861 ], [ -635566.870049210148863, 9310674.364357965067029 ], [ -635427.48592025146354, 9310745.384118923917413 ], [ -635272.977423063945025, 9310769.855860777199268 ], [ -635118.468925876426511, 9310745.384118923917413 ], [ -634979.084796917741187, 9310674.364357965067029 ], [ -634868.468925876426511, 9310563.748486923053861 ], [ -634797.449164916411974, 9310424.364357965067029 ], [ -634772.977423063945025, 9310269.855860777199268 ] ] ] ] } },
{ "type": "Feature", "properties": { "id": 25, "Indomaret": "Indomaret Pejagalan" }, "geometry": { "type": "MultiPolygon", "coordinates": [ [ [ [ -635148.135111152660102, 9310679.268972801044583 ], [ -635172.60685300512705, 9310524.760475613176823 ], [ -635243.626613965141587, 9310385.376346655189991 ], [ -635354.242485006456263, 9310274.760475613176823 ], [ -635493.626613965141587, 9310203.740714654326439 ], [ -635648.135111152660102, 9310179.268972801044583 ], [ -635802.643608340178616, 9310203.740714654326439 ], [ -635942.02773729886394, 9310274.760475613176823 ], [ -636052.643608340178616, 9310385.376346655189991 ], [ -636123.663369300193153, 9310524.760475613176823 ], [ -636148.135111152660102, 9310679.268972801044583 ], [ -636123.663369300193153, 9310833.777469988912344 ], [ -636052.643608340178616, 9310973.161598946899176 ], [ -635942.02773729886394, 9311083.777469988912344 ], [ -635802.643608340178616, 9311154.797230947762728 ], [ -635648.135111152660102, 9311179.268972801044583 ], [ -635493.626613965141587, 9311154.797230947762728 ], [ -635354.242485006456263, 9311083.777469988912344 ], [ -635243.626613965141587, 9310973.161598946899176 ], [ -635172.60685300512705, 9310833.777469988912344 ], [ -635148.135111152660102, 9310679.268972801044583 ] ] ] ] } },
{ "type": "Feature", "properties": { "id": 26, "Indomaret": "Indomaret Pejagalan" }, "geometry": { "type": "MultiPolygon", "coordinates": [ [ [ [ -635223.892052624840289, 9310703.86669821664691 ], [ -635248.363794477307238, 9310549.358201028779149 ], [ -635319.383555437321775, 9310409.974072070792317 ], [ -635429.999426478636451, 9310299.358201028779149 ], [ -635569.383555437321775, 9310228.338440069928765 ], [ -635723.892052624840289, 9310203.86669821664691 ], [ -635878.400549812358804, 9310228.338440069928765 ], [ -636017.784678771044128, 9310299.358201028779149 ], [ -636128.400549812358804, 9310409.974072070792317 ], [ -636199.420310772373341, 9310549.358201028779149 ], [ -636223.892052624840289, 9310703.86669821664691 ], [ -636199.420310772373341, 9310858.37519540451467 ], [ -636128.400549812358804, 9310997.759324362501502 ], [ -636017.784678771044128, 9311108.37519540451467 ], [ -635878.400549812358804, 9311179.394956363365054 ], [ -635723.892052624840289, 9311203.86669821664691 ], [ -635569.383555437321775, 9311179.394956363365054 ], [ -635429.999426478636451, 9311108.37519540451467 ], [ -635319.383555437321775, 9310997.759324362501502 ], [ -635248.363794477307238, 9310858.37519540451467 ], [ -635223.892052624840289, 9310703.86669821664691 ] ] ] ] } },
{ "type": "Feature", "properties": { "id": 27, "Indomaret": "Indomaret Pejagalan" }, "geometry": { "type": "MultiPolygon", "coordinates": [ [ [ [ -634978.772212309762836, 9311155.314446685835719 ], [ -635003.243954162229784, 9311000.805949497967958 ], [ -635074.263715122244321, 9310861.421820539981127 ], [ -635184.879586163558997, 9310750.805949497967958 ], [ -635324.263715122244321, 9310679.786188539117575 ], [ -635478.772212309762836, 9310655.314446685835719 ], [ -635633.28070949728135, 9310679.786188539117575 ], [ -635772.664838455966674, 9310750.805949497967958 ], [ -635883.28070949728135, 9310861.421820539981127 ], [ -635954.300470457295887, 9311000.805949497967958 ], [ -635978.772212309762836, 9311155.314446685835719 ], [ -635954.300470457295887, 9311309.82294387370348 ], [ -635883.28070949728135, 9311449.207072831690311 ], [ -635772.664838455966674, 9311559.82294387370348 ], [ -635633.28070949728135, 9311630.842704832553864 ], [ -635478.772212309762836, 9311655.314446685835719 ], [ -635324.263715122244321, 9311630.842704832553864 ], [ -635184.879586163558997, 9311559.82294387370348 ], [ -635074.263715122244321, 9311449.207072831690311 ], [ -635003.243954162229784, 9311309.82294387370348 ], [ -634978.772212309762836, 9311155.314446685835719 ] ] ] ] } },
{ "type": "Feature", "properties": { "id": 28, "Indomaret": "Indomaret Penjaringan" }, "geometry": { "type": "MultiPolygon", "coordinates": [ [ [ [ -635098.851734412135556, 9311822.231569500640035 ], [ -635123.323476264602505, 9311667.723072312772274 ], [ -635194.343237224617042, 9311528.338943354785442 ], [ -635304.959108265931718, 9311417.723072312772274 ], [ -635444.343237224617042, 9311346.70331135392189 ], [ -635598.851734412135556, 9311322.231569500640035 ], [ -635753.360231599654071, 9311346.70331135392189 ], [ -635892.744360558339395, 9311417.723072312772274 ], [ -636003.360231599654071, 9311528.338943354785442 ], [ -636074.379992559668608, 9311667.723072312772274 ], [ -636098.851734412135556, 9311822.231569500640035 ], [ -636074.379992559668608, 9311976.740066688507795 ], [ -636003.360231599654071, 9312116.124195646494627 ], [ -635892.744360558339395, 9312226.740066688507795 ], [ -635753.360231599654071, 9312297.759827647358179 ], [ -635598.851734412135556, 9312322.231569500640035 ], [ -635444.343237224617042, 9312297.759827647358179 ], [ -635304.959108265931718, 9312226.740066688507795 ], [ -635194.343237224617042, 9312116.124195646494627 ], [ -635123.323476264602505, 9311976.740066688507795 ], [ -635098.851734412135556, 9311822.231569500640035 ] ] ] ] } },
{ "type": "Feature", "properties": { "id": 29, "Indomaret": "Indomaret Pluit" }, "geometry": { "type": "MultiPolygon", "coordinates": [ [ [ [ -635336.279247591970488, 9312546.228768337517977 ], [ -635360.750989444437437, 9312391.720271149650216 ], [ -635431.770750404451974, 9312252.336142191663384 ], [ -635542.38662144576665, 9312141.720271149650216 ], [ -635681.770750404451974, 9312070.700510190799832 ], [ -635836.279247591970488, 9312046.228768337517977 ], [ -635990.787744779489003, 9312070.700510190799832 ], [ -636130.171873738174327, 9312141.720271149650216 ], [ -636240.787744779489003, 9312252.336142191663384 ], [ -636311.80750573950354, 9312391.720271149650216 ], [ -636336.279247591970488, 9312546.228768337517977 ], [ -636311.80750573950354, 9312700.737265525385737 ], [ -636240.787744779489003, 9312840.121394483372569 ], [ -636130.171873738174327, 9312950.737265525385737 ], [ -635990.787744779489003, 9313021.757026484236121 ], [ -635836.279247591970488, 9313046.228768337517977 ], [ -635681.770750404451974, 9313021.757026484236121 ], [ -635542.38662144576665, 9312950.737265525385737 ], [ -635431.770750404451974, 9312840.121394483372569 ], [ -635360.750989444437437, 9312700.737265525385737 ], [ -635336.279247591970488, 9312546.228768337517977 ] ] ] ] } },
{ "type": "Feature", "properties": { "id": 30, "Indomaret": "Indomaret Pluit" }, "geometry": { "type": "MultiPolygon", "coordinates": [ [ [ [ -635726.006618445506319, 9312803.809311520308256 ], [ -635750.478360297973268, 9312649.300814332440495 ], [ -635821.498121257987805, 9312509.916685374453664 ], [ -635932.113992299302481, 9312399.300814332440495 ], [ -636071.498121257987805, 9312328.281053373590112 ], [ -636226.006618445506319, 9312303.809311520308256 ], [ -636380.515115633024834, 9312328.281053373590112 ], [ -636519.899244591710158, 9312399.300814332440495 ], [ -636630.515115633024834, 9312509.916685374453664 ], [ -636701.534876593039371, 9312649.300814332440495 ], [ -636726.006618445506319, 9312803.809311520308256 ], [ -636701.534876593039371, 9312958.317808708176017 ], [ -636630.515115633024834, 9313097.701937666162848 ], [ -636519.899244591710158, 9313208.317808708176017 ], [ -636380.515115633024834, 9313279.337569667026401 ], [ -636226.006618445506319, 9313303.809311520308256 ], [ -636071.498121257987805, 9313279.337569667026401 ], [ -635932.113992299302481, 9313208.317808708176017 ], [ -635821.498121257987805, 9313097.701937666162848 ], [ -635750.478360297973268, 9312958.317808708176017 ], [ -635726.006618445506319, 9312803.809311520308256 ] ] ] ] } },
{ "type": "Feature", "properties": { "id": 31, "Indomaret": "Indomaret Pluit" }, "geometry": { "type": "MultiPolygon", "coordinates": [ [ [ [ -635679.220032538287342, 9313084.289365822449327 ], [ -635703.69177439075429, 9312929.780868634581566 ], [ -635774.711535350768827, 9312790.396739676594734 ], [ -635885.327406392083503, 9312679.780868634581566 ], [ -636024.711535350768827, 9312608.761107675731182 ], [ -636179.220032538287342, 9312584.289365822449327 ], [ -636333.728529725805856, 9312608.761107675731182 ], [ -636473.11265868449118, 9312679.780868634581566 ], [ -636583.728529725805856, 9312790.396739676594734 ], [ -636654.748290685820393, 9312929.780868634581566 ], [ -636679.220032538287342, 9313084.289365822449327 ], [ -636654.748290685820393, 9313238.797863010317087 ], [ -636583.728529725805856, 9313378.181991968303919 ], [ -636473.11265868449118, 9313488.797863010317087 ], [ -636333.728529725805856, 9313559.817623969167471 ], [ -636179.220032538287342, 9313584.289365822449327 ], [ -636024.711535350768827, 9313559.817623969167471 ], [ -635885.327406392083503, 9313488.797863010317087 ], [ -635774.711535350768827, 9313378.181991968303919 ], [ -635703.69177439075429, 9313238.797863010317087 ], [ -635679.220032538287342, 9313084.289365822449327 ] ] ] ] } },
{ "type": "Feature", "properties": { "id": 32, "Indomaret": "Indomaret Pluit" }, "geometry": { "type": "MultiPolygon", "coordinates": [ [ [ [ -635273.906121659092605, 9313095.625166676938534 ], [ -635298.377863511559553, 9312941.116669489070773 ], [ -635369.39762447157409, 9312801.732540531083941 ], [ -635480.013495512888767, 9312691.116669489070773 ], [ -635619.39762447157409, 9312620.096908530220389 ], [ -635773.906121659092605, 9312595.625166676938534 ], [ -635928.41461884661112, 9312620.096908530220389 ], [ -636067.798747805296443, 9312691.116669489070773 ], [ -636178.41461884661112, 9312801.732540531083941 ], [ -636249.434379806625657, 9312941.116669489070773 ], [ -636273.906121659092605, 9313095.625166676938534 ], [ -636249.434379806625657, 9313250.133663864806294 ], [ -636178.41461884661112, 9313389.517792822793126 ], [ -636067.798747805296443, 9313500.133663864806294 ], [ -635928.41461884661112, 9313571.153424823656678 ], [ -635773.906121659092605, 9313595.625166676938534 ], [ -635619.39762447157409, 9313571.153424823656678 ], [ -635480.013495512888767, 9313500.133663864806294 ], [ -635369.39762447157409, 9313389.517792822793126 ], [ -635298.377863511559553, 9313250.133663864806294 ], [ -635273.906121659092605, 9313095.625166676938534 ] ] ] ] } },
{ "type": "Feature", "properties": { "id": 33, "Indomaret": "Indomaret Pluit" }, "geometry": { "type": "MultiPolygon", "coordinates": [ [ [ [ -635874.207936471328139, 9312249.664611484855413 ], [ -635898.679678323795088, 9312095.156114296987653 ], [ -635969.699439283809625, 9311955.771985339000821 ], [ -636080.315310325124301, 9311845.156114296987653 ], [ -636219.699439283809625, 9311774.136353338137269 ], [ -636374.207936471328139, 9311749.664611484855413 ], [ -636528.716433658846654, 9311774.136353338137269 ], [ -636668.100562617531978, 9311845.156114296987653 ], [ -636778.716433658846654, 9311955.771985339000821 ], [ -636849.736194618861191, 9312095.156114296987653 ], [ -636874.207936471328139, 9312249.664611484855413 ], [ -636849.736194618861191, 9312404.173108672723174 ], [ -636778.716433658846654, 9312543.557237630710006 ], [ -636668.100562617531978, 9312654.173108672723174 ], [ -636528.716433658846654, 9312725.192869631573558 ], [ -636374.207936471328139, 9312749.664611484855413 ], [ -636219.699439283809625, 9312725.192869631573558 ], [ -636080.315310325124301, 9312654.173108672723174 ], [ -635969.699439283809625, 9312543.557237630710006 ], [ -635898.679678323795088, 9312404.173108672723174 ], [ -635874.207936471328139, 9312249.664611484855413 ] ] ] ] } },
{ "type": "Feature", "properties": { "id": 34, "Indomaret": "Indomaret Pluit" }, "geometry": { "type": "MultiPolygon", "coordinates": [ [ [ [ -635592.55358505458571, 9310626.282156454399228 ], [ -635617.025326907052658, 9310471.773659266531467 ], [ -635688.045087867067195, 9310332.389530308544636 ], [ -635798.660958908381872, 9310221.773659266531467 ], [ -635938.045087867067195, 9310150.753898307681084 ], [ -636092.55358505458571, 9310126.282156454399228 ], [ -636247.062082242104225, 9310150.753898307681084 ], [ -636386.446211200789548, 9310221.773659266531467 ], [ -636497.062082242104225, 9310332.389530308544636 ], [ -636568.081843202118762, 9310471.773659266531467 ], [ -636592.55358505458571, 9310626.282156454399228 ], [ -636568.081843202118762, 9310780.790653642266989 ], [ -636497.062082242104225, 9310920.17478260025382 ], [ -636386.446211200789548, 9311030.790653642266989 ], [ -636247.062082242104225, 9311101.810414601117373 ], [ -636092.55358505458571, 9311126.282156454399228 ], [ -635938.045087867067195, 9311101.810414601117373 ], [ -635798.660958908381872, 9311030.790653642266989 ], [ -635688.045087867067195, 9310920.17478260025382 ], [ -635617.025326907052658, 9310780.790653642266989 ], [ -635592.55358505458571, 9310626.282156454399228 ] ] ] ] } },
{ "type": "Feature", "properties": { "id": 35, "Indomaret": "Indomaret Pejagalan" }, "geometry": { "type": "MultiPolygon", "coordinates": [ [ [ [ -636082.37537687830627, 9310836.963777041062713 ], [ -636106.847118730773218, 9310682.455279853194952 ], [ -636177.866879690787755, 9310543.07115089520812 ], [ -636288.482750732102431, 9310432.455279853194952 ], [ -636427.866879690787755, 9310361.435518894344568 ], [ -636582.37537687830627, 9310336.963777041062713 ], [ -636736.883874065824784, 9310361.435518894344568 ], [ -636876.268003024510108, 9310432.455279853194952 ], [ -636986.883874065824784, 9310543.07115089520812 ], [ -637057.903635025839321, 9310682.455279853194952 ], [ -637082.37537687830627, 9310836.963777041062713 ], [ -637057.903635025839321, 9310991.472274228930473 ], [ -636986.883874065824784, 9311130.856403186917305 ], [ -636876.268003024510108, 9311241.472274228930473 ], [ -636736.883874065824784, 9311312.492035187780857 ], [ -636582.37537687830627, 9311336.963777041062713 ], [ -636427.866879690787755, 9311312.492035187780857 ], [ -636288.482750732102431, 9311241.472274228930473 ], [ -636177.866879690787755, 9311130.856403186917305 ], [ -636106.847118730773218, 9310991.472274228930473 ], [ -636082.37537687830627, 9310836.963777041062713 ] ] ] ] } },
{ "type": "Feature", "properties": { "id": 36, "Indomaret": "Indomaret Pejagalan" }, "geometry": { "type": "MultiPolygon", "coordinates": [ [ [ [ -636059.995617099571973, 9311053.097727617248893 ], [ -636084.467358952038921, 9310898.589230429381132 ], [ -636155.487119912053458, 9310759.2051014713943 ], [ -636266.102990953368135, 9310648.589230429381132 ], [ -636405.487119912053458, 9310577.569469470530748 ], [ -636559.995617099571973, 9310553.097727617248893 ], [ -636714.504114287090488, 9310577.569469470530748 ], [ -636853.888243245775811, 9310648.589230429381132 ], [ -636964.504114287090488, 9310759.2051014713943 ], [ -637035.523875247105025, 9310898.589230429381132 ], [ -637059.995617099571973, 9311053.097727617248893 ], [ -637035.523875247105025, 9311207.606224805116653 ], [ -636964.504114287090488, 9311346.990353763103485 ], [ -636853.888243245775811, 9311457.606224805116653 ], [ -636714.504114287090488, 9311528.625985763967037 ], [ -636559.995617099571973, 9311553.097727617248893 ], [ -636405.487119912053458, 9311528.625985763967037 ], [ -636266.102990953368135, 9311457.606224805116653 ], [ -636155.487119912053458, 9311346.990353763103485 ], [ -636084.467358952038921, 9311207.606224805116653 ], [ -636059.995617099571973, 9311053.097727617248893 ] ] ] ] } },
{ "type": "Feature", "properties": { "id": 37, "Indomaret": "Indomaret Pejagalan" }, "geometry": { "type": "MultiPolygon", "coordinates": [ [ [ [ -636434.428817571140826, 9310556.126208890229464 ], [ -636458.900559423607774, 9310401.617711702361703 ], [ -636529.920320383622311, 9310262.233582744374871 ], [ -636640.536191424936987, 9310151.617711702361703 ], [ -636779.920320383622311, 9310080.597950743511319 ], [ -636934.428817571140826, 9310056.126208890229464 ], [ -637088.93731475865934, 9310080.597950743511319 ], [ -637228.321443717344664, 9310151.617711702361703 ], [ -637338.93731475865934, 9310262.233582744374871 ], [ -637409.957075718673877, 9310401.617711702361703 ], [ -637434.428817571140826, 9310556.126208890229464 ], [ -637409.957075718673877, 9310710.634706078097224 ], [ -637338.93731475865934, 9310850.018835036084056 ], [ -637228.321443717344664, 9310960.634706078097224 ], [ -637088.93731475865934, 9311031.654467036947608 ], [ -636934.428817571140826, 9311056.126208890229464 ], [ -636779.920320383622311, 9311031.654467036947608 ], [ -636640.536191424936987, 9310960.634706078097224 ], [ -636529.920320383622311, 9310850.018835036084056 ], [ -636458.900559423607774, 9310710.634706078097224 ], [ -636434.428817571140826, 9310556.126208890229464 ] ] ] ] } },
{ "type": "Feature", "properties": { "id": 38, "Indomaret": "Indomaret Pejagalan" }, "geometry": { "type": "MultiPolygon", "coordinates": [ [ [ [ -636458.781832186272368, 9310442.499719813466072 ], [ -636483.253574038739316, 9310287.991222625598311 ], [ -636554.273334998753853, 9310148.60709366761148 ], [ -636664.88920604006853, 9310037.991222625598311 ], [ -636804.273334998753853, 9309966.971461666747928 ], [ -636958.781832186272368, 9309942.499719813466072 ], [ -637113.290329373790883, 9309966.971461666747928 ], [ -637252.674458332476206, 9310037.991222625598311 ], [ -637363.290329373790883, 9310148.60709366761148 ], [ -637434.31009033380542, 9310287.991222625598311 ], [ -637458.781832186272368, 9310442.499719813466072 ], [ -637434.31009033380542, 9310597.008217001333833 ], [ -637363.290329373790883, 9310736.392345959320664 ], [ -637252.674458332476206, 9310847.008217001333833 ], [ -637113.290329373790883, 9310918.027977960184216 ], [ -636958.781832186272368, 9310942.499719813466072 ], [ -636804.273334998753853, 9310918.027977960184216 ], [ -636664.88920604006853, 9310847.008217001333833 ], [ -636554.273334998753853, 9310736.392345959320664 ], [ -636483.253574038739316, 9310597.008217001333833 ], [ -636458.781832186272368, 9310442.499719813466072 ] ] ] ] } },
{ "type": "Feature", "properties": { "id": 39, "Indomaret": "Indomaret Kapuk Muara" }, "geometry": { "type": "MultiPolygon", "coordinates": [ [ [ [ -636909.574131559813395, 9310509.830205209553242 ], [ -636934.045873412280343, 9310355.321708021685481 ], [ -637005.06563437229488, 9310215.937579063698649 ], [ -637115.681505413609557, 9310105.321708021685481 ], [ -637255.06563437229488, 9310034.301947062835097 ], [ -637409.574131559813395, 9310009.830205209553242 ], [ -637564.08262874733191, 9310034.301947062835097 ], [ -637703.466757706017233, 9310105.321708021685481 ], [ -637814.08262874733191, 9310215.937579063698649 ], [ -637885.102389707346447, 9310355.321708021685481 ], [ -637909.574131559813395, 9310509.830205209553242 ], [ -637885.102389707346447, 9310664.338702397421002 ], [ -637814.08262874733191, 9310803.722831355407834 ], [ -637703.466757706017233, 9310914.338702397421002 ], [ -637564.08262874733191, 9310985.358463356271386 ], [ -637409.574131559813395, 9311009.830205209553242 ], [ -637255.06563437229488, 9310985.358463356271386 ], [ -637115.681505413609557, 9310914.338702397421002 ], [ -637005.06563437229488, 9310803.722831355407834 ], [ -636934.045873412280343, 9310664.338702397421002 ], [ -636909.574131559813395, 9310509.830205209553242 ] ] ] ] } },
{ "type": "Feature", "properties": { "id": 40, "Indomaret": "Indomaret Kapuk Muara" }, "geometry": { "type": "MultiPolygon", "coordinates": [ [ [ [ -636933.121232695644721, 9310629.606528183445334 ], [ -636957.59297454811167, 9310475.098030995577574 ], [ -637028.612735508126207, 9310335.713902037590742 ], [ -637139.228606549440883, 9310225.098030995577574 ], [ -637278.612735508126207, 9310154.07827003672719 ], [ -637433.121232695644721, 9310129.606528183445334 ], [ -637587.629729883163236, 9310154.07827003672719 ], [ -637727.01385884184856, 9310225.098030995577574 ], [ -637837.629729883163236, 9310335.713902037590742 ], [ -637908.649490843177773, 9310475.098030995577574 ], [ -637933.121232695644721, 9310629.606528183445334 ], [ -637908.649490843177773, 9310784.115025371313095 ], [ -637837.629729883163236, 9310923.499154329299927 ], [ -637727.01385884184856, 9311034.115025371313095 ], [ -637587.629729883163236, 9311105.134786330163479 ], [ -637433.121232695644721, 9311129.606528183445334 ], [ -637278.612735508126207, 9311105.134786330163479 ], [ -637139.228606549440883, 9311034.115025371313095 ], [ -637028.612735508126207, 9310923.499154329299927 ], [ -636957.59297454811167, 9310784.115025371313095 ], [ -636933.121232695644721, 9310629.606528183445334 ] ] ] ] } },
{ "type": "Feature", "properties": { "id": 41, "Indomaret": "Indomaret Kamal Muara" }, "geometry": { "type": "MultiPolygon", "coordinates": [ [ [ [ -639444.156895651016384, 9310984.261981587857008 ], [ -639468.628637503483333, 9310829.753484399989247 ], [ -639539.64839846349787, 9310690.369355442002416 ], [ -639650.264269504812546, 9310579.753484399989247 ], [ -639789.64839846349787, 9310508.733723441138864 ], [ -639944.156895651016384, 9310484.261981587857008 ], [ -640098.665392838534899, 9310508.733723441138864 ], [ -640238.049521797220223, 9310579.753484399989247 ], [ -640348.665392838534899, 9310690.369355442002416 ], [ -640419.685153798549436, 9310829.753484399989247 ], [ -640444.156895651016384, 9310984.261981587857008 ], [ -640419.685153798549436, 9311138.770478775724769 ], [ -640348.665392838534899, 9311278.1546077337116 ], [ -640238.049521797220223, 9311388.770478775724769 ], [ -640098.665392838534899, 9311459.790239734575152 ], [ -639944.156895651016384, 9311484.261981587857008 ], [ -639789.64839846349787, 9311459.790239734575152 ], [ -639650.264269504812546, 9311388.770478775724769 ], [ -639539.64839846349787, 9311278.1546077337116 ], [ -639468.628637503483333, 9311138.770478775724769 ], [ -639444.156895651016384, 9310984.261981587857008 ] ] ] ] } },
{ "type": "Feature", "properties": { "id": 42, "Indomaret": "Indomaret Kapuk Muara" }, "geometry": { "type": "MultiPolygon", "coordinates": [ [ [ [ -636742.037784604122862, 9311274.224795883521438 ], [ -636766.509526456589811, 9311119.716298695653677 ], [ -636837.529287416604348, 9310980.332169737666845 ], [ -636948.145158457919024, 9310869.716298695653677 ], [ -637087.529287416604348, 9310798.696537736803293 ], [ -637242.037784604122862, 9310774.224795883521438 ], [ -637396.546281791641377, 9310798.696537736803293 ], [ -637535.930410750326701, 9310869.716298695653677 ], [ -637646.546281791641377, 9310980.332169737666845 ], [ -637717.566042751655914, 9311119.716298695653677 ], [ -637742.037784604122862, 9311274.224795883521438 ], [ -637717.566042751655914, 9311428.733293071389198 ], [ -637646.546281791641377, 9311568.11742202937603 ], [ -637535.930410750326701, 9311678.733293071389198 ], [ -637396.546281791641377, 9311749.753054030239582 ], [ -637242.037784604122862, 9311774.224795883521438 ], [ -637087.529287416604348, 9311749.753054030239582 ], [ -636948.145158457919024, 9311678.733293071389198 ], [ -636837.529287416604348, 9311568.11742202937603 ], [ -636766.509526456589811, 9311428.733293071389198 ], [ -636742.037784604122862, 9311274.224795883521438 ] ] ] ] } },
{ "type": "Feature", "properties": { "id": 43, "Indomaret": "Indomaret Kapuk Muara" }, "geometry": { "type": "MultiPolygon", "coordinates": [ [ [ [ -637705.172521621687338, 9311674.261746447533369 ], [ -637729.644263474154286, 9311519.753249259665608 ], [ -637800.664024434168823, 9311380.369120301678777 ], [ -637911.279895475483499, 9311269.753249259665608 ], [ -638050.664024434168823, 9311198.733488300815225 ], [ -638205.172521621687338, 9311174.261746447533369 ], [ -638359.681018809205852, 9311198.733488300815225 ], [ -638499.065147767891176, 9311269.753249259665608 ], [ -638609.681018809205852, 9311380.369120301678777 ], [ -638680.700779769220389, 9311519.753249259665608 ], [ -638705.172521621687338, 9311674.261746447533369 ], [ -638680.700779769220389, 9311828.77024363540113 ], [ -638609.681018809205852, 9311968.154372593387961 ], [ -638499.065147767891176, 9312078.77024363540113 ], [ -638359.681018809205852, 9312149.790004594251513 ], [ -638205.172521621687338, 9312174.261746447533369 ], [ -638050.664024434168823, 9312149.790004594251513 ], [ -637911.279895475483499, 9312078.77024363540113 ], [ -637800.664024434168823, 9311968.154372593387961 ], [ -637729.644263474154286, 9311828.77024363540113 ], [ -637705.172521621687338, 9311674.261746447533369 ] ] ] ] } },
{ "type": "Feature", "properties": { "id": 44, "Indomaret": "Indomaret Kapuk Muara" }, "geometry": { "type": "MultiPolygon", "coordinates": [ [ [ [ -638910.193750044330955, 9312048.312248706817627 ], [ -638934.665491896797903, 9311893.803751518949866 ], [ -639005.68525285681244, 9311754.419622560963035 ], [ -639116.301123898127116, 9311643.803751518949866 ], [ -639255.68525285681244, 9311572.783990560099483 ], [ -639410.193750044330955, 9311548.312248706817627 ], [ -639564.702247231849469, 9311572.783990560099483 ], [ -639704.086376190534793, 9311643.803751518949866 ], [ -639814.702247231849469, 9311754.419622560963035 ], [ -639885.722008191864006, 9311893.803751518949866 ], [ -639910.193750044330955, 9312048.312248706817627 ], [ -639885.722008191864006, 9312202.820745894685388 ], [ -639814.702247231849469, 9312342.204874852672219 ], [ -639704.086376190534793, 9312452.820745894685388 ], [ -639564.702247231849469, 9312523.840506853535771 ], [ -639410.193750044330955, 9312548.312248706817627 ], [ -639255.68525285681244, 9312523.840506853535771 ], [ -639116.301123898127116, 9312452.820745894685388 ], [ -639005.68525285681244, 9312342.204874852672219 ], [ -638934.665491896797903, 9312202.820745894685388 ], [ -638910.193750044330955, 9312048.312248706817627 ] ] ] ] } },
{ "type": "Feature", "properties": { "id": 45, "Indomaret": "Indomaret Pluit" }, "geometry": { "type": "MultiPolygon", "coordinates": [ [ [ [ -636160.437289080116898, 9313107.655812142416835 ], [ -636184.909030932583846, 9312953.147314954549074 ], [ -636255.928791892598383, 9312813.763185996562243 ], [ -636366.54466293391306, 9312703.147314954549074 ], [ -636505.928791892598383, 9312632.12755399569869 ], [ -636660.437289080116898, 9312607.655812142416835 ], [ -636814.945786267635413, 9312632.12755399569869 ], [ -636954.329915226320736, 9312703.147314954549074 ], [ -637064.945786267635413, 9312813.763185996562243 ], [ -637135.965547227649949, 9312953.147314954549074 ], [ -637160.437289080116898, 9313107.655812142416835 ], [ -637135.965547227649949, 9313262.164309330284595 ], [ -637064.945786267635413, 9313401.548438288271427 ], [ -636954.329915226320736, 9313512.164309330284595 ], [ -636814.945786267635413, 9313583.184070289134979 ], [ -636660.437289080116898, 9313607.655812142416835 ], [ -636505.928791892598383, 9313583.184070289134979 ], [ -636366.54466293391306, 9313512.164309330284595 ], [ -636255.928791892598383, 9313401.548438288271427 ], [ -636184.909030932583846, 9313262.164309330284595 ], [ -636160.437289080116898, 9313107.655812142416835 ] ] ] ] } },
{ "type": "Feature", "properties": { "id": 46, "Indomaret": "Indomaret Pluit" }, "geometry": { "type": "MultiPolygon", "coordinates": [ [ [ [ -636465.647008624393493, 9313060.648957977071404 ], [ -636490.118750476860441, 9312906.140460789203644 ], [ -636561.138511436874978, 9312766.756331831216812 ], [ -636671.754382478189655, 9312656.140460789203644 ], [ -636811.138511436874978, 9312585.12069983035326 ], [ -636965.647008624393493, 9312560.648957977071404 ], [ -637120.155505811912008, 9312585.12069983035326 ], [ -637259.539634770597331, 9312656.140460789203644 ], [ -637370.155505811912008, 9312766.756331831216812 ], [ -637441.175266771926545, 9312906.140460789203644 ], [ -637465.647008624393493, 9313060.648957977071404 ], [ -637441.175266771926545, 9313215.157455164939165 ], [ -637370.155505811912008, 9313354.541584122925997 ], [ -637259.539634770597331, 9313465.157455164939165 ], [ -637120.155505811912008, 9313536.177216123789549 ], [ -636965.647008624393493, 9313560.648957977071404 ], [ -636811.138511436874978, 9313536.177216123789549 ], [ -636671.754382478189655, 9313465.157455164939165 ], [ -636561.138511436874978, 9313354.541584122925997 ], [ -636490.118750476860441, 9313215.157455164939165 ], [ -636465.647008624393493, 9313060.648957977071404 ] ] ] ] } },
{ "type": "Feature", "properties": { "id": 47, "Indomaret": "Indomart Pluit" }, "geometry": { "type": "MultiPolygon", "coordinates": [ [ [ [ -636849.978126403409988, 9313041.261984718963504 ], [ -636874.449868255876936, 9312886.753487531095743 ], [ -636945.469629215891473, 9312747.369358573108912 ], [ -637056.085500257206149, 9312636.753487531095743 ], [ -637195.469629215891473, 9312565.733726572245359 ], [ -637349.978126403409988, 9312541.261984718963504 ], [ -637504.486623590928502, 9312565.733726572245359 ], [ -637643.870752549613826, 9312636.753487531095743 ], [ -637754.486623590928502, 9312747.369358573108912 ], [ -637825.506384550943039, 9312886.753487531095743 ], [ -637849.978126403409988, 9313041.261984718963504 ], [ -637825.506384550943039, 9313195.770481906831264 ], [ -637754.486623590928502, 9313335.154610864818096 ], [ -637643.870752549613826, 9313445.770481906831264 ], [ -637504.486623590928502, 9313516.790242865681648 ], [ -637349.978126403409988, 9313541.261984718963504 ], [ -637195.469629215891473, 9313516.790242865681648 ], [ -637056.085500257206149, 9313445.770481906831264 ], [ -636945.469629215891473, 9313335.154610864818096 ], [ -636874.449868255876936, 9313195.770481906831264 ], [ -636849.978126403409988, 9313041.261984718963504 ] ] ] ] } },
{ "type": "Feature", "properties": { "id": 48, "Indomaret": "Indomaret Pluit" }, "geometry": { "type": "MultiPolygon", "coordinates": [ [ [ [ -636961.963424433488399, 9313546.887870840728283 ], [ -636986.435166285955347, 9313392.379373652860522 ], [ -637057.454927245969884, 9313252.995244694873691 ], [ -637168.070798287284561, 9313142.379373652860522 ], [ -637307.454927245969884, 9313071.359612694010139 ], [ -637461.963424433488399, 9313046.887870840728283 ], [ -637616.471921621006913, 9313071.359612694010139 ], [ -637755.856050579692237, 9313142.379373652860522 ], [ -637866.471921621006913, 9313252.995244694873691 ], [ -637937.49168258102145, 9313392.379373652860522 ], [ -637961.963424433488399, 9313546.887870840728283 ], [ -637937.49168258102145, 9313701.396368028596044 ], [ -637866.471921621006913, 9313840.780496986582875 ], [ -637755.856050579692237, 9313951.396368028596044 ], [ -637616.471921621006913, 9314022.416128987446427 ], [ -637461.963424433488399, 9314046.887870840728283 ], [ -637307.454927245969884, 9314022.416128987446427 ], [ -637168.070798287284561, 9313951.396368028596044 ], [ -637057.454927245969884, 9313840.780496986582875 ], [ -636986.435166285955347, 9313701.396368028596044 ], [ -636961.963424433488399, 9313546.887870840728283 ] ] ] ] } },
{ "type": "Feature", "properties": { "id": 49, "Indomaret": "Indomaret Pluit" }, "geometry": { "type": "MultiPolygon", "coordinates": [ [ [ [ -636737.619227449176833, 9313659.198207009583712 ], [ -636762.090969301643781, 9313504.689709821715951 ], [ -636833.110730261658318, 9313365.305580863729119 ], [ -636943.726601302972995, 9313254.689709821715951 ], [ -637083.110730261658318, 9313183.669948862865567 ], [ -637237.619227449176833, 9313159.198207009583712 ], [ -637392.127724636695348, 9313183.669948862865567 ], [ -637531.511853595380671, 9313254.689709821715951 ], [ -637642.127724636695348, 9313365.305580863729119 ], [ -637713.147485596709885, 9313504.689709821715951 ], [ -637737.619227449176833, 9313659.198207009583712 ], [ -637713.147485596709885, 9313813.706704197451472 ], [ -637642.127724636695348, 9313953.090833155438304 ], [ -637531.511853595380671, 9314063.706704197451472 ], [ -637392.127724636695348, 9314134.726465156301856 ], [ -637237.619227449176833, 9314159.198207009583712 ], [ -637083.110730261658318, 9314134.726465156301856 ], [ -636943.726601302972995, 9314063.706704197451472 ], [ -636833.110730261658318, 9313953.090833155438304 ], [ -636762.090969301643781, 9313813.706704197451472 ], [ -636737.619227449176833, 9313659.198207009583712 ] ] ] ] } },
{ "type": "Feature", "properties": { "id": 50, "Indomaret": "Indomaret Pluit" }, "geometry": { "type": "MultiPolygon", "coordinates": [ [ [ [ -636307.729790852405131, 9313949.568491209298372 ], [ -636332.201532704872079, 9313795.059994021430612 ], [ -636403.221293664886616, 9313655.67586506344378 ], [ -636513.837164706201293, 9313545.059994021430612 ], [ -636653.221293664886616, 9313474.040233062580228 ], [ -636807.729790852405131, 9313449.568491209298372 ], [ -636962.238288039923646, 9313474.040233062580228 ], [ -637101.622416998608969, 9313545.059994021430612 ], [ -637212.238288039923646, 9313655.67586506344378 ], [ -637283.258048999938183, 9313795.059994021430612 ], [ -637307.729790852405131, 9313949.568491209298372 ], [ -637283.258048999938183, 9314104.076988397166133 ], [ -637212.238288039923646, 9314243.461117355152965 ], [ -637101.622416998608969, 9314354.076988397166133 ], [ -636962.238288039923646, 9314425.096749356016517 ], [ -636807.729790852405131, 9314449.568491209298372 ], [ -636653.221293664886616, 9314425.096749356016517 ], [ -636513.837164706201293, 9314354.076988397166133 ], [ -636403.221293664886616, 9314243.461117355152965 ], [ -636332.201532704872079, 9314104.076988397166133 ], [ -636307.729790852405131, 9313949.568491209298372 ] ] ] ] } },
{ "type": "Feature", "properties": { "id": 51, "Indomaret": "Indomaret Kamal Muara" }, "geometry": { "type": "MultiPolygon", "coordinates": [ [ [ [ -639910.249754814431071, 9313397.095781857147813 ], [ -639934.72149666689802, 9313242.587284669280052 ], [ -640005.741257626912557, 9313103.203155711293221 ], [ -640116.357128668227233, 9312992.587284669280052 ], [ -640255.741257626912557, 9312921.567523710429668 ], [ -640410.249754814431071, 9312897.095781857147813 ], [ -640564.758252001949586, 9312921.567523710429668 ], [ -640704.14238096063491, 9312992.587284669280052 ], [ -640814.758252001949586, 9313103.203155711293221 ], [ -640885.778012961964123, 9313242.587284669280052 ], [ -640910.249754814431071, 9313397.095781857147813 ], [ -640885.778012961964123, 9313551.604279045015574 ], [ -640814.758252001949586, 9313690.988408003002405 ], [ -640704.14238096063491, 9313801.604279045015574 ], [ -640564.758252001949586, 9313872.624040003865957 ], [ -640410.249754814431071, 9313897.095781857147813 ], [ -640255.741257626912557, 9313872.624040003865957 ], [ -640116.357128668227233, 9313801.604279045015574 ], [ -640005.741257626912557, 9313690.988408003002405 ], [ -639934.72149666689802, 9313551.604279045015574 ], [ -639910.249754814431071, 9313397.095781857147813 ] ] ] ] } },
{ "type": "Feature", "properties": { "id": 52, "Indomaret": "Indomaret Kamal Muara" }, "geometry": { "type": "MultiPolygon", "coordinates": [ [ [ [ -639765.139449216425419, 9313508.88002972304821 ], [ -639789.611191068892367, 9313354.371532535180449 ], [ -639860.630952028906904, 9313214.987403577193618 ], [ -639971.246823070221581, 9313104.371532535180449 ], [ -640110.630952028906904, 9313033.351771576330066 ], [ -640265.139449216425419, 9313008.88002972304821 ], [ -640419.647946403943934, 9313033.351771576330066 ], [ -640559.032075362629257, 9313104.371532535180449 ], [ -640669.647946403943934, 9313214.987403577193618 ], [ -640740.667707363958471, 9313354.371532535180449 ], [ -640765.139449216425419, 9313508.88002972304821 ], [ -640740.667707363958471, 9313663.388526910915971 ], [ -640669.647946403943934, 9313802.772655868902802 ], [ -640559.032075362629257, 9313913.388526910915971 ], [ -640419.647946403943934, 9313984.408287869766355 ], [ -640265.139449216425419, 9314008.88002972304821 ], [ -640110.630952028906904, 9313984.408287869766355 ], [ -639971.246823070221581, 9313913.388526910915971 ], [ -639860.630952028906904, 9313802.772655868902802 ], [ -639789.611191068892367, 9313663.388526910915971 ], [ -639765.139449216425419, 9313508.88002972304821 ] ] ] ] } },
{ "type": "Feature", "properties": { "id": 53, "Indomaret": "Indomaret Kamal Muara" }, "geometry": { "type": "MultiPolygon", "coordinates": [ [ [ [ -640004.16614710749127, 9313526.991091752424836 ], [ -640028.637888959958218, 9313372.482594564557076 ], [ -640099.657649919972755, 9313233.098465606570244 ], [ -640210.273520961287431, 9313122.482594564557076 ], [ -640349.657649919972755, 9313051.462833605706692 ], [ -640504.16614710749127, 9313026.991091752424836 ], [ -640658.674644295009784, 9313051.462833605706692 ], [ -640798.058773253695108, 9313122.482594564557076 ], [ -640908.674644295009784, 9313233.098465606570244 ], [ -640979.694405255024321, 9313372.482594564557076 ], [ -641004.16614710749127, 9313526.991091752424836 ], [ -640979.694405255024321, 9313681.499588940292597 ], [ -640908.674644295009784, 9313820.883717898279428 ], [ -640798.058773253695108, 9313931.499588940292597 ], [ -640658.674644295009784, 9314002.519349899142981 ], [ -640504.16614710749127, 9314026.991091752424836 ], [ -640349.657649919972755, 9314002.519349899142981 ], [ -640210.273520961287431, 9313931.499588940292597 ], [ -640099.657649919972755, 9313820.883717898279428 ], [ -640028.637888959958218, 9313681.499588940292597 ], [ -640004.16614710749127, 9313526.991091752424836 ] ] ] ] } },
{ "type": "Feature", "properties": { "id": 54, "Indomaret": "Indomaret Kamal Muara" }, "geometry": { "type": "MultiPolygon", "coordinates": [ [ [ [ -640187.612164582591504, 9313456.145849794149399 ], [ -640212.083906435058452, 9313301.637352606281638 ], [ -640283.103667395072989, 9313162.253223648294806 ], [ -640393.719538436387666, 9313051.637352606281638 ], [ -640533.103667395072989, 9312980.617591647431254 ], [ -640687.612164582591504, 9312956.145849794149399 ], [ -640842.120661770110019, 9312980.617591647431254 ], [ -640981.504790728795342, 9313051.637352606281638 ], [ -641092.120661770110019, 9313162.253223648294806 ], [ -641163.140422730124556, 9313301.637352606281638 ], [ -641187.612164582591504, 9313456.145849794149399 ], [ -641163.140422730124556, 9313610.654346982017159 ], [ -641092.120661770110019, 9313750.038475940003991 ], [ -640981.504790728795342, 9313860.654346982017159 ], [ -640842.120661770110019, 9313931.674107940867543 ], [ -640687.612164582591504, 9313956.145849794149399 ], [ -640533.103667395072989, 9313931.674107940867543 ], [ -640393.719538436387666, 9313860.654346982017159 ], [ -640283.103667395072989, 9313750.038475940003991 ], [ -640212.083906435058452, 9313610.654346982017159 ], [ -640187.612164582591504, 9313456.145849794149399 ] ] ] ] } },
{ "type": "Feature", "properties": { "id": 55, "Indomaret": "Indomaret Kamal Muara" }, "geometry": { "type": "MultiPolygon", "coordinates": [ [ [ [ -640506.206553155556321, 9313449.225105157122016 ], [ -640530.678295008023269, 9313294.716607969254255 ], [ -640601.698055968037806, 9313155.332479011267424 ], [ -640712.313927009352483, 9313044.716607969254255 ], [ -640851.698055968037806, 9312973.696847010403872 ], [ -641006.206553155556321, 9312949.225105157122016 ], [ -641160.715050343074836, 9312973.696847010403872 ], [ -641300.099179301760159, 9313044.716607969254255 ], [ -641410.715050343074836, 9313155.332479011267424 ], [ -641481.734811303089373, 9313294.716607969254255 ], [ -641506.206553155556321, 9313449.225105157122016 ], [ -641481.734811303089373, 9313603.733602344989777 ], [ -641410.715050343074836, 9313743.117731302976608 ], [ -641300.099179301760159, 9313853.733602344989777 ], [ -641160.715050343074836, 9313924.75336330384016 ], [ -641006.206553155556321, 9313949.225105157122016 ], [ -640851.698055968037806, 9313924.75336330384016 ], [ -640712.313927009352483, 9313853.733602344989777 ], [ -640601.698055968037806, 9313743.117731302976608 ], [ -640530.678295008023269, 9313603.733602344989777 ], [ -640506.206553155556321, 9313449.225105157122016 ] ] ] ] } },
{ "type": "Feature", "properties": { "id": 56, "Indomaret": "Indomaret Kamal Muara" }, "geometry": { "type": "MultiPolygon", "coordinates": [ [ [ [ -640618.415341185638681, 9313605.100239899009466 ], [ -640642.887083038105629, 9313450.591742711141706 ], [ -640713.906843998120166, 9313311.207613753154874 ], [ -640824.522715039434843, 9313200.591742711141706 ], [ -640963.906843998120166, 9313129.571981752291322 ], [ -641118.415341185638681, 9313105.100239899009466 ], [ -641272.923838373157196, 9313129.571981752291322 ], [ -641412.307967331842519, 9313200.591742711141706 ], [ -641522.923838373157196, 9313311.207613753154874 ], [ -641593.943599333171733, 9313450.591742711141706 ], [ -641618.415341185638681, 9313605.100239899009466 ], [ -641593.943599333171733, 9313759.608737086877227 ], [ -641522.923838373157196, 9313898.992866044864058 ], [ -641412.307967331842519, 9314009.608737086877227 ], [ -641272.923838373157196, 9314080.628498045727611 ], [ -641118.415341185638681, 9314105.100239899009466 ], [ -640963.906843998120166, 9314080.628498045727611 ], [ -640824.522715039434843, 9314009.608737086877227 ], [ -640713.906843998120166, 9313898.992866044864058 ], [ -640642.887083038105629, 9313759.608737086877227 ], [ -640618.415341185638681, 9313605.100239899009466 ] ] ] ] } },
{ "type": "Feature", "properties": { "id": 57, "Indomaret": "Indomaret Kamal Muara" }, "geometry": { "type": "MultiPolygon", "coordinates": [ [ [ [ -641167.00292658037506, 9313303.437054477632046 ], [ -641191.474668432842009, 9313148.928557289764285 ], [ -641262.494429392856546, 9313009.544428331777453 ], [ -641373.110300434171222, 9312898.928557289764285 ], [ -641512.494429392856546, 9312827.908796330913901 ], [ -641667.00292658037506, 9312803.437054477632046 ], [ -641821.511423767893575, 9312827.908796330913901 ], [ -641960.895552726578899, 9312898.928557289764285 ], [ -642071.511423767893575, 9313009.544428331777453 ], [ -642142.531184727908112, 9313148.928557289764285 ], [ -642167.00292658037506, 9313303.437054477632046 ], [ -642142.531184727908112, 9313457.945551665499806 ], [ -642071.511423767893575, 9313597.329680623486638 ], [ -641960.895552726578899, 9313707.945551665499806 ], [ -641821.511423767893575, 9313778.96531262435019 ], [ -641667.00292658037506, 9313803.437054477632046 ], [ -641512.494429392856546, 9313778.96531262435019 ], [ -641373.110300434171222, 9313707.945551665499806 ], [ -641262.494429392856546, 9313597.329680623486638 ], [ -641191.474668432842009, 9313457.945551665499806 ], [ -641167.00292658037506, 9313303.437054477632046 ] ] ] ] } },
{ "type": "Feature", "properties": { "id": 58, "Indomaret": "Indomaret Kamal Muara" }, "geometry": { "type": "MultiPolygon", "coordinates": [ [ [ [ -640869.786498023197055, 9313669.828043317422271 ], [ -640894.258239875664003, 9313515.31954612955451 ], [ -640965.27800083567854, 9313375.935417171567678 ], [ -641075.893871876993217, 9313265.31954612955451 ], [ -641215.27800083567854, 9313194.299785170704126 ], [ -641369.786498023197055, 9313169.828043317422271 ], [ -641524.29499521071557, 9313194.299785170704126 ], [ -641663.679124169400893, 9313265.31954612955451 ], [ -641774.29499521071557, 9313375.935417171567678 ], [ -641845.314756170730107, 9313515.31954612955451 ], [ -641869.786498023197055, 9313669.828043317422271 ], [ -641845.314756170730107, 9313824.336540505290031 ], [ -641774.29499521071557, 9313963.720669463276863 ], [ -641663.679124169400893, 9314074.336540505290031 ], [ -641524.29499521071557, 9314145.356301464140415 ], [ -641369.786498023197055, 9314169.828043317422271 ], [ -641215.27800083567854, 9314145.356301464140415 ], [ -641075.893871876993217, 9314074.336540505290031 ], [ -640965.27800083567854, 9313963.720669463276863 ], [ -640894.258239875664003, 9313824.336540505290031 ], [ -640869.786498023197055, 9313669.828043317422271 ] ] ] ] } },
{ "type": "Feature", "properties": { "id": 59, "Indomaret": "Indomaret Kamal Muara" }, "geometry": { "type": "MultiPolygon", "coordinates": [ [ [ [ -640887.513722884701565, 9313590.930998973548412 ], [ -640911.985464737168513, 9313436.422501785680652 ], [ -640983.00522569718305, 9313297.03837282769382 ], [ -641093.621096738497727, 9313186.422501785680652 ], [ -641233.00522569718305, 9313115.402740826830268 ], [ -641387.513722884701565, 9313090.930998973548412 ], [ -641542.02222007222008, 9313115.402740826830268 ], [ -641681.406349030905403, 9313186.422501785680652 ], [ -641792.02222007222008, 9313297.03837282769382 ], [ -641863.041981032234617, 9313436.422501785680652 ], [ -641887.513722884701565, 9313590.930998973548412 ], [ -641863.041981032234617, 9313745.439496161416173 ], [ -641792.02222007222008, 9313884.823625119403005 ], [ -641681.406349030905403, 9313995.439496161416173 ], [ -641542.02222007222008, 9314066.459257120266557 ], [ -641387.513722884701565, 9314090.930998973548412 ], [ -641233.00522569718305, 9314066.459257120266557 ], [ -641093.621096738497727, 9313995.439496161416173 ], [ -640983.00522569718305, 9313884.823625119403005 ], [ -640911.985464737168513, 9313745.439496161416173 ], [ -640887.513722884701565, 9313590.930998973548412 ] ] ] ] } },
{ "type": "Feature", "properties": { "id": 60, "Indomaret": "Indomaret Kamal Muara" }, "geometry": { "type": "MultiPolygon", "coordinates": [ [ [ [ -640803.283578564645723, 9314107.970641186460853 ], [ -640827.755320417112671, 9313953.462143998593092 ], [ -640898.775081377127208, 9313814.07801504060626 ], [ -641009.390952418441884, 9313703.462143998593092 ], [ -641148.775081377127208, 9313632.442383039742708 ], [ -641303.283578564645723, 9313607.970641186460853 ], [ -641457.792075752164237, 9313632.442383039742708 ], [ -641597.176204710849561, 9313703.462143998593092 ], [ -641707.792075752164237, 9313814.07801504060626 ], [ -641778.811836712178774, 9313953.462143998593092 ], [ -641803.283578564645723, 9314107.970641186460853 ], [ -641778.811836712178774, 9314262.479138374328613 ], [ -641707.792075752164237, 9314401.863267332315445 ], [ -641597.176204710849561, 9314512.479138374328613 ], [ -641457.792075752164237, 9314583.498899333178997 ], [ -641303.283578564645723, 9314607.970641186460853 ], [ -641148.775081377127208, 9314583.498899333178997 ], [ -641009.390952418441884, 9314512.479138374328613 ], [ -640898.775081377127208, 9314401.863267332315445 ], [ -640827.755320417112671, 9314262.479138374328613 ], [ -640803.283578564645723, 9314107.970641186460853 ] ] ] ] } },
{ "type": "Feature", "properties": { "id": 61, "Indomaret": "Indomaret Kamal Muara" }, "geometry": { "type": "MultiPolygon", "coordinates": [ [ [ [ -640614.78124558669515, 9314452.82285406626761 ], [ -640639.252987439162098, 9314298.314356878399849 ], [ -640710.272748399176635, 9314158.930227920413017 ], [ -640820.888619440491311, 9314048.314356878399849 ], [ -640960.272748399176635, 9313977.294595919549465 ], [ -641114.78124558669515, 9313952.82285406626761 ], [ -641269.289742774213664, 9313977.294595919549465 ], [ -641408.673871732898988, 9314048.314356878399849 ], [ -641519.289742774213664, 9314158.930227920413017 ], [ -641590.309503734228201, 9314298.314356878399849 ], [ -641614.78124558669515, 9314452.82285406626761 ], [ -641590.309503734228201, 9314607.33135125413537 ], [ -641519.289742774213664, 9314746.715480212122202 ], [ -641408.673871732898988, 9314857.33135125413537 ], [ -641269.289742774213664, 9314928.351112212985754 ], [ -641114.78124558669515, 9314952.82285406626761 ], [ -640960.272748399176635, 9314928.351112212985754 ], [ -640820.888619440491311, 9314857.33135125413537 ], [ -640710.272748399176635, 9314746.715480212122202 ], [ -640639.252987439162098, 9314607.33135125413537 ], [ -640614.78124558669515, 9314452.82285406626761 ] ] ] ] } },
{ "type": "Feature", "properties": { "id": 62, "Indomaret": "Indomaret Kamal Muara" }, "geometry": { "type": "MultiPolygon", "coordinates": [ [ [ [ -640904.945839881664142, 9314581.027259217575192 ], [ -640929.41758173413109, 9314426.518762029707432 ], [ -641000.437342694145627, 9314287.1346330717206 ], [ -641111.053213735460304, 9314176.518762029707432 ], [ -641250.437342694145627, 9314105.499001070857048 ], [ -641404.945839881664142, 9314081.027259217575192 ], [ -641559.454337069182657, 9314105.499001070857048 ], [ -641698.83846602786798, 9314176.518762029707432 ], [ -641809.454337069182657, 9314287.1346330717206 ], [ -641880.474098029197194, 9314426.518762029707432 ], [ -641904.945839881664142, 9314581.027259217575192 ], [ -641880.474098029197194, 9314735.535756405442953 ], [ -641809.454337069182657, 9314874.919885363429785 ], [ -641698.83846602786798, 9314985.535756405442953 ], [ -641559.454337069182657, 9315056.555517364293337 ], [ -641404.945839881664142, 9315081.027259217575192 ], [ -641250.437342694145627, 9315056.555517364293337 ], [ -641111.053213735460304, 9314985.535756405442953 ], [ -641000.437342694145627, 9314874.919885363429785 ], [ -640929.41758173413109, 9314735.535756405442953 ], [ -640904.945839881664142, 9314581.027259217575192 ] ] ] ] } },
{ "type": "Feature", "properties": { "id": 63, "Indomaret": "Indomaret Kamal Muara" }, "geometry": { "type": "MultiPolygon", "coordinates": [ [ [ [ -640727.727128825383261, 9312122.636907715350389 ], [ -640752.198870677850209, 9311968.128410527482629 ], [ -640823.218631637864746, 9311828.744281569495797 ], [ -640933.834502679179423, 9311718.128410527482629 ], [ -641073.218631637864746, 9311647.108649568632245 ], [ -641227.727128825383261, 9311622.636907715350389 ], [ -641382.235626012901776, 9311647.108649568632245 ], [ -641521.619754971587099, 9311718.128410527482629 ], [ -641632.235626012901776, 9311828.744281569495797 ], [ -641703.255386972916313, 9311968.128410527482629 ], [ -641727.727128825383261, 9312122.636907715350389 ], [ -641703.255386972916313, 9312277.14540490321815 ], [ -641632.235626012901776, 9312416.529533861204982 ], [ -641521.619754971587099, 9312527.14540490321815 ], [ -641382.235626012901776, 9312598.165165862068534 ], [ -641227.727128825383261, 9312622.636907715350389 ], [ -641073.218631637864746, 9312598.165165862068534 ], [ -640933.834502679179423, 9312527.14540490321815 ], [ -640823.218631637864746, 9312416.529533861204982 ], [ -640752.198870677850209, 9312277.14540490321815 ], [ -640727.727128825383261, 9312122.636907715350389 ] ] ] ] } },
{ "type": "Feature", "properties": { "id": 64, "Indomaret": "Indomaret Kamal Muara" }, "geometry": { "type": "MultiPolygon", "coordinates": [ [ [ [ -640156.172922917641699, 9312076.189541576430202 ], [ -640180.644664770108648, 9311921.681044388562441 ], [ -640251.664425730123185, 9311782.296915430575609 ], [ -640362.280296771437861, 9311671.681044388562441 ], [ -640501.664425730123185, 9311600.661283429712057 ], [ -640656.172922917641699, 9311576.189541576430202 ], [ -640810.681420105160214, 9311600.661283429712057 ], [ -640950.065549063845538, 9311671.681044388562441 ], [ -641060.681420105160214, 9311782.296915430575609 ], [ -641131.701181065174751, 9311921.681044388562441 ], [ -641156.172922917641699, 9312076.189541576430202 ], [ -641131.701181065174751, 9312230.698038764297962 ], [ -641060.681420105160214, 9312370.082167722284794 ], [ -640950.065549063845538, 9312480.698038764297962 ], [ -640810.681420105160214, 9312551.717799723148346 ], [ -640656.172922917641699, 9312576.189541576430202 ], [ -640501.664425730123185, 9312551.717799723148346 ], [ -640362.280296771437861, 9312480.698038764297962 ], [ -640251.664425730123185, 9312370.082167722284794 ], [ -640180.644664770108648, 9312230.698038764297962 ], [ -640156.172922917641699, 9312076.189541576430202 ] ] ] ] } }
]
}
