{
"type": "FeatureCollection",
"name": "Indomaret Points",
"crs": { "type": "name", "properties": { "name": "urn:ogc:def:crs:EPSG::32750" } },
"features": [
{ "type": "Feature", "properties": { "id": 1, "Indomaret": "Indomaret Penjaringan" }, "geometry": { "type": "Point", "coordinates": [ -634584.388015668839216, 9313664.513815339654684 ] } },
{ "type": "Feature", "properties": { "id": 2, "Indomaret": "Indomaret Penjaringan" }, "geometry": { "type": "Point", "coordinates": [ -634206.093394229654223, 9313392.049097439274192 ] } },
{ "type": "Feature", "properties": { "id": 3, "Indomaret": "Indomaret Penjaringan" }, "geometry": { "type": "Point", "coordinates": [ -633658.225607955129817, 9312585.025376297533512 ] } },
{ "type": "Feature", "properties": { "id": 4, "Indomaret": "Indomaret Penjaringan" }, "geometry": { "type": "Point", "coordinates": [ -634037.636257069418207, 9312500.657843232154846 ] } },
{ "type": "Feature", "properties": { "id": 5, "Indomaret": "Indomaret Penjaringan" }, "geometry": { "type": "Point", "coordinates": [ -633507.215049857273698, 9311855.908339612185955 ] } },
{ "type": "Feature", "properties": { "id": 6, "Indomaret": "Indomaret Penjaringan" }, "geometry": { "type": "Point", "coordinates": [ -633905.807999959215522, 9311597.427461696788669 ] } },
{ "type": "Feature", "properties": { "id": 7, "Indomaret": "Indomaret Penjaringan" }, "geometry": { "type": "Point", "coordinates": [ -633960.497431789524853, 9311814.005217544734478 ] } },
{ "type": "Feature", "properties": { "id": 8, "Indomaret": "Indomaret Penjaringan" }, "geometry": { "type": "Point", "coordinates": [ -634085.94795828172937, 9311946.221401989459991 ] } },
{ "type": "Feature", "properties": { "id": 9, "Indomaret": "Indomaret Penjaringan" }, "geometry": { "type": "Point", "coordinates": [ -634166.173340919194743, 9312085.048549400642514 ] } },
{ "type": "Feature", "properties": { "id": 10, "Indomaret": "Indomaret Penjaringan" }, "geometry": { "type": "Point", "coordinates": [ -634052.500208720564842, 9312151.359544077888131 ] } },
{ "type": "Feature", "properties": { "id": 11, "Indomaret": "Indomaret Penjaringan" }, "geometry": { "type": "Point", "coordinates": [ -634255.412329551531002, 9311611.689943309873343 ] } },
{ "type": "Feature", "properties": { "id": 12, "Indomaret": "Indomaret Penjaringan" }, "geometry": { "type": "Point", "coordinates": [ -634798.621528041083366, 9311558.497491927817464 ] } },
{ "type": "Feature", "properties": { "id": 13, "Indomaret": "Indomaret Penjaringan" }, "geometry": { "type": "Point", "coordinates": [ -634954.998809528304264, 9311570.500491207465529 ] } },
{ "type": "Feature", "properties": { "id": 14, "Indomaret": "Indomaret Penjaringan" }, "geometry": { "type": "Point", "coordinates": [ -635146.667207607068121, 9311760.57226169295609 ] } },
{ "type": "Feature", "properties": { "id": 15, "Indomaret": "Indomaret Penjaringan" }, "geometry": { "type": "Point", "coordinates": [ -635302.396900410763919, 9311857.18631836771965 ] } },
{ "type": "Feature", "properties": { "id": 16, "Indomaret": "Indomaret Pluit" }, "geometry": { "type": "Point", "coordinates": [ -634763.65681207831949, 9312262.099466076120734 ] } },
{ "type": "Feature", "properties": { "id": 17, "Indomaret": "Indomaret Pluit" }, "geometry": { "type": "Point", "coordinates": [ -634588.921898155007511, 9312279.636989165097475 ] } },
{ "type": "Feature", "properties": { "id": 18, "Indomaret": "Indomaret Pluit" }, "geometry": { "type": "Point", "coordinates": [ -634568.301913178758696, 9312206.882341096177697 ] } },
{ "type": "Feature", "properties": { "id": 19, "Indomaret": "Indomaret Pluit" }, "geometry": { "type": "Point", "coordinates": [ -634400.200878550298512, 9312000.721658950671554 ] } },
{ "type": "Feature", "properties": { "id": 20, "Indomaret": "Indomaret Penjaringan" }, "geometry": { "type": "Point", "coordinates": [ -635383.062612151261419, 9311421.215881368145347 ] } },
{ "type": "Feature", "properties": { "id": 21, "Indomaret": "Indomaret Penjaringan" }, "geometry": { "type": "Point", "coordinates": [ -635172.604818839812651, 9310767.939581923186779 ] } },
{ "type": "Feature", "properties": { "id": 22, "Indomaret": "Indomaret Pejagalan" }, "geometry": { "type": "Point", "coordinates": [ -635182.118355963146314, 9310521.964749660342932 ] } },
{ "type": "Feature", "properties": { "id": 23, "Indomaret": "Indomaret Pejagalan" }, "geometry": { "type": "Point", "coordinates": [ -635151.227478868560866, 9310258.233037404716015 ] } },
{ "type": "Feature", "properties": { "id": 24, "Indomaret": "Indomaret Pejagalan" }, "geometry": { "type": "Point", "coordinates": [ -635272.977423063945025, 9310269.855860777199268 ] } },
{ "type": "Feature", "properties": { "id": 25, "Indomaret": "Indomaret Pejagalan" }, "geometry": { "type": "Point", "coordinates": [ -635648.135111152660102, 9310679.268972801044583 ] } },
{ "type": "Feature", "properties": { "id": 26, "Indomaret": "Indomaret Pejagalan" }, "geometry": { "type": "Point", "coordinates": [ -635723.892052624840289, 9310703.86669821664691 ] } },
{ "type": "Feature", "properties": { "id": 27, "Indomaret": "Indomaret Pejagalan" }, "geometry": { "type": "Point", "coordinates": [ -635478.772212309762836, 9311155.314446685835719 ] } },
{ "type": "Feature", "properties": { "id": 28, "Indomaret": "Indomaret Penjaringan" }, "geometry": { "type": "Point", "coordinates": [ -635598.851734412135556, 9311822.231569500640035 ] } },
{ "type": "Feature", "properties": { "id": 29, "Indomaret": "Indomaret Pluit" }, "geometry": { "type": "Point", "coordinates": [ -635836.279247591970488, 9312546.228768337517977 ] } },
{ "type": "Feature", "properties": { "id": 30, "Indomaret": "Indomaret Pluit" }, "geometry": { "type": "Point", "coordinates": [ -636226.006618445506319, 9312803.809311520308256 ] } },
{ "type": "Feature", "properties": { "id": 31, "Indomaret": "Indomaret Pluit" }, "geometry": { "type": "Point", "coordinates": [ -636179.220032538287342, 9313084.289365822449327 ] } },
{ "type": "Feature", "properties": { "id": 32, "Indomaret": "Indomaret Pluit" }, "geometry": { "type": "Point", "coordinates": [ -635773.906121659092605, 9313095.625166676938534 ] } },
{ "type": "Feature", "properties": { "id": 33, "Indomaret": "Indomaret Pluit" }, "geometry": { "type": "Point", "coordinates": [ -636374.207936471328139, 9312249.664611484855413 ] } },
{ "type": "Feature", "properties": { "id": 34, "Indomaret": "Indomaret Pluit" }, "geometry": { "type": "Point", "coordinates": [ -636092.55358505458571, 9310626.282156454399228 ] } },
{ "type": "Feature", "properties": { "id": 35, "Indomaret": "Indomaret Pejagalan" }, "geometry": { "type": "Point", "coordinates": [ -636582.37537687830627, 9310836.963777041062713 ] } },
{ "type": "Feature", "properties": { "id": 36, "Indomaret": "Indomaret Pejagalan" }, "geometry": { "type": "Point", "coordinates": [ -636559.995617099571973, 9311053.097727617248893 ] } },
{ "type": "Feature", "properties": { "id": 37, "Indomaret": "Indomaret Pejagalan" }, "geometry": { "type": "Point", "coordinates": [ -636934.428817571140826, 9310556.126208890229464 ] } },
{ "type": "Feature", "properties": { "id": 38, "Indomaret": "Indomaret Pejagalan" }, "geometry": { "type": "Point", "coordinates": [ -636958.781832186272368, 9310442.499719813466072 ] } },
{ "type": "Feature", "properties": { "id": 39, "Indomaret": "Indomaret Kapuk Muara" }, "geometry": { "type": "Point", "coordinates": [ -637409.574131559813395, 9310509.830205209553242 ] } },
{ "type": "Feature", "properties": { "id": 40, "Indomaret": "Indomaret Kapuk Muara" }, "geometry": { "type": "Point", "coordinates": [ -637433.121232695644721, 9310629.606528183445334 ] } },
{ "type": "Feature", "properties": { "id": 41, "Indomaret": "Indomaret Kamal Muara" }, "geometry": { "type": "Point", "coordinates": [ -639944.156895651016384, 9310984.261981587857008 ] } },
{ "type": "Feature", "properties": { "id": 42, "Indomaret": "Indomaret Kapuk Muara" }, "geometry": { "type": "Point", "coordinates": [ -637242.037784604122862, 9311274.224795883521438 ] } },
{ "type": "Feature", "properties": { "id": 43, "Indomaret": "Indomaret Kapuk Muara" }, "geometry": { "type": "Point", "coordinates": [ -638205.172521621687338, 9311674.261746447533369 ] } },
{ "type": "Feature", "properties": { "id": 44, "Indomaret": "Indomaret Kapuk Muara" }, "geometry": { "type": "Point", "coordinates": [ -639410.193750044330955, 9312048.312248706817627 ] } },
{ "type": "Feature", "properties": { "id": 45, "Indomaret": "Indomaret Pluit" }, "geometry": { "type": "Point", "coordinates": [ -636660.437289080116898, 9313107.655812142416835 ] } },
{ "type": "Feature", "properties": { "id": 46, "Indomaret": "Indomaret Pluit" }, "geometry": { "type": "Point", "coordinates": [ -636965.647008624393493, 9313060.648957977071404 ] } },
{ "type": "Feature", "properties": { "id": 47, "Indomaret": "Indomart Pluit" }, "geometry": { "type": "Point", "coordinates": [ -637349.978126403409988, 9313041.261984718963504 ] } },
{ "type": "Feature", "properties": { "id": 48, "Indomaret": "Indomaret Pluit" }, "geometry": { "type": "Point", "coordinates": [ -637461.963424433488399, 9313546.887870840728283 ] } },
{ "type": "Feature", "properties": { "id": 49, "Indomaret": "Indomaret Pluit" }, "geometry": { "type": "Point", "coordinates": [ -637237.619227449176833, 9313659.198207009583712 ] } },
{ "type": "Feature", "properties": { "id": 50, "Indomaret": "Indomaret Pluit" }, "geometry": { "type": "Point", "coordinates": [ -636807.729790852405131, 9313949.568491209298372 ] } },
{ "type": "Feature", "properties": { "id": 51, "Indomaret": "Indomaret Kamal Muara" }, "geometry": { "type": "Point", "coordinates": [ -640410.249754814431071, 9313397.095781857147813 ] } },
{ "type": "Feature", "properties": { "id": 52, "Indomaret": "Indomaret Kamal Muara" }, "geometry": { "type": "Point", "coordinates": [ -640265.139449216425419, 9313508.88002972304821 ] } },
{ "type": "Feature", "properties": { "id": 53, "Indomaret": "Indomaret Kamal Muara" }, "geometry": { "type": "Point", "coordinates": [ -640504.16614710749127, 9313526.991091752424836 ] } },
{ "type": "Feature", "properties": { "id": 54, "Indomaret": "Indomaret Kamal Muara" }, "geometry": { "type": "Point", "coordinates": [ -640687.612164582591504, 9313456.145849794149399 ] } },
{ "type": "Feature", "properties": { "id": 55, "Indomaret": "Indomaret Kamal Muara" }, "geometry": { "type": "Point", "coordinates": [ -641006.206553155556321, 9313449.225105157122016 ] } },
{ "type": "Feature", "properties": { "id": 56, "Indomaret": "Indomaret Kamal Muara" }, "geometry": { "type": "Point", "coordinates": [ -641118.415341185638681, 9313605.100239899009466 ] } },
{ "type": "Feature", "properties": { "id": 57, "Indomaret": "Indomaret Kamal Muara" }, "geometry": { "type": "Point", "coordinates": [ -641667.00292658037506, 9313303.437054477632046 ] } },
{ "type": "Feature", "properties": { "id": 58, "Indomaret": "Indomaret Kamal Muara" }, "geometry": { "type": "Point", "coordinates": [ -641369.786498023197055, 9313669.828043317422271 ] } },
{ "type": "Feature", "properties": { "id": 59, "Indomaret": "Indomaret Kamal Muara" }, "geometry": { "type": "Point", "coordinates": [ -641387.513722884701565, 9313590.930998973548412 ] } },
{ "type": "Feature", "properties": { "id": 60, "Indomaret": "Indomaret Kamal Muara" }, "geometry": { "type": "Point", "coordinates": [ -641303.283578564645723, 9314107.970641186460853 ] } },
{ "type": "Feature", "properties": { "id": 61, "Indomaret": "Indomaret Kamal Muara" }, "geometry": { "type": "Point", "coordinates": [ -641114.78124558669515, 9314452.82285406626761 ] } },
{ "type": "Feature", "properties": { "id": 62, "Indomaret": "Indomaret Kamal Muara" }, "geometry": { "type": "Point", "coordinates": [ -641404.945839881664142, 9314581.027259217575192 ] } },
{ "type": "Feature", "properties": { "id": 63, "Indomaret": "Indomaret Kamal Muara" }, "geometry": { "type": "Point", "coordinates": [ -641227.727128825383261, 9312122.636907715350389 ] } },
{ "type": "Feature", "properties": { "id": 64, "Indomaret": "Indomaret Kamal Muara" }, "geometry": { "type": "Point", "coordinates": [ -640656.172922917641699, 9312076.189541576430202 ] } }
]
}
