{
"type": "FeatureCollection",
"name": "Buffer Indomaret",
"crs": { "type": "name", "properties": { "name": "urn:ogc:def:crs:EPSG::32750" } },
"features": [
{ "type": "Feature", "properties": { "id": 1, "Point": "Indomaret" }, "geometry": { "type": "MultiPolygon", "coordinates": [ [ [ [ -637563.748190545127727, 9310033.052303820848465 ], [ -637703.132319503813051, 9310104.072064779698849 ], [ -637813.748190545127727, 9310214.687935821712017 ], [ -637884.767951505142264, 9310354.072064779698849 ], [ -637901.950735873309895, 9310462.559895610436797 ], [ -637908.751690899836831, 9310475.907521393150091 ], [ -637933.223432752303779, 9310630.416018581017852 ], [ -637908.751690899836831, 9310784.924515768885612 ], [ -637837.731929939822294, 9310924.308644726872444 ], [ -637727.116058898507617, 9311034.924515768885612 ], [ -637693.289062383933924, 9311052.160231372341514 ], [ -637724.116833681822754, 9311112.663139183074236 ], [ -637748.588575534289703, 9311267.171636370941997 ], [ -637724.116833681822754, 9311421.680133558809757 ], [ -637653.097072721808217, 9311561.064262516796589 ], [ -637552.891390083823353, 9311661.269945155829191 ], [ -637571.602295003365725, 9311779.405949432402849 ], [ -637547.130553150898777, 9311933.91444662027061 ], [ -637476.11079219088424, 9312073.298575578257442 ], [ -637365.494921149569564, 9312183.91444662027061 ], [ -637226.11079219088424, 9312254.934207579120994 ], [ -637071.602295003365725, 9312279.405949432402849 ], [ -636917.093797815847211, 9312254.934207579120994 ], [ -636876.718093644478358, 9312234.361758762970567 ], [ -636879.036408983403817, 9312248.99902574531734 ], [ -636854.564667130936868, 9312403.507522933185101 ], [ -636783.544906170922332, 9312542.891651891171932 ], [ -636712.026502821827307, 9312614.410055240616202 ], [ -636745.765524053364061, 9312619.753791235387325 ], [ -636812.04202416271437, 9312585.984227726235986 ], [ -636966.550521350232884, 9312561.51248587295413 ], [ -637121.059018537751399, 9312585.984227726235986 ], [ -637138.001025598496199, 9312594.616611488163471 ], [ -637195.487763628712855, 9312565.325655454769731 ], [ -637349.99626081623137, 9312540.853913601487875 ], [ -637504.504758003749885, 9312565.325655454769731 ], [ -637643.888886962435208, 9312636.345416413620114 ], [ -637754.504758003749885, 9312746.961287455633283 ], [ -637825.524518963764422, 9312886.345416413620114 ], [ -637849.99626081623137, 9313040.853913601487875 ], [ -637825.524518963764422, 9313195.362410789355636 ], [ -637820.203709875233471, 9313205.805086605250835 ], [ -637867.179235510178842, 9313252.780612239614129 ], [ -637938.198996470193379, 9313392.164741197600961 ], [ -637962.670738322660327, 9313546.673238385468721 ], [ -637938.198996470193379, 9313701.181735573336482 ], [ -637867.179235510178842, 9313840.565864531323314 ], [ -637756.563364468864165, 9313951.181735573336482 ], [ -637617.179235510178842, 9314022.201496532186866 ], [ -637565.796169651206583, 9314030.339774660766125 ], [ -637532.166051348322071, 9314063.969892963767052 ], [ -637399.606351394555531, 9314131.512433666735888 ], [ -637361.210666159749962, 9314206.868208874017 ], [ -637250.594795118435286, 9314317.484079916030169 ], [ -637111.210666159749962, 9314388.503840874880552 ], [ -636956.702168972231448, 9314412.975582728162408 ], [ -636892.968202754855156, 9314402.881114158779383 ], [ -636841.655502829467878, 9314411.00824741832912 ], [ -636687.147005641949363, 9314386.536505565047264 ], [ -636547.762876683264039, 9314315.51674460619688 ], [ -636437.147005641949363, 9314204.900873564183712 ], [ -636366.127244681934826, 9314065.51674460619688 ], [ -636341.655502829467878, 9313911.00824741832912 ], [ -636366.127244681934826, 9313756.499750230461359 ], [ -636437.147005641949363, 9313617.115621272474527 ], [ -636483.697349797468632, 9313570.565277116373181 ], [ -636398.457021450856701, 9313527.133160501718521 ], [ -636334.055510250735097, 9313559.947369443252683 ], [ -636179.547013063216582, 9313584.419111296534538 ], [ -636025.038515875698067, 9313559.947369443252683 ], [ -635988.342081169248559, 9313541.249602055177093 ], [ -635929.466712651425041, 9313571.248100662603974 ], [ -635774.958215463906527, 9313595.71984251588583 ], [ -635620.449718276388012, 9313571.248100662603974 ], [ -635481.065589317702688, 9313500.228339703753591 ], [ -635370.449718276388012, 9313389.612468661740422 ], [ -635299.429957316373475, 9313250.228339703753591 ], [ -635274.958215463906527, 9313095.71984251588583 ], [ -635299.429957316373475, 9312941.211345328018069 ], [ -635370.449718276388012, 9312801.827216370031238 ], [ -635398.065362207591534, 9312774.21157243847847 ], [ -635360.227010721922852, 9312699.949626302346587 ], [ -635335.755268869455904, 9312545.441129114478827 ], [ -635360.227010721922852, 9312390.932631926611066 ], [ -635387.227640494471416, 9312337.940912280231714 ], [ -635302.939957847818732, 9312351.290769722312689 ], [ -635249.625650820671581, 9312342.846613042056561 ], [ -635237.818641364923678, 9312417.393136877566576 ], [ -635166.798880404909141, 9312556.777265835553408 ], [ -635056.183009363594465, 9312667.393136877566576 ], [ -634916.798880404909141, 9312738.41289783641696 ], [ -634762.290383217390627, 9312762.884639689698815 ], [ -634676.490540221100673, 9312749.295279575511813 ], [ -634586.63052946026437, 9312763.52770708873868 ], [ -634467.562599583994597, 9312744.669199654832482 ], [ -634442.158025779179297, 9312794.528483090922236 ], [ -634331.542154737864621, 9312905.144354132935405 ], [ -634321.537695596460253, 9312910.241880673915148 ], [ -634360.817983349668793, 9312916.46326706558466 ], [ -634500.202112308354117, 9312987.483028024435043 ], [ -634610.817983349668793, 9313098.098899066448212 ], [ -634649.956844562431797, 9313174.913239255547523 ], [ -634739.248700189986266, 9313189.055679835379124 ], [ -634878.63282914867159, 9313260.075440794229507 ], [ -634989.248700189986266, 9313370.691311836242676 ], [ -635060.268461150000803, 9313510.075440794229507 ], [ -635084.740203002467752, 9313664.583937982097268 ], [ -635060.268461150000803, 9313819.092435169965029 ], [ -634989.248700189986266, 9313958.47656412795186 ], [ -634878.63282914867159, 9314069.092435169965029 ], [ -634739.248700189986266, 9314140.112196128815413 ], [ -634584.740203002467752, 9314164.583937982097268 ], [ -634430.231705814949237, 9314140.112196128815413 ], [ -634290.847576856263913, 9314069.092435169965029 ], [ -634180.231705814949237, 9313958.47656412795186 ], [ -634141.092844602186233, 9313881.662223938852549 ], [ -634051.800988974631764, 9313867.519783359020948 ], [ -633912.41686001594644, 9313796.500022400170565 ], [ -633801.800988974631764, 9313685.884151358157396 ], [ -633730.781228014617227, 9313546.500022400170565 ], [ -633706.309486162150279, 9313391.991525212302804 ], [ -633730.781228014617227, 9313237.483028024435043 ], [ -633801.800988974631764, 9313098.098899066448212 ], [ -633866.690846995916218, 9313033.20904104411602 ], [ -633812.947177541092969, 9313060.592808380723 ], [ -633658.438680353574455, 9313085.064550234004855 ], [ -633503.93018316605594, 9313060.592808380723 ], [ -633364.546054207370616, 9312989.573047421872616 ], [ -633253.93018316605594, 9312878.957176379859447 ], [ -633182.910422206041403, 9312739.573047421872616 ], [ -633158.438680353574455, 9312585.064550234004855 ], [ -633182.910422206041403, 9312430.556053046137094 ], [ -633253.93018316605594, 9312291.171924088150263 ], [ -633260.922773984726518, 9312284.1793332695961 ], [ -633213.493605488329194, 9312260.012964872643352 ], [ -633102.877734447014518, 9312149.397093830630183 ], [ -633031.857973486999981, 9312010.012964872643352 ], [ -633007.386231634533033, 9311855.504467684775591 ], [ -633031.857973486999981, 9311700.99597049690783 ], [ -633102.877734447014518, 9311561.611841538920999 ], [ -633213.493605488329194, 9311450.99597049690783 ], [ -633352.877734447014518, 9311379.976209538057446 ], [ -633472.04873181018047, 9311361.101377816870809 ], [ -633501.370420673512854, 9311303.554323215037584 ], [ -633611.98629171482753, 9311192.938452173024416 ], [ -633751.370420673512854, 9311121.918691214174032 ], [ -633905.878917861031368, 9311097.446949360892177 ], [ -634060.387415048549883, 9311121.918691214174032 ], [ -634094.570397035800852, 9311139.335790475830436 ], [ -634101.087507767253555, 9311136.015156701207161 ], [ -634255.59600495477207, 9311111.543414847925305 ], [ -634410.104502142290585, 9311136.015156701207161 ], [ -634484.951950336690061, 9311174.151836385950446 ], [ -634504.736459748935886, 9311154.367326973006129 ], [ -634644.120588707621209, 9311083.347566014155746 ], [ -634769.94684439257253, 9311063.418644929304719 ], [ -634768.21450468513649, 9311061.686305221170187 ], [ -634697.194743725121953, 9310922.302176263183355 ], [ -634672.723001872655004, 9310767.793679075315595 ], [ -634696.95958754979074, 9310614.769899545237422 ], [ -634682.298476360272616, 9310522.203286565840244 ], [ -634694.261658168863505, 9310446.670729301869869 ], [ -634676.765786751289852, 9310412.333148254081607 ], [ -634652.294044898822904, 9310257.824651066213846 ], [ -634676.765786751289852, 9310103.316153878346086 ], [ -634747.785547711304389, 9309963.932024920359254 ], [ -634858.401418752619065, 9309853.316153878346086 ], [ -634997.785547711304389, 9309782.296392919495702 ], [ -635152.294044898822904, 9309757.824651066213846 ], [ -635250.557231978047639, 9309773.388010956346989 ], [ -635273.307131588459015, 9309769.784780839458108 ], [ -635427.81562877597753, 9309794.256522692739964 ], [ -635567.199757734662853, 9309865.276283651590347 ], [ -635677.81562877597753, 9309975.892154693603516 ], [ -635748.835389735992067, 9310115.276283651590347 ], [ -635761.740778094273992, 9310196.757698945701122 ], [ -635802.788007028051652, 9310203.258941328153014 ], [ -635818.289995138067752, 9310211.157598787918687 ], [ -635937.721009581931867, 9310150.304457470774651 ], [ -636092.229506769450381, 9310125.832715617492795 ], [ -636246.738003956968896, 9310150.304457470774651 ], [ -636386.12213291565422, 9310221.324218429625034 ], [ -636479.002430391148664, 9310314.204515906050801 ], [ -636482.972534913220443, 9310289.138262465596199 ], [ -636553.99229587323498, 9310149.754133507609367 ], [ -636664.608166914549656, 9310039.138262465596199 ], [ -636803.99229587323498, 9309968.118501506745815 ], [ -636958.500793060753495, 9309943.64675965346396 ], [ -637113.009290248272009, 9309968.118501506745815 ], [ -637247.590124502312392, 9310036.690861571580172 ], [ -637254.731196170090698, 9310033.052303820848465 ], [ -637409.239693357609212, 9310008.580561967566609 ], [ -637563.748190545127727, 9310033.052303820848465 ] ], [ [ -636493.086083776317537, 9311725.27401539310813 ], [ -636517.557825628784485, 9311570.765518205240369 ], [ -636528.390453803120181, 9311549.505288347601891 ], [ -636407.197262999950908, 9311530.310172650963068 ], [ -636267.813134041265585, 9311459.290411692112684 ], [ -636157.197262999950908, 9311348.674540650099516 ], [ -636086.177502039936371, 9311209.290411692112684 ], [ -636072.463252599118277, 9311122.702048514038324 ], [ -636008.408125956077129, 9311112.556713130325079 ], [ -635974.47333650442306, 9311129.847351977601647 ], [ -635978.483979410724714, 9311155.169554702937603 ], [ -635954.012237558257766, 9311309.678051890805364 ], [ -635896.725625607534312, 9311422.109358329325914 ], [ -636003.440871183178388, 9311528.824603905901313 ], [ -636074.460632143192925, 9311668.208732863888144 ], [ -636098.932373995659873, 9311822.717230051755905 ], [ -636096.391525270533748, 9311838.759517539292574 ], [ -636224.527911795885302, 9311773.470767598599195 ], [ -636379.036408983403817, 9311748.99902574531734 ], [ -636499.875070324051194, 9311768.137989491224289 ], [ -636493.086083776317537, 9311725.27401539310813 ] ] ], [ [ [ -640098.728367736213841, 9310505.554684262722731 ], [ -640238.112496694899164, 9310576.574445221573114 ], [ -640348.728367736213841, 9310687.190316263586283 ], [ -640419.748128696228378, 9310826.574445221573114 ], [ -640444.219870548695326, 9310981.082942409440875 ], [ -640419.748128696228378, 9311135.591439597308636 ], [ -640348.728367736213841, 9311274.975568555295467 ], [ -640238.112496694899164, 9311385.591439597308636 ], [ -640098.728367736213841, 9311456.611200556159019 ], [ -639944.219870548695326, 9311481.082942409440875 ], [ -639789.711373361176811, 9311456.611200556159019 ], [ -639650.327244402491488, 9311385.591439597308636 ], [ -639539.711373361176811, 9311274.975568555295467 ], [ -639468.691612401162274, 9311135.591439597308636 ], [ -639444.219870548695326, 9310981.082942409440875 ], [ -639468.691612401162274, 9310826.574445221573114 ], [ -639539.711373361176811, 9310687.190316263586283 ], [ -639650.327244402491488, 9310576.574445221573114 ], [ -639789.711373361176811, 9310505.554684262722731 ], [ -639944.219870548695326, 9310481.082942409440875 ], [ -640098.728367736213841, 9310505.554684262722731 ] ] ], [ [ [ -638360.299916214658879, 9311201.089325811713934 ], [ -638499.684045173344202, 9311272.109086770564318 ], [ -638610.299916214658879, 9311382.724957812577486 ], [ -638681.319677174673416, 9311522.109086770564318 ], [ -638705.791419027140364, 9311676.617583958432078 ], [ -638681.319677174673416, 9311831.126081146299839 ], [ -638610.299916214658879, 9311970.510210104286671 ], [ -638499.684045173344202, 9312081.126081146299839 ], [ -638360.299916214658879, 9312152.145842105150223 ], [ -638205.791419027140364, 9312176.617583958432078 ], [ -638051.282921839621849, 9312152.145842105150223 ], [ -637911.898792880936526, 9312081.126081146299839 ], [ -637801.282921839621849, 9311970.510210104286671 ], [ -637730.263160879607312, 9311831.126081146299839 ], [ -637705.791419027140364, 9311676.617583958432078 ], [ -637730.263160879607312, 9311522.109086770564318 ], [ -637801.282921839621849, 9311382.724957812577486 ], [ -637911.898792880936526, 9311272.109086770564318 ], [ -638051.282921839621849, 9311201.089325811713934 ], [ -638205.791419027140364, 9311176.617583958432078 ], [ -638360.299916214658879, 9311201.089325811713934 ] ] ], [ [ [ -639369.57954715040978, 9311541.846458699554205 ], [ -639389.006715670926496, 9311551.74509547278285 ], [ -639410.251345968805254, 9311548.380276592448354 ], [ -639564.759843156323768, 9311572.852018445730209 ], [ -639704.143972115009092, 9311643.871779404580593 ], [ -639814.759843156323768, 9311754.487650446593761 ], [ -639885.779604116338305, 9311893.871779404580593 ], [ -639910.251345968805254, 9312048.380276592448354 ], [ -639885.779604116338305, 9312202.888773780316114 ], [ -639814.759843156323768, 9312342.272902738302946 ], [ -639704.143972115009092, 9312452.888773780316114 ], [ -639564.759843156323768, 9312523.908534739166498 ], [ -639410.251345968805254, 9312548.380276592448354 ], [ -639255.742848781286739, 9312523.908534739166498 ], [ -639236.315680260770023, 9312514.009897965937853 ], [ -639215.071049962891266, 9312517.374716846272349 ], [ -639060.562552775372751, 9312492.902974992990494 ], [ -638921.178423816687427, 9312421.88321403414011 ], [ -638810.562552775372751, 9312311.267342992126942 ], [ -638739.542791815358214, 9312171.88321403414011 ], [ -638715.071049962891266, 9312017.374716846272349 ], [ -638739.542791815358214, 9311862.866219658404589 ], [ -638810.562552775372751, 9311723.482090700417757 ], [ -638921.178423816687427, 9311612.866219658404589 ], [ -639060.562552775372751, 9311541.846458699554205 ], [ -639215.071049962891266, 9311517.374716846272349 ], [ -639369.57954715040978, 9311541.846458699554205 ] ] ], [ [ [ -640824.696216198499314, 9311609.649602983146906 ], [ -640964.080345157184638, 9311680.66936394199729 ], [ -640978.281484545441344, 9311694.870503330603242 ], [ -641074.353764145052992, 9311645.919231884181499 ], [ -641228.862261332571507, 9311621.447490030899644 ], [ -641383.370758520090021, 9311645.919231884181499 ], [ -641522.754887478775345, 9311716.938992843031883 ], [ -641633.370758520090021, 9311827.554863885045052 ], [ -641704.390519480104558, 9311966.938992843031883 ], [ -641728.862261332571507, 9312121.447490030899644 ], [ -641704.390519480104558, 9312275.955987218767405 ], [ -641633.370758520090021, 9312415.340116176754236 ], [ -641522.754887478775345, 9312525.955987218767405 ], [ -641383.370758520090021, 9312596.975748177617788 ], [ -641228.862261332571507, 9312621.447490030899644 ], [ -641074.353764145052992, 9312596.975748177617788 ], [ -640934.969635186367668, 9312525.955987218767405 ], [ -640920.768495798110962, 9312511.754847830161452 ], [ -640824.696216198499314, 9312560.706119276583195 ], [ -640670.1877190109808, 9312585.17786112986505 ], [ -640515.679221823462285, 9312560.706119276583195 ], [ -640376.295092864776962, 9312489.686358317732811 ], [ -640265.679221823462285, 9312379.070487275719643 ], [ -640194.659460863447748, 9312239.686358317732811 ], [ -640170.1877190109808, 9312085.17786112986505 ], [ -640194.659460863447748, 9311930.66936394199729 ], [ -640265.679221823462285, 9311791.285234984010458 ], [ -640376.295092864776962, 9311680.66936394199729 ], [ -640515.679221823462285, 9311609.649602983146906 ], [ -640670.1877190109808, 9311585.17786112986505 ], [ -640824.696216198499314, 9311609.649602983146906 ] ] ], [ [ [ -640645.837192334118299, 9312962.722643351182342 ], [ -640687.785940032219514, 9312956.078614424914122 ], [ -640839.001547802123241, 9312980.02881383150816 ], [ -640851.92000052833464, 9312973.446533398702741 ], [ -641006.428497715853155, 9312948.974791545420885 ], [ -641160.936994903371669, 9312973.446533398702741 ], [ -641300.321123862056993, 9313044.466294357553124 ], [ -641352.425735634402372, 9313096.570906130596995 ], [ -641388.231132346903905, 9313090.899888411164284 ], [ -641542.73962953442242, 9313115.371630264446139 ], [ -641682.123758493107744, 9313186.391391223296523 ], [ -641792.73962953442242, 9313297.007262265309691 ], [ -641863.759390494436957, 9313436.391391223296523 ], [ -641888.231132346903905, 9313590.899888411164284 ], [ -641885.394968761713244, 9313608.806720543652773 ], [ -641890.298282374860719, 9313639.765024295076728 ], [ -641865.826540522393771, 9313794.273521482944489 ], [ -641802.043889556545764, 9313919.454022336751223 ], [ -641826.653464010800235, 9313967.753031697124243 ], [ -641851.125205863267183, 9314122.261528884992003 ], [ -641830.041658493108116, 9314255.377808028832078 ], [ -641871.068883090396412, 9314296.405032625421882 ], [ -641942.088644050410949, 9314435.789161583408713 ], [ -641966.560385902877897, 9314590.297658771276474 ], [ -641942.088644050410949, 9314744.806155959144235 ], [ -641871.068883090396412, 9314884.190284917131066 ], [ -641760.453012049081735, 9314994.806155959144235 ], [ -641621.068883090396412, 9315065.825916917994618 ], [ -641466.560385902877897, 9315090.297658771276474 ], [ -641312.051888715359382, 9315065.825916917994618 ], [ -641234.000457782181911, 9315026.056726489216089 ], [ -641233.58778906124644, 9315026.12208679318428 ], [ -641079.079291873727925, 9315001.650344939902425 ], [ -640939.695162915042602, 9314930.630583981052041 ], [ -640912.684618630679324, 9314903.620039695873857 ], [ -640821.082774619222619, 9314856.946568952873349 ], [ -640710.466903577907942, 9314746.330697910860181 ], [ -640639.447142617893405, 9314606.946568952873349 ], [ -640614.975400765426457, 9314452.438071765005589 ], [ -640639.447142617893405, 9314297.929574577137828 ], [ -640710.466903577907942, 9314158.545445619150996 ], [ -640821.082774619222619, 9314047.929574577137828 ], [ -640841.980646829120815, 9314037.281576845794916 ], [ -640814.51314542198088, 9314023.286185845732689 ], [ -640748.165069496608339, 9313956.938109919428825 ], [ -640658.711749675567262, 9314002.516852909699082 ], [ -640504.203252488048747, 9314026.988594762980938 ], [ -640349.694755300530232, 9314002.516852909699082 ], [ -640330.575768395792693, 9313992.775242513045669 ], [ -640262.05939247389324, 9314003.6271703671664 ], [ -640107.550895286374725, 9313979.155428513884544 ], [ -639988.255243853782304, 9313918.371258096769452 ], [ -639933.277658259146847, 9313946.383737107738853 ], [ -639778.769161071628332, 9313970.855478961020708 ], [ -639624.260663884109817, 9313946.383737107738853 ], [ -639484.876534925424494, 9313875.363976148888469 ], [ -639374.260663884109817, 9313764.7481051068753 ], [ -639303.24090292409528, 9313625.363976148888469 ], [ -639278.769161071628332, 9313470.855478961020708 ], [ -639303.24090292409528, 9313316.346981773152947 ], [ -639374.260663884109817, 9313176.962852815166116 ], [ -639484.876534925424494, 9313066.346981773152947 ], [ -639624.260663884109817, 9312995.327220814302564 ], [ -639778.769161071628332, 9312970.855478961020708 ], [ -639933.277658259146847, 9312995.327220814302564 ], [ -640051.889897657791153, 9313055.763175407424569 ], [ -640115.605451114592142, 9312992.047621950507164 ], [ -640254.989580073277466, 9312921.02786099165678 ], [ -640409.498077260795981, 9312896.556119138374925 ], [ -640564.006574448314495, 9312921.02786099165678 ], [ -640645.837192334118299, 9312962.722643351182342 ] ] ], [ [ [ -641147.875199717585929, 9315354.162456661462784 ], [ -641287.259328676271252, 9315425.182217620313168 ], [ -641397.875199717585929, 9315535.798088662326336 ], [ -641468.894960677600466, 9315675.182217620313168 ], [ -641493.366702530067414, 9315829.690714808180928 ], [ -641468.894960677600466, 9315984.199211996048689 ], [ -641397.875199717585929, 9316123.583340954035521 ], [ -641287.259328676271252, 9316234.199211996048689 ], [ -641147.875199717585929, 9316305.218972954899073 ], [ -640993.366702530067414, 9316329.690714808180928 ], [ -640838.858205342548899, 9316305.218972954899073 ], [ -640699.474076383863576, 9316234.199211996048689 ], [ -640588.858205342548899, 9316123.583340954035521 ], [ -640517.838444382534362, 9315984.199211996048689 ], [ -640493.366702530067414, 9315829.690714808180928 ], [ -640517.838444382534362, 9315675.182217620313168 ], [ -640588.858205342548899, 9315535.798088662326336 ], [ -640699.474076383863576, 9315425.182217620313168 ], [ -640838.858205342548899, 9315354.162456661462784 ], [ -640993.366702530067414, 9315329.690714808180928 ], [ -641147.875199717585929, 9315354.162456661462784 ] ] ] ] } }
]
}
