{
"type": "FeatureCollection",
"name": "Point Indomaret & Alfamart",
"crs": { "type": "name", "properties": { "name": "urn:ogc:def:crs:OGC:1.3:CRS84" } },
"features": [
{ "type": "Feature", "properties": { "id": 1 }, "geometry": { "type": "Point", "coordinates": [ 106.79932649986128, -6.111203436731777 ] } },
{ "type": "Feature", "properties": { "id": 2 }, "geometry": { "type": "Point", "coordinates": [ 106.802591797865986, -6.113220959447906 ] } },
{ "type": "Feature", "properties": { "id": 3 }, "geometry": { "type": "Point", "coordinates": [ 106.802640826364552, -6.113686730184304 ] } },
{ "type": "Feature", "properties": { "id": 4 }, "geometry": { "type": "Point", "coordinates": [ 106.807376979326236, -6.12096501079675 ] } },
{ "type": "Feature", "properties": { "id": 5 }, "geometry": { "type": "Point", "coordinates": [ 106.803991561500126, -6.121651409776705 ] } },
{ "type": "Feature", "properties": { "id": 6 }, "geometry": { "type": "Point", "coordinates": [ 106.808590434665817, -6.127475995406599 ] } },
{ "type": "Feature", "properties": { "id": 7 }, "geometry": { "type": "Point", "coordinates": [ 106.803785641806158, -6.124750010886213 ] } },
{ "type": "Feature", "properties": { "id": 8 }, "geometry": { "type": "Point", "coordinates": [ 106.804555389233684, -6.127779972097723 ] } },
{ "type": "Feature", "properties": { "id": 9 }, "geometry": { "type": "Point", "coordinates": [ 106.804565194933403, -6.127863320545289 ] } },
{ "type": "Feature", "properties": { "id": 10 }, "geometry": { "type": "Point", "coordinates": [ 106.80500645142051, -6.12972150064102 ] } },
{ "type": "Feature", "properties": { "id": 11 }, "geometry": { "type": "Point", "coordinates": [ 106.803457150865754, -6.126583676732658 ] } },
{ "type": "Feature", "properties": { "id": 12 }, "geometry": { "type": "Point", "coordinates": [ 106.802770751885802, -6.125328547169314 ] } },
{ "type": "Feature", "properties": { "id": 13 }, "geometry": { "type": "Point", "coordinates": [ 106.801907850310997, -6.129525386646748 ] } },
{ "type": "Feature", "properties": { "id": 14 }, "geometry": { "type": "Point", "coordinates": [ 106.800672332147087, -6.126034557548695 ] } },
{ "type": "Feature", "properties": { "id": 15 }, "geometry": { "type": "Point", "coordinates": [ 106.799279922787747, -6.123504687022579 ] } },
{ "type": "Feature", "properties": { "id": 16 }, "geometry": { "type": "Point", "coordinates": [ 106.799221088589462, -6.124171474603106 ] } },
{ "type": "Feature", "properties": { "id": 17 }, "geometry": { "type": "Point", "coordinates": [ 106.799044585994622, -6.123524298422006 ] } },
{ "type": "Feature", "properties": { "id": 18 }, "geometry": { "type": "Point", "coordinates": [ 106.797985570425553, -6.12364196681857 ] } },
{ "type": "Feature", "properties": { "id": 19 }, "geometry": { "type": "Point", "coordinates": [ 106.797495285439865, -6.12364196681857 ] } },
{ "type": "Feature", "properties": { "id": 20 }, "geometry": { "type": "Point", "coordinates": [ 106.799613316578018, -6.129760723439874 ] } },
{ "type": "Feature", "properties": { "id": 21 }, "geometry": { "type": "Point", "coordinates": [ 106.797809067830698, -6.129839169037584 ] } },
{ "type": "Feature", "properties": { "id": 22 }, "geometry": { "type": "Point", "coordinates": [ 106.797063834652462, -6.129917614635293 ] } },
{ "type": "Feature", "properties": { "id": 23 }, "geometry": { "type": "Point", "coordinates": [ 106.798613135207262, -6.137938677001046 ] } },
{ "type": "Feature", "properties": { "id": 24 }, "geometry": { "type": "Point", "coordinates": [ 106.797240337247345, -6.141076500909407 ] } },
{ "type": "Feature", "properties": { "id": 25 }, "geometry": { "type": "Point", "coordinates": [ 106.795671425293165, -6.129780334839307 ] } },
{ "type": "Feature", "properties": { "id": 26 }, "geometry": { "type": "Point", "coordinates": [ 106.793984844942429, -6.128054531689708 ] } },
{ "type": "Feature", "properties": { "id": 27 }, "geometry": { "type": "Point", "coordinates": [ 106.792612046982512, -6.127152407316053 ] } },
{ "type": "Feature", "properties": { "id": 28 }, "geometry": { "type": "Point", "coordinates": [ 106.793592616953873, -6.136879661431974 ] } },
{ "type": "Feature", "properties": { "id": 29 }, "geometry": { "type": "Point", "coordinates": [ 106.793474948557318, -6.139076138167827 ] } },
{ "type": "Feature", "properties": { "id": 30 }, "geometry": { "type": "Point", "coordinates": [ 106.793710285350443, -6.141429506099097 ] } },
{ "type": "Feature", "properties": { "id": 31 }, "geometry": { "type": "Point", "coordinates": [ 106.792612046982541, -6.141292226303107 ] } },
{ "type": "Feature", "properties": { "id": 32 }, "geometry": { "type": "Point", "coordinates": [ 106.790807798235221, -6.137487614814221 ] } },
{ "type": "Feature", "properties": { "id": 33 }, "geometry": { "type": "Point", "coordinates": [ 106.790925466631791, -6.133369220934497 ] } },
{ "type": "Feature", "properties": { "id": 34 }, "geometry": { "type": "Point", "coordinates": [ 106.791827591005443, -6.131015853003226 ] } },
{ "type": "Feature", "properties": { "id": 35 }, "geometry": { "type": "Point", "coordinates": [ 106.789356554677667, -6.137585671811355 ] } },
{ "type": "Feature", "properties": { "id": 36 }, "geometry": { "type": "Point", "coordinates": [ 106.788650544298278, -6.137350335018227 ] } },
{ "type": "Feature", "properties": { "id": 37 }, "geometry": { "type": "Point", "coordinates": [ 106.78606183957389, -6.138997692570117 ] } },
{ "type": "Feature", "properties": { "id": 38 }, "geometry": { "type": "Point", "coordinates": [ 106.785355829194501, -6.1379778997999 ] } },
{ "type": "Feature", "properties": { "id": 39 }, "geometry": { "type": "Point", "coordinates": [ 106.789984119459334, -6.12738774410918 ] } },
{ "type": "Feature", "properties": { "id": 40 }, "geometry": { "type": "Point", "coordinates": [ 106.788650544298278, -6.126054168948126 ] } },
{ "type": "Feature", "properties": { "id": 41 }, "geometry": { "type": "Point", "coordinates": [ 106.790062565057042, -6.122367225855802 ] } },
{ "type": "Feature", "properties": { "id": 42 }, "geometry": { "type": "Point", "coordinates": [ 106.788258316309737, -6.12173966107413 ] } },
{ "type": "Feature", "properties": { "id": 43 }, "geometry": { "type": "Point", "coordinates": [ 106.788022979516612, -6.120955205097039 ] } },
{ "type": "Feature", "properties": { "id": 44 }, "geometry": { "type": "Point", "coordinates": [ 106.790062565057042, -6.115542458855116 ] } },
{ "type": "Feature", "properties": { "id": 45 }, "geometry": { "type": "Point", "coordinates": [ 106.788650544298278, -6.11609157803908 ] } },
{ "type": "Feature", "properties": { "id": 46 }, "geometry": { "type": "Point", "coordinates": [ 106.785042046803667, -6.11609157803908 ] } },
{ "type": "Feature", "properties": { "id": 47 }, "geometry": { "type": "Point", "coordinates": [ 106.784571373217418, -6.118601837165769 ] } },
{ "type": "Feature", "properties": { "id": 48 }, "geometry": { "type": "Point", "coordinates": [ 106.783080906860945, -6.120249194717658 ] } },
{ "type": "Feature", "properties": { "id": 49 }, "geometry": { "type": "Point", "coordinates": [ 106.783159352458654, -6.123465464223728 ] } },
{ "type": "Feature", "properties": { "id": 50 }, "geometry": { "type": "Point", "coordinates": [ 106.781002098521654, -6.115679738651107 ] } },
{ "type": "Feature", "properties": { "id": 51 }, "geometry": { "type": "Point", "coordinates": [ 106.780766761728529, -6.11579740704767 ] } },
{ "type": "Feature", "properties": { "id": 52 }, "geometry": { "type": "Point", "coordinates": [ 106.779825414556015, -6.116797588418461 ] } },
{ "type": "Feature", "properties": { "id": 53 }, "geometry": { "type": "Point", "coordinates": [ 106.778178057004126, -6.116424971829343 ] } },
{ "type": "Feature", "properties": { "id": 54 }, "geometry": { "type": "Point", "coordinates": [ 106.778040777208133, -6.116170023636788 ] } },
{ "type": "Feature", "properties": { "id": 55 }, "geometry": { "type": "Point", "coordinates": [ 106.778197668403564, -6.114169660895208 ] } },
{ "type": "Feature", "properties": { "id": 56 }, "geometry": { "type": "Point", "coordinates": [ 106.779197849774349, -6.111698624567373 ] } },
{ "type": "Feature", "properties": { "id": 57 }, "geometry": { "type": "Point", "coordinates": [ 106.780825595926814, -6.11101222558742 ] } },
{ "type": "Feature", "properties": { "id": 58 }, "geometry": { "type": "Point", "coordinates": [ 106.775726632075717, -6.11079650019372 ] } },
{ "type": "Feature", "properties": { "id": 59 }, "geometry": { "type": "Point", "coordinates": [ 106.773941994727849, -6.111541733371955 ] } },
{ "type": "Feature", "properties": { "id": 60 }, "geometry": { "type": "Point", "coordinates": [ 106.77370665793471, -6.111757458765656 ] } },
{ "type": "Feature", "properties": { "id": 61 }, "geometry": { "type": "Point", "coordinates": [ 106.7746283937078, -6.116268080633924 ] } },
{ "type": "Feature", "properties": { "id": 62 }, "geometry": { "type": "Point", "coordinates": [ 106.775001010296918, -6.116385749030488 ] } },
{ "type": "Feature", "properties": { "id": 63 }, "geometry": { "type": "Point", "coordinates": [ 106.776452253854529, -6.121955386467829 ] } },
{ "type": "Feature", "properties": { "id": 64 }, "geometry": { "type": "Point", "coordinates": [ 106.779590077762876, -6.10828624106703 ] } },
{ "type": "Feature", "properties": { "id": 65 }, "geometry": { "type": "Point", "coordinates": [ 106.778354559598952, -6.108247018268176 ] } },
{ "type": "Feature", "properties": { "id": 66 }, "geometry": { "type": "Point", "coordinates": [ 106.777530880823022, -6.128015308890854 ] } },
{ "type": "Feature", "properties": { "id": 67 }, "geometry": { "type": "Point", "coordinates": [ 106.776864093242494, -6.130996241603797 ] } },
{ "type": "Feature", "properties": { "id": 68 }, "geometry": { "type": "Point", "coordinates": [ 106.780080362748578, -6.132918158747668 ] } },
{ "type": "Feature", "properties": { "id": 69 }, "geometry": { "type": "Point", "coordinates": [ 106.781296269513064, -6.134094842713304 ] } },
{ "type": "Feature", "properties": { "id": 70 }, "geometry": { "type": "Point", "coordinates": [ 106.781766943099313, -6.134800853092685 ] } },
{ "type": "Feature", "properties": { "id": 71 }, "geometry": { "type": "Point", "coordinates": [ 106.781060932719939, -6.136016759857175 ] } },
{ "type": "Feature", "properties": { "id": 72 }, "geometry": { "type": "Point", "coordinates": [ 106.777726994817286, -6.138056345397608 ] } },
{ "type": "Feature", "properties": { "id": 73 }, "geometry": { "type": "Point", "coordinates": [ 106.777883886012702, -6.138448573386153 ] } },
{ "type": "Feature", "properties": { "id": 74 }, "geometry": { "type": "Point", "coordinates": [ 106.777648549219577, -6.139468366156371 ] } },
{ "type": "Feature", "properties": { "id": 75 }, "geometry": { "type": "Point", "coordinates": [ 106.773647823736411, -6.138801578575842 ] } },
{ "type": "Feature", "properties": { "id": 76 }, "geometry": { "type": "Point", "coordinates": [ 106.773216372949008, -6.138017122598752 ] } },
{ "type": "Feature", "properties": { "id": 77 }, "geometry": { "type": "Point", "coordinates": [ 106.773451709742147, -6.13774256300677 ] } },
{ "type": "Feature", "properties": { "id": 78 }, "geometry": { "type": "Point", "coordinates": [ 106.7752951812883, -6.132016034374011 ] } },
{ "type": "Feature", "properties": { "id": 79 }, "geometry": { "type": "Point", "coordinates": [ 106.76678383393687, -6.128289868482832 ] } },
{ "type": "Feature", "properties": { "id": 80 }, "geometry": { "type": "Point", "coordinates": [ 106.75791948139576, -6.124838262183635 ] } },
{ "type": "Feature", "properties": { "id": 81 }, "geometry": { "type": "Point", "coordinates": [ 106.756134844047878, -6.124759816585927 ] } },
{ "type": "Feature", "properties": { "id": 82 }, "geometry": { "type": "Point", "coordinates": [ 106.755742616059337, -6.124759816585927 ] } },
{ "type": "Feature", "properties": { "id": 83 }, "geometry": { "type": "Point", "coordinates": [ 106.751192771392184, -6.134134065512159 ] } },
{ "type": "Feature", "properties": { "id": 84 }, "geometry": { "type": "Point", "coordinates": [ 106.745270128765171, -6.130211785626708 ] } },
{ "type": "Feature", "properties": { "id": 85 }, "geometry": { "type": "Point", "coordinates": [ 106.747584273897587, -6.124446034195094 ] } },
{ "type": "Feature", "properties": { "id": 86 }, "geometry": { "type": "Point", "coordinates": [ 106.745034791972046, -6.124289142999675 ] } },
{ "type": "Feature", "properties": { "id": 87 }, "geometry": { "type": "Point", "coordinates": [ 106.740171164914088, -6.123465464223731 ] } },
{ "type": "Feature", "properties": { "id": 88 }, "geometry": { "type": "Point", "coordinates": [ 106.73997505091981, -6.123779246614567 ] } },
{ "type": "Feature", "properties": { "id": 89 }, "geometry": { "type": "Point", "coordinates": [ 106.748756055013359, -6.1128311828843 ] } },
{ "type": "Feature", "properties": { "id": 90 }, "geometry": { "type": "Point", "coordinates": [ 106.748765860713107, -6.11161527611981 ] } },
{ "type": "Feature", "properties": { "id": 91 }, "geometry": { "type": "Point", "coordinates": [ 106.747471508350912, -6.112595846091173 ] } },
{ "type": "Feature", "properties": { "id": 92 }, "geometry": { "type": "Point", "coordinates": [ 106.746647829574954, -6.111419162125537 ] } },
{ "type": "Feature", "properties": { "id": 93 }, "geometry": { "type": "Point", "coordinates": [ 106.745000472023065, -6.112007504108355 ] } },
{ "type": "Feature", "properties": { "id": 94 }, "geometry": { "type": "Point", "coordinates": [ 106.742176430505552, -6.112007504108355 ] } },
{ "type": "Feature", "properties": { "id": 95 }, "geometry": { "type": "Point", "coordinates": [ 106.741205666233881, -6.110605289049305 ] } },
{ "type": "Feature", "properties": { "id": 96 }, "geometry": { "type": "Point", "coordinates": [ 106.741068386437888, -6.110477814953027 ] } },
{ "type": "Feature", "properties": { "id": 97 }, "geometry": { "type": "Point", "coordinates": [ 106.738999383798316, -6.109997335667058 ] } },
{ "type": "Feature", "properties": { "id": 98 }, "geometry": { "type": "Point", "coordinates": [ 106.738803269804038, -6.11070334604644 ] } },
{ "type": "Feature", "properties": { "id": 99 }, "geometry": { "type": "Point", "coordinates": [ 106.736293010677343, -6.113213605173129 ] } },
{ "type": "Feature", "properties": { "id": 100 }, "geometry": { "type": "Point", "coordinates": [ 106.739666171378843, -6.106114278580462 ] } },
{ "type": "Feature", "properties": { "id": 101 }, "geometry": { "type": "Point", "coordinates": [ 106.741156637735315, -6.104702257821699 ] } },
{ "type": "Feature", "properties": { "id": 102 }, "geometry": { "type": "Point", "coordinates": [ 106.74016626206425, -6.104133527238307 ] } },
{ "type": "Feature", "properties": { "id": 103 }, "geometry": { "type": "Point", "coordinates": [ 106.741382168828736, -6.103064705969522 ] } },
{ "type": "Feature", "properties": { "id": 104 }, "geometry": { "type": "Point", "coordinates": [ 106.738798366954171, -6.101902730553458 ] } }
]
}
