{
"type": "FeatureCollection",
"name": "Populasi Wilayah Pluit",
"crs": { "type": "name", "properties": { "name": "urn:ogc:def:crs:OGC:1.3:CRS84" } },
"features": [
{ "type": "Feature", "properties": { "GID_4": "IDN.7.5.6.5_1", "GID_0": "IDN", "COUNTRY": "Indonesia", "GID_1": "IDN.7_1", "NAME_1": "JakartaRaya", "GID_2": "IDN.7.5_1", "NAME_2": "JakartaUtara", "GID_3": "IDN.7.5.6_1", "NAME_3": "Penjaringan", "NAME_4": "Pluit", "VARNAME_4": "NA", "TYPE_4": "Kelurahan", "ENGTYPE_4": "UrbanCommunity", "CC_4": "3175010005", "Populasi Wilayah Pluitsum": 79492.047939300537 }, "geometry": { "type": "MultiPolygon", "coordinates": [ [ [ [ 106.7732, -6.1216 ], [ 106.7748, -6.1186 ], [ 106.7733, -6.1164 ], [ 106.7694, -6.115 ], [ 106.7702, -6.1123 ], [ 106.7674, -6.1085 ], [ 106.7673, -6.1018 ], [ 106.7709, -6.1043 ], [ 106.7717, -6.1034 ], [ 106.7724, -6.1051 ], [ 106.7767, -6.1036 ], [ 106.7745, -6.1101 ], [ 106.7765, -6.106 ], [ 106.7844, -6.1086 ], [ 106.7856, -6.1111 ], [ 106.7855, -6.1081 ], [ 106.7903, -6.108 ], [ 106.7904, -6.0936 ], [ 106.7933, -6.0924 ], [ 106.797, -6.0941 ], [ 106.7961, -6.1089 ], [ 106.7975, -6.1122 ], [ 106.8019, -6.1146 ], [ 106.8019, -6.1252 ], [ 106.7943, -6.1244 ], [ 106.7894, -6.1264 ], [ 106.7776, -6.1243 ], [ 106.7732, -6.1216 ] ] ] ] } }
]
}
