{
"type": "FeatureCollection",
"name": "Populasi-buffer-alfamart",
"crs": { "type": "name", "properties": { "name": "urn:ogc:def:crs:EPSG::32750" } },
"xy_coordinate_resolution": 1e-15,
"features": [
{ "type": "Feature", "properties": { "id": 1, "Point": "Alfamart", "Populasi Alfa_count": 1595.0 }, "geometry": { "type": "MultiPolygon", "coordinates": [ [ [ [ -637865.194716498372145, 9310302.02874363027513 ], [ -637936.214477458386682, 9310441.412872588261962 ], [ -637960.68621931085363, 9310595.921369776129723 ], [ -637936.214477458386682, 9310750.429866963997483 ], [ -637865.194716498372145, 9310889.813995921984315 ], [ -637754.578845457057469, 9311000.429866963997483 ], [ -637615.194716498372145, 9311071.449627922847867 ], [ -637463.746797134983353, 9311095.436621870845556 ], [ -637469.117614703602158, 9311100.807439438998699 ], [ -637540.137375663616695, 9311240.191568396985531 ], [ -637564.609117516083643, 9311394.700065584853292 ], [ -637540.137375663616695, 9311549.208562772721052 ], [ -637485.695337863173336, 9311656.05707810074091 ], [ -637497.299142808653414, 9311729.320619150996208 ], [ -637472.827400956186466, 9311883.829116338863969 ], [ -637414.982359345420264, 9311997.356402695178986 ], [ -637424.823878092807718, 9312002.3709069583565 ], [ -637535.439749134122394, 9312112.986778000369668 ], [ -637606.459510094136931, 9312252.3709069583565 ], [ -637630.931251946603879, 9312406.87940414622426 ], [ -637606.459510094136931, 9312561.387901334092021 ], [ -637579.360411061556078, 9312614.57287778519094 ], [ -637601.002378556295298, 9312625.600011000409722 ], [ -637711.618249597609974, 9312736.215882042422891 ], [ -637782.638010557624511, 9312875.600011000409722 ], [ -637807.10975241009146, 9313030.108508188277483 ], [ -637782.638010557624511, 9313184.617005376145244 ], [ -637771.77809483720921, 9313205.930790057405829 ], [ -637842.004552096943371, 9313276.157247317954898 ], [ -637913.024313056957908, 9313415.54137627594173 ], [ -637937.496054909424856, 9313570.04987346380949 ], [ -637913.024313056957908, 9313724.558370651677251 ], [ -637842.004552096943371, 9313863.942499609664083 ], [ -637731.388681055628695, 9313974.558370651677251 ], [ -637592.004552096943371, 9314045.578131610527635 ], [ -637437.496054909424856, 9314070.04987346380949 ], [ -637428.75834044883959, 9314068.665955448523164 ], [ -637423.142844589776359, 9314104.12080093473196 ], [ -637352.123083629761823, 9314243.504929892718792 ], [ -637241.507212588447146, 9314354.12080093473196 ], [ -637102.123083629761823, 9314425.140561893582344 ], [ -636947.614586442243308, 9314449.6123037468642 ], [ -636793.106089254724793, 9314425.140561893582344 ], [ -636653.72196029603947, 9314354.12080093473196 ], [ -636543.106089254724793, 9314243.504929892718792 ], [ -636472.086328294710256, 9314104.12080093473196 ], [ -636471.62021820328664, 9314101.17789763957262 ], [ -636370.443052839138545, 9314049.625556979328394 ], [ -636259.827181797823869, 9313939.009685937315226 ], [ -636188.807420837809332, 9313799.625556979328394 ], [ -636164.335678985342383, 9313645.117059791460633 ], [ -636188.807420837809332, 9313490.608562603592873 ], [ -636228.871456554043107, 9313411.978465214371681 ], [ -636159.132169004180469, 9313275.107406822964549 ], [ -636134.66042715171352, 9313120.598909635096788 ], [ -636147.253899539238773, 9313041.086854273453355 ], [ -636097.768204323365353, 9313015.87263317592442 ], [ -636119.457451841328293, 9313152.81315254420042 ], [ -636094.985709988861345, 9313307.321649732068181 ], [ -636023.965949028846808, 9313446.705778690055013 ], [ -635913.350077987532131, 9313557.321649732068181 ], [ -635773.965949028846808, 9313628.341410690918565 ], [ -635619.457451841328293, 9313652.81315254420042 ], [ -635464.948954653809778, 9313628.341410690918565 ], [ -635325.564825695124455, 9313557.321649732068181 ], [ -635214.948954653809778, 9313446.705778690055013 ], [ -635143.929193693795241, 9313307.321649732068181 ], [ -635119.457451841328293, 9313152.81315254420042 ], [ -635143.929193693795241, 9312998.30465535633266 ], [ -635214.948954653809778, 9312858.920526398345828 ], [ -635289.510711676441133, 9312784.358769375830889 ], [ -635192.655451448983513, 9312687.5035091470927 ], [ -635121.635690488968976, 9312548.119380189105868 ], [ -635121.044665892492048, 9312544.387797748669982 ], [ -635113.539602100267075, 9312559.117314791306853 ], [ -635002.923731058952399, 9312669.733185833320022 ], [ -634863.539602100267075, 9312740.752946792170405 ], [ -634709.03110491274856, 9312765.224688645452261 ], [ -634689.603280011680909, 9312762.147623471915722 ], [ -634562.135880950605497, 9312782.336476132273674 ], [ -634407.627383763086982, 9312757.864734278991818 ], [ -634268.243254804401658, 9312686.844973320141435 ], [ -634157.627383763086982, 9312576.229102278128266 ], [ -634086.607622803072445, 9312436.844973320141435 ], [ -634063.046148152090609, 9312288.083677055314183 ], [ -633959.573756223078817, 9312304.472093939781189 ], [ -633805.065259035560302, 9312280.000352086499333 ], [ -633665.681130076874979, 9312208.98059112764895 ], [ -633555.065259035560302, 9312098.364720085635781 ], [ -633484.045498075545765, 9311958.98059112764895 ], [ -633459.573756223078817, 9311804.472093939781189 ], [ -633484.045498075545765, 9311649.963596751913428 ], [ -633555.065259035560302, 9311510.579467793926597 ], [ -633665.681130076874979, 9311399.963596751913428 ], [ -633805.065259035560302, 9311328.943835793063045 ], [ -633959.573756223078817, 9311304.472093939781189 ], [ -634088.859155172132887, 9311324.948889495804906 ], [ -634108.385736612253822, 9311286.625815624371171 ], [ -634219.001607653568499, 9311176.009944582358003 ], [ -634358.385736612253822, 9311104.990183623507619 ], [ -634382.452255360549316, 9311101.178421521559358 ], [ -634314.769788584322669, 9311066.692482214421034 ], [ -634204.153917543007992, 9310956.076611172407866 ], [ -634133.134156582993455, 9310816.692482214421034 ], [ -634108.662414730526507, 9310662.183985026553273 ], [ -634133.134156582993455, 9310507.675487838685513 ], [ -634204.153917543007992, 9310368.291358880698681 ], [ -634256.829162790323608, 9310315.616113632917404 ], [ -634255.199938457459211, 9310305.329596033319831 ], [ -634279.67168030992616, 9310150.82109884545207 ], [ -634350.691441269940697, 9310011.436969887465239 ], [ -634461.307312311255373, 9309900.82109884545207 ], [ -634600.691441269940697, 9309829.801337886601686 ], [ -634755.199938457459211, 9309805.329596033319831 ], [ -634909.708435644977726, 9309829.801337886601686 ], [ -635049.09256460366305, 9309900.82109884545207 ], [ -635159.708435644977726, 9310011.436969887465239 ], [ -635230.728196604992263, 9310150.82109884545207 ], [ -635248.122686555259861, 9310260.645586116239429 ], [ -635329.90961217333097, 9310218.97306607849896 ], [ -635484.418109360849485, 9310194.501324225217104 ], [ -635608.635955313569866, 9310214.175498235970736 ], [ -635717.442810167674907, 9310105.368643380701542 ], [ -635856.82693912636023, 9310034.348882421851158 ], [ -636011.335436313878745, 9310009.877140568569303 ], [ -636165.84393350139726, 9310034.348882421851158 ], [ -636305.228062460082583, 9310105.368643380701542 ], [ -636415.84393350139726, 9310215.98451442271471 ], [ -636486.863694461411797, 9310355.368643380701542 ], [ -636496.654793168767355, 9310417.187207674607635 ], [ -636551.309694717288949, 9310309.920923719182611 ], [ -636661.925565758603625, 9310199.305052677169442 ], [ -636801.309694717288949, 9310128.285291718319058 ], [ -636955.818191904807463, 9310103.813549865037203 ], [ -637110.326689092325978, 9310128.285291718319058 ], [ -637200.507567830733024, 9310174.234744492918253 ], [ -637306.177722123335116, 9310120.393111629411578 ], [ -637460.68621931085363, 9310095.921369776129723 ], [ -637615.194716498372145, 9310120.393111629411578 ], [ -637754.578845457057469, 9310191.412872588261962 ], [ -637865.194716498372145, 9310302.02874363027513 ] ], [ [ -636713.24803540983703, 9312138.843620602041483 ], [ -636703.406516662449576, 9312133.829116338863969 ], [ -636592.7906456211349, 9312023.213245296850801 ], [ -636521.770884661120363, 9311883.829116338863969 ], [ -636497.299142808653414, 9311729.320619150996208 ], [ -636511.354139218688942, 9311640.58086427859962 ], [ -636408.377143578254618, 9311588.111464288085699 ], [ -636297.761272536939941, 9311477.495593246072531 ], [ -636261.0452960729599, 9311405.436432117596269 ], [ -636211.658789948909543, 9311380.272750386968255 ], [ -636101.042918907594867, 9311269.656879344955087 ], [ -636030.02315794758033, 9311130.272750386968255 ], [ -636010.944561323267408, 9311009.815232051536441 ], [ -635887.117590361158364, 9310990.202966557815671 ], [ -635778.310735507053323, 9311099.009821413084865 ], [ -635638.926606548367999, 9311170.029582371935248 ], [ -635484.418109360849485, 9311194.501324225217104 ], [ -635329.90961217333097, 9311170.029582371935248 ], [ -635190.525483214645647, 9311099.009821413084865 ], [ -635079.90961217333097, 9310988.393950371071696 ], [ -635038.307008654810488, 9310906.744243649765849 ], [ -635013.170911918045022, 9310956.076611172407866 ], [ -634902.555040876730345, 9311066.692482214421034 ], [ -634857.41868487757165, 9311089.690604293718934 ], [ -634869.656588049256243, 9311091.628897737711668 ], [ -635009.040717007941566, 9311162.648658696562052 ], [ -635119.656588049256243, 9311273.26452973857522 ], [ -635190.67634900927078, 9311412.648658696562052 ], [ -635215.148090861737728, 9311567.157155884429812 ], [ -635190.67634900927078, 9311721.665653072297573 ], [ -635119.656588049256243, 9311861.049782030284405 ], [ -635061.456954840454273, 9311919.249415239319205 ], [ -635113.539602100267075, 9311971.332062499597669 ], [ -635184.559363060281612, 9312110.7161914575845 ], [ -635185.150387656758539, 9312114.447773898020387 ], [ -635192.655451448983513, 9312099.718256855383515 ], [ -635261.001882202806883, 9312031.371826101094484 ], [ -635251.64361779903993, 9311972.286070046946406 ], [ -635276.115359651506878, 9311817.777572859078646 ], [ -635347.135120611521415, 9311678.393443901091814 ], [ -635457.750991652836092, 9311567.777572859078646 ], [ -635597.135120611521415, 9311496.757811900228262 ], [ -635751.64361779903993, 9311472.286070046946406 ], [ -635906.152114986558445, 9311496.757811900228262 ], [ -636045.536243945243768, 9311567.777572859078646 ], [ -636156.152114986558445, 9311678.393443901091814 ], [ -636227.171875946572982, 9311817.777572859078646 ], [ -636251.64361779903993, 9311972.286070046946406 ], [ -636227.171875946572982, 9312126.794567234814167 ], [ -636221.089985615573823, 9312138.730949090793729 ], [ -636231.962108074571006, 9312133.191326009109616 ], [ -636386.470605262089521, 9312108.719584155827761 ], [ -636540.979102449608035, 9312133.191326009109616 ], [ -636680.028539232676849, 9312204.040552787482738 ], [ -636713.24803540983703, 9312138.843620602041483 ] ] ], [ [ [ -640773.277370391995646, 9310935.872507609426975 ], [ -640912.66149935068097, 9311006.892268568277359 ], [ -641023.277370391995646, 9311117.508139610290527 ], [ -641094.297131352010183, 9311256.892268568277359 ], [ -641118.768873204477131, 9311411.40076575614512 ], [ -641094.297131352010183, 9311565.90926294401288 ], [ -641028.029905389645137, 9311695.966016788035631 ], [ -641052.269060560851358, 9311683.615550354123116 ], [ -641206.777557748369873, 9311659.14380850084126 ], [ -641361.286054935888387, 9311683.615550354123116 ], [ -641500.670183894573711, 9311754.635311312973499 ], [ -641611.286054935888387, 9311865.251182354986668 ], [ -641682.305815895902924, 9312004.635311312973499 ], [ -641706.777557748369873, 9312159.14380850084126 ], [ -641682.305815895902924, 9312313.652305688709021 ], [ -641611.286054935888387, 9312453.036434646695852 ], [ -641500.670183894573711, 9312563.652305688709021 ], [ -641361.286054935888387, 9312634.672066647559404 ], [ -641206.777557748369873, 9312659.14380850084126 ], [ -641052.269060560851358, 9312634.672066647559404 ], [ -640912.884931602166034, 9312563.652305688709021 ], [ -640802.269060560851358, 9312453.036434646695852 ], [ -640760.828506437246688, 9312371.704767771065235 ], [ -640664.518602692405693, 9312468.014671515673399 ], [ -640525.13447373372037, 9312539.034432474523783 ], [ -640370.625976546201855, 9312563.506174327805638 ], [ -640216.11747935868334, 9312539.034432474523783 ], [ -640076.733350399998017, 9312468.014671515673399 ], [ -639966.11747935868334, 9312357.398800473660231 ], [ -639908.060914617730305, 9312243.456376599147916 ], [ -639857.926413510111161, 9312341.850875161588192 ], [ -639747.310542468796484, 9312452.46674620360136 ], [ -639607.926413510111161, 9312523.486507162451744 ], [ -639453.417916322592646, 9312547.9582490157336 ], [ -639323.459376479499042, 9312527.374838417395949 ], [ -639209.998728473670781, 9312545.345239650458097 ], [ -639055.490231286152266, 9312520.873497797176242 ], [ -638916.106102327466942, 9312449.853736838325858 ], [ -638805.490231286152266, 9312339.23786579631269 ], [ -638734.470470326137729, 9312199.853736838325858 ], [ -638709.998728473670781, 9312045.345239650458097 ], [ -638734.470470326137729, 9311890.836742462590337 ], [ -638805.490231286152266, 9311751.452613504603505 ], [ -638916.106102327466942, 9311640.836742462590337 ], [ -639055.490231286152266, 9311569.816981503739953 ], [ -639209.998728473670781, 9311545.345239650458097 ], [ -639339.957268316764385, 9311565.928650248795748 ], [ -639453.417916322592646, 9311547.9582490157336 ], [ -639607.926413510111161, 9311572.429990869015455 ], [ -639747.310542468796484, 9311643.449751827865839 ], [ -639857.926413510111161, 9311754.065622869879007 ], [ -639915.982978251064196, 9311868.008046744391322 ], [ -639966.11747935868334, 9311769.613548181951046 ], [ -640076.733350399998017, 9311658.997677139937878 ], [ -640167.188031928613782, 9311612.90871487557888 ], [ -640143.24061505694408, 9311565.90926294401288 ], [ -640118.768873204477131, 9311411.40076575614512 ], [ -640143.24061505694408, 9311256.892268568277359 ], [ -640214.260376016958617, 9311117.508139610290527 ], [ -640324.876247058273293, 9311006.892268568277359 ], [ -640464.260376016958617, 9310935.872507609426975 ], [ -640618.768873204477131, 9310911.40076575614512 ], [ -640773.277370391995646, 9310935.872507609426975 ] ] ], [ [ [ -640419.593147321720608, 9312896.476120887324214 ], [ -640558.977276280405931, 9312967.495881846174598 ], [ -640669.593147321720608, 9313078.111752888187766 ], [ -640740.612908281735145, 9313217.495881846174598 ], [ -640753.790988331893459, 9313300.699004722759128 ], [ -640839.775114141521044, 9313214.714878913015127 ], [ -640979.159243100206368, 9313143.695117954164743 ], [ -641133.667740287724882, 9313119.223376100882888 ], [ -641288.176237475243397, 9313143.695117954164743 ], [ -641427.560366433928721, 9313214.714878913015127 ], [ -641538.176237475243397, 9313325.330749955028296 ], [ -641609.195998435257934, 9313464.714878913015127 ], [ -641633.667740287724882, 9313619.223376100882888 ], [ -641609.195998435257934, 9313773.731873288750648 ], [ -641538.176237475243397, 9313913.11600224673748 ], [ -641531.724288098048419, 9313919.567951623350382 ], [ -641542.601724153500982, 9313925.110282119363546 ], [ -641653.217595194815658, 9314035.726153161376715 ], [ -641724.237356154830195, 9314175.110282119363546 ], [ -641748.709098007297143, 9314329.618779307231307 ], [ -641724.237356154830195, 9314484.127276495099068 ], [ -641653.217595194815658, 9314623.511405453085899 ], [ -641542.601724153500982, 9314734.127276495099068 ], [ -641403.217595194815658, 9314805.147037453949451 ], [ -641248.709098007297143, 9314829.618779307231307 ], [ -641094.200600819778629, 9314805.147037453949451 ], [ -640954.816471861093305, 9314734.127276495099068 ], [ -640947.631032906007022, 9314726.941837539896369 ], [ -640843.861219921265729, 9314674.068476935848594 ], [ -640733.245348879951052, 9314563.452605893835425 ], [ -640662.225587919936515, 9314424.068476935848594 ], [ -640637.753846067469567, 9314269.559979747980833 ], [ -640662.225587919936515, 9314115.051482560113072 ], [ -640733.245348879951052, 9313975.667353602126241 ], [ -640762.47797166754026, 9313946.434730814769864 ], [ -640729.159243100206368, 9313913.11600224673748 ], [ -640658.139482140191831, 9313773.731873288750648 ], [ -640644.961402090033516, 9313690.528750412166119 ], [ -640558.977276280405931, 9313776.512876221910119 ], [ -640419.593147321720608, 9313847.532637180760503 ], [ -640265.084650134202093, 9313872.004379034042358 ], [ -640110.576152946683578, 9313847.532637180760503 ], [ -639971.192023987998255, 9313776.512876221910119 ], [ -639860.576152946683578, 9313665.897005179896951 ], [ -639789.556391986669041, 9313526.512876221910119 ], [ -639765.084650134202093, 9313372.004379034042358 ], [ -639789.556391986669041, 9313217.495881846174598 ], [ -639860.576152946683578, 9313078.111752888187766 ], [ -639971.192023987998255, 9312967.495881846174598 ], [ -640110.576152946683578, 9312896.476120887324214 ], [ -640265.084650134202093, 9312872.004379034042358 ], [ -640419.593147321720608, 9312896.476120887324214 ] ] ], [ [ [ -634367.215096163447015, 9312968.85359600186348 ], [ -634506.599225122132339, 9313039.873356960713863 ], [ -634617.215096163447015, 9313150.489228002727032 ], [ -634688.234857123461552, 9313289.873356960713863 ], [ -634712.7065989759285, 9313444.381854148581624 ], [ -634688.234857123461552, 9313598.890351336449385 ], [ -634617.215096163447015, 9313738.274480294436216 ], [ -634506.599225122132339, 9313848.890351336449385 ], [ -634367.215096163447015, 9313919.910112295299768 ], [ -634212.7065989759285, 9313944.381854148581624 ], [ -634058.198101788409986, 9313919.910112295299768 ], [ -633918.813972829724662, 9313848.890351336449385 ], [ -633808.198101788409986, 9313738.274480294436216 ], [ -633737.178340828395449, 9313598.890351336449385 ], [ -633712.7065989759285, 9313444.381854148581624 ], [ -633737.178340828395449, 9313289.873356960713863 ], [ -633808.198101788409986, 9313150.489228002727032 ], [ -633918.813972829724662, 9313039.873356960713863 ], [ -634058.198101788409986, 9312968.85359600186348 ], [ -634212.7065989759285, 9312944.381854148581624 ], [ -634367.215096163447015, 9312968.85359600186348 ] ] ] ] } }
]
}
