{
"type": "FeatureCollection",
"name": "Zona Populasi Alfamart Pluit",
"crs": { "type": "name", "properties": { "name": "urn:ogc:def:crs:OGC:1.3:CRS84" } },
"features": [
{ "type": "Feature", "properties": { "GID_4": "IDN.7.5.6.5_1", "GID_0": "IDN", "COUNTRY": "Indonesia", "GID_1": "IDN.7_1", "NAME_1": "JakartaRaya", "GID_2": "IDN.7.5_1", "NAME_2": "JakartaUtara", "GID_3": "IDN.7.5.6_1", "NAME_3": "Penjaringan", "NAME_4": "Pluit", "VARNAME_4": "NA", "TYPE_4": "Kelurahan", "ENGTYPE_4": "UrbanCommunity", "CC_4": "3175010005", "Populasi alfa pluit_count": 475.0 }, "geometry": { "type": "MultiPolygon", "coordinates": [ [ [ [ 106.770797594386735, -6.114922672924905 ], [ 106.770897818335357, -6.114734806004734 ], [ 106.770285286982315, -6.114097664489303 ], [ 106.769901672605258, -6.113306854957278 ], [ 106.7702, -6.1123 ], [ 106.769505487974698, -6.111357447965656 ], [ 106.769730338537173, -6.110094063546391 ], [ 106.770385738392903, -6.108865477808915 ], [ 106.771388351530916, -6.107899737028038 ], [ 106.772640040757622, -6.107291373163635 ], [ 106.774018288345758, -6.107099939152112 ], [ 106.774095758196353, -6.107113751346264 ], [ 106.774151750260287, -6.10679910473774 ], [ 106.774807131987842, -6.105570489744082 ], [ 106.775809734554088, -6.104604716799026 ], [ 106.776468281391118, -6.104284623162616 ], [ 106.7745, -6.1101 ], [ 106.7765, -6.106 ], [ 106.7844, -6.1086 ], [ 106.785133769542966, -6.110128686547848 ], [ 106.785268454020738, -6.111100107383866 ], [ 106.785024444071325, -6.112471353256031 ], [ 106.784654709432914, -6.113164468185504 ], [ 106.785251576073733, -6.114394803164093 ], [ 106.785442836257801, -6.115774412559417 ], [ 106.785317255215602, -6.11648007222025 ], [ 106.785753058021584, -6.116712987653242 ], [ 106.785583547198158, -6.115490241382668 ], [ 106.785827570447537, -6.114118995056302 ], [ 106.786482985940808, -6.112890335258204 ], [ 106.787485639704599, -6.111924527341194 ], [ 106.788737390560456, -6.111316109835428 ], [ 106.790115714743322, -6.111124640922067 ], [ 106.791485696963861, -6.111368867684846 ], [ 106.792713235068589, -6.112024889191497 ], [ 106.793678166416129, -6.113028493912687 ], [ 106.794286031249385, -6.114281443503934 ], [ 106.794477321195131, -6.115661088495367 ], [ 106.794233306774004, -6.117032374853014 ], [ 106.793577872562182, -6.118261065829655 ], [ 106.792901997574418, -6.118912086411643 ], [ 106.79374688439411, -6.119790861054799 ], [ 106.794354730967257, -6.121043823887586 ], [ 106.794359350288673, -6.121077144210317 ], [ 106.794428615560832, -6.120947301871965 ], [ 106.795431319311888, -6.119981479721527 ], [ 106.796683126648972, -6.119373059405436 ], [ 106.798061508277883, -6.119181599375811 ], [ 106.798233775445354, -6.119212310893614 ], [ 106.799370925719387, -6.1190543546408 ], [ 106.800740966713022, -6.119298598111349 ], [ 106.8019, -6.119918010358435 ], [ 106.8019, -6.1252 ], [ 106.7943, -6.1244 ], [ 106.7894, -6.1264 ], [ 106.78429257503835, -6.125491051489875 ], [ 106.784450223764992, -6.124605371205111 ], [ 106.784506356180103, -6.124500155612902 ], [ 106.784408714625854, -6.12454760772201 ], [ 106.783030369426584, -6.124739000261413 ], [ 106.781660402461711, -6.124494700297162 ], [ 106.78043586435723, -6.123840202676802 ], [ 106.780129267564888, -6.12441488427342 ], [ 106.780215936536308, -6.124461207823188 ], [ 106.780568909668517, -6.124828365279988 ], [ 106.7776, -6.1243 ], [ 106.7732, -6.1216 ], [ 106.7748, -6.1186 ], [ 106.7733, -6.1164 ], [ 106.770700722822212, -6.115466926141305 ], [ 106.770797594386735, -6.114922672924905 ] ] ], [ [ [ 106.799908807682968, -6.116771153826435 ], [ 106.798943850340919, -6.115767529732413 ], [ 106.798335969540489, -6.114514564470296 ], [ 106.79814466256181, -6.113134904978447 ], [ 106.798239259848401, -6.112603232644579 ], [ 106.8019, -6.1146 ], [ 106.8019, -6.117563319471909 ], [ 106.801136390370303, -6.117427193552579 ], [ 106.799908807682968, -6.116771153826435 ] ] ] ] } }
]
}
