{
"type": "FeatureCollection",
"name": "Buffers Alfamart",
"crs": { "type": "name", "properties": { "name": "urn:ogc:def:crs:EPSG::32750" } },
"features": [
{ "type": "Feature", "properties": { "id": 1, "Point": "Alfamart Penjaringan" }, "geometry": { "type": "MultiPolygon", "coordinates": [ [ [ [ -634215.148090861737728, 9311567.157155884429812 ], [ -634239.619832714204676, 9311412.648658696562052 ], [ -634310.639593674219213, 9311273.26452973857522 ], [ -634421.25546471553389, 9311162.648658696562052 ], [ -634560.639593674219213, 9311091.628897737711668 ], [ -634715.148090861737728, 9311067.157155884429812 ], [ -634869.656588049256243, 9311091.628897737711668 ], [ -635009.040717007941566, 9311162.648658696562052 ], [ -635119.656588049256243, 9311273.26452973857522 ], [ -635190.67634900927078, 9311412.648658696562052 ], [ -635215.148090861737728, 9311567.157155884429812 ], [ -635190.67634900927078, 9311721.665653072297573 ], [ -635119.656588049256243, 9311861.049782030284405 ], [ -635009.040717007941566, 9311971.665653072297573 ], [ -634869.656588049256243, 9312042.685414031147957 ], [ -634715.148090861737728, 9312067.157155884429812 ], [ -634560.639593674219213, 9312042.685414031147957 ], [ -634421.25546471553389, 9311971.665653072297573 ], [ -634310.639593674219213, 9311861.049782030284405 ], [ -634239.619832714204676, 9311721.665653072297573 ], [ -634215.148090861737728, 9311567.157155884429812 ] ] ] ] } },
{ "type": "Feature", "properties": { "id": 1, "Point": "Alfamart Penjaringan" }, "geometry": { "type": "MultiPolygon", "coordinates": [ [ [ [ -634012.894233799772337, 9311580.518441770225763 ], [ -634037.365975652239285, 9311426.009944582358003 ], [ -634108.385736612253822, 9311286.625815624371171 ], [ -634219.001607653568499, 9311176.009944582358003 ], [ -634358.385736612253822, 9311104.990183623507619 ], [ -634512.894233799772337, 9311080.518441770225763 ], [ -634667.402730987290852, 9311104.990183623507619 ], [ -634806.786859945976175, 9311176.009944582358003 ], [ -634917.402730987290852, 9311286.625815624371171 ], [ -634988.422491947305389, 9311426.009944582358003 ], [ -635012.894233799772337, 9311580.518441770225763 ], [ -634988.422491947305389, 9311735.026938958093524 ], [ -634917.402730987290852, 9311874.411067916080356 ], [ -634806.786859945976175, 9311985.026938958093524 ], [ -634667.402730987290852, 9312056.046699916943908 ], [ -634512.894233799772337, 9312080.518441770225763 ], [ -634358.385736612253822, 9312056.046699916943908 ], [ -634219.001607653568499, 9311985.026938958093524 ], [ -634108.385736612253822, 9311874.411067916080356 ], [ -634037.365975652239285, 9311735.026938958093524 ], [ -634012.894233799772337, 9311580.518441770225763 ] ] ] ] } },
{ "type": "Feature", "properties": { "id": 2, "Point": "Alfamart Penjaringan" }, "geometry": { "type": "MultiPolygon", "coordinates": [ [ [ [ -633459.573756223078817, 9311804.472093939781189 ], [ -633484.045498075545765, 9311649.963596751913428 ], [ -633555.065259035560302, 9311510.579467793926597 ], [ -633665.681130076874979, 9311399.963596751913428 ], [ -633805.065259035560302, 9311328.943835793063045 ], [ -633959.573756223078817, 9311304.472093939781189 ], [ -634114.082253410597332, 9311328.943835793063045 ], [ -634253.466382369282655, 9311399.963596751913428 ], [ -634364.082253410597332, 9311510.579467793926597 ], [ -634435.102014370611869, 9311649.963596751913428 ], [ -634459.573756223078817, 9311804.472093939781189 ], [ -634435.102014370611869, 9311958.98059112764895 ], [ -634364.082253410597332, 9312098.364720085635781 ], [ -634253.466382369282655, 9312208.98059112764895 ], [ -634114.082253410597332, 9312280.000352086499333 ], [ -633959.573756223078817, 9312304.472093939781189 ], [ -633805.065259035560302, 9312280.000352086499333 ], [ -633665.681130076874979, 9312208.98059112764895 ], [ -633555.065259035560302, 9312098.364720085635781 ], [ -633484.045498075545765, 9311958.98059112764895 ], [ -633459.573756223078817, 9311804.472093939781189 ] ] ] ] } },
{ "type": "Feature", "properties": { "id": 3, "Point": "Alfamart Pluit" }, "geometry": { "type": "MultiPolygon", "coordinates": [ [ [ [ -634209.03110491274856, 9312265.224688645452261 ], [ -634233.502846765215509, 9312110.7161914575845 ], [ -634304.522607725230046, 9311971.332062499597669 ], [ -634415.138478766544722, 9311860.7161914575845 ], [ -634554.522607725230046, 9311789.696430498734117 ], [ -634709.03110491274856, 9311765.224688645452261 ], [ -634863.539602100267075, 9311789.696430498734117 ], [ -635002.923731058952399, 9311860.7161914575845 ], [ -635113.539602100267075, 9311971.332062499597669 ], [ -635184.559363060281612, 9312110.7161914575845 ], [ -635209.03110491274856, 9312265.224688645452261 ], [ -635184.559363060281612, 9312419.733185833320022 ], [ -635113.539602100267075, 9312559.117314791306853 ], [ -635002.923731058952399, 9312669.733185833320022 ], [ -634863.539602100267075, 9312740.752946792170405 ], [ -634709.03110491274856, 9312765.224688645452261 ], [ -634554.522607725230046, 9312740.752946792170405 ], [ -634415.138478766544722, 9312669.733185833320022 ], [ -634304.522607725230046, 9312559.117314791306853 ], [ -634233.502846765215509, 9312419.733185833320022 ], [ -634209.03110491274856, 9312265.224688645452261 ] ] ] ] } },
{ "type": "Feature", "properties": { "id": 4, "Point": "Alfamart Pluit" }, "geometry": { "type": "MultiPolygon", "coordinates": [ [ [ [ -634062.135880950605497, 9312282.336476132273674 ], [ -634086.607622803072445, 9312127.827978944405913 ], [ -634157.627383763086982, 9311988.443849986419082 ], [ -634268.243254804401658, 9311877.827978944405913 ], [ -634407.627383763086982, 9311806.80821798555553 ], [ -634562.135880950605497, 9311782.336476132273674 ], [ -634716.644378138124011, 9311806.80821798555553 ], [ -634856.028507096809335, 9311877.827978944405913 ], [ -634966.644378138124011, 9311988.443849986419082 ], [ -635037.664139098138548, 9312127.827978944405913 ], [ -635062.135880950605497, 9312282.336476132273674 ], [ -635037.664139098138548, 9312436.844973320141435 ], [ -634966.644378138124011, 9312576.229102278128266 ], [ -634856.028507096809335, 9312686.844973320141435 ], [ -634716.644378138124011, 9312757.864734278991818 ], [ -634562.135880950605497, 9312782.336476132273674 ], [ -634407.627383763086982, 9312757.864734278991818 ], [ -634268.243254804401658, 9312686.844973320141435 ], [ -634157.627383763086982, 9312576.229102278128266 ], [ -634086.607622803072445, 9312436.844973320141435 ], [ -634062.135880950605497, 9312282.336476132273674 ] ] ] ] } },
{ "type": "Feature", "properties": { "id": 5, "Point": "Alfamart Penjaringan" }, "geometry": { "type": "MultiPolygon", "coordinates": [ [ [ [ -633712.7065989759285, 9313444.381854148581624 ], [ -633737.178340828395449, 9313289.873356960713863 ], [ -633808.198101788409986, 9313150.489228002727032 ], [ -633918.813972829724662, 9313039.873356960713863 ], [ -634058.198101788409986, 9312968.85359600186348 ], [ -634212.7065989759285, 9312944.381854148581624 ], [ -634367.215096163447015, 9312968.85359600186348 ], [ -634506.599225122132339, 9313039.873356960713863 ], [ -634617.215096163447015, 9313150.489228002727032 ], [ -634688.234857123461552, 9313289.873356960713863 ], [ -634712.7065989759285, 9313444.381854148581624 ], [ -634688.234857123461552, 9313598.890351336449385 ], [ -634617.215096163447015, 9313738.274480294436216 ], [ -634506.599225122132339, 9313848.890351336449385 ], [ -634367.215096163447015, 9313919.910112295299768 ], [ -634212.7065989759285, 9313944.381854148581624 ], [ -634058.198101788409986, 9313919.910112295299768 ], [ -633918.813972829724662, 9313848.890351336449385 ], [ -633808.198101788409986, 9313738.274480294436216 ], [ -633737.178340828395449, 9313598.890351336449385 ], [ -633712.7065989759285, 9313444.381854148581624 ] ] ] ] } },
{ "type": "Feature", "properties": { "id": 6, "Point": "Alfamart Pejagalan" }, "geometry": { "type": "MultiPolygon", "coordinates": [ [ [ [ -634108.662414730526507, 9310662.183985026553273 ], [ -634133.134156582993455, 9310507.675487838685513 ], [ -634204.153917543007992, 9310368.291358880698681 ], [ -634314.769788584322669, 9310257.675487838685513 ], [ -634454.153917543007992, 9310186.655726879835129 ], [ -634608.662414730526507, 9310162.183985026553273 ], [ -634763.170911918045022, 9310186.655726879835129 ], [ -634902.555040876730345, 9310257.675487838685513 ], [ -635013.170911918045022, 9310368.291358880698681 ], [ -635084.190672878059559, 9310507.675487838685513 ], [ -635108.662414730526507, 9310662.183985026553273 ], [ -635084.190672878059559, 9310816.692482214421034 ], [ -635013.170911918045022, 9310956.076611172407866 ], [ -634902.555040876730345, 9311066.692482214421034 ], [ -634763.170911918045022, 9311137.712243173271418 ], [ -634608.662414730526507, 9311162.183985026553273 ], [ -634454.153917543007992, 9311137.712243173271418 ], [ -634314.769788584322669, 9311066.692482214421034 ], [ -634204.153917543007992, 9310956.076611172407866 ], [ -634133.134156582993455, 9310816.692482214421034 ], [ -634108.662414730526507, 9310662.183985026553273 ] ] ] ] } },
{ "type": "Feature", "properties": { "id": 7, "Point": "Alfamart Pejagalan" }, "geometry": { "type": "MultiPolygon", "coordinates": [ [ [ [ -634984.418109360849485, 9310694.501324225217104 ], [ -635008.889851213316433, 9310539.992827037349343 ], [ -635079.90961217333097, 9310400.608698079362512 ], [ -635190.525483214645647, 9310289.992827037349343 ], [ -635329.90961217333097, 9310218.97306607849896 ], [ -635484.418109360849485, 9310194.501324225217104 ], [ -635638.926606548367999, 9310218.97306607849896 ], [ -635778.310735507053323, 9310289.992827037349343 ], [ -635888.926606548367999, 9310400.608698079362512 ], [ -635959.946367508382536, 9310539.992827037349343 ], [ -635984.418109360849485, 9310694.501324225217104 ], [ -635959.946367508382536, 9310849.009821413084865 ], [ -635888.926606548367999, 9310988.393950371071696 ], [ -635778.310735507053323, 9311099.009821413084865 ], [ -635638.926606548367999, 9311170.029582371935248 ], [ -635484.418109360849485, 9311194.501324225217104 ], [ -635329.90961217333097, 9311170.029582371935248 ], [ -635190.525483214645647, 9311099.009821413084865 ], [ -635079.90961217333097, 9310988.393950371071696 ], [ -635008.889851213316433, 9310849.009821413084865 ], [ -634984.418109360849485, 9310694.501324225217104 ] ] ] ] } },
{ "type": "Feature", "properties": { "id": 8, "Point": "Alfamart Pejagalan" }, "geometry": { "type": "MultiPolygon", "coordinates": [ [ [ [ -634255.199938457459211, 9310305.329596033319831 ], [ -634279.67168030992616, 9310150.82109884545207 ], [ -634350.691441269940697, 9310011.436969887465239 ], [ -634461.307312311255373, 9309900.82109884545207 ], [ -634600.691441269940697, 9309829.801337886601686 ], [ -634755.199938457459211, 9309805.329596033319831 ], [ -634909.708435644977726, 9309829.801337886601686 ], [ -635049.09256460366305, 9309900.82109884545207 ], [ -635159.708435644977726, 9310011.436969887465239 ], [ -635230.728196604992263, 9310150.82109884545207 ], [ -635255.199938457459211, 9310305.329596033319831 ], [ -635230.728196604992263, 9310459.838093221187592 ], [ -635159.708435644977726, 9310599.222222179174423 ], [ -635049.09256460366305, 9310709.838093221187592 ], [ -634909.708435644977726, 9310780.857854180037975 ], [ -634755.199938457459211, 9310805.329596033319831 ], [ -634600.691441269940697, 9310780.857854180037975 ], [ -634461.307312311255373, 9310709.838093221187592 ], [ -634350.691441269940697, 9310599.222222179174423 ], [ -634279.67168030992616, 9310459.838093221187592 ], [ -634255.199938457459211, 9310305.329596033319831 ] ] ] ] } },
{ "type": "Feature", "properties": { "id": 9, "Point": "Alfamart Pejagalan" }, "geometry": { "type": "MultiPolygon", "coordinates": [ [ [ [ -635511.335436313878745, 9310509.877140568569303 ], [ -635535.807178166345693, 9310355.368643380701542 ], [ -635606.82693912636023, 9310215.98451442271471 ], [ -635717.442810167674907, 9310105.368643380701542 ], [ -635856.82693912636023, 9310034.348882421851158 ], [ -636011.335436313878745, 9310009.877140568569303 ], [ -636165.84393350139726, 9310034.348882421851158 ], [ -636305.228062460082583, 9310105.368643380701542 ], [ -636415.84393350139726, 9310215.98451442271471 ], [ -636486.863694461411797, 9310355.368643380701542 ], [ -636511.335436313878745, 9310509.877140568569303 ], [ -636486.863694461411797, 9310664.385637756437063 ], [ -636415.84393350139726, 9310803.769766714423895 ], [ -636305.228062460082583, 9310914.385637756437063 ], [ -636165.84393350139726, 9310985.405398715287447 ], [ -636011.335436313878745, 9311009.877140568569303 ], [ -635856.82693912636023, 9310985.405398715287447 ], [ -635717.442810167674907, 9310914.385637756437063 ], [ -635606.82693912636023, 9310803.769766714423895 ], [ -635535.807178166345693, 9310664.385637756437063 ], [ -635511.335436313878745, 9310509.877140568569303 ] ] ] ] } },
{ "type": "Feature", "properties": { "id": 10, "Point": "Alfamart Pejagalan" }, "geometry": { "type": "MultiPolygon", "coordinates": [ [ [ [ -636005.551416095113382, 9310975.764253199100494 ], [ -636030.02315794758033, 9310821.255756011232734 ], [ -636101.042918907594867, 9310681.871627053245902 ], [ -636211.658789948909543, 9310571.255756011232734 ], [ -636351.042918907594867, 9310500.23599505238235 ], [ -636505.551416095113382, 9310475.764253199100494 ], [ -636660.059913282631896, 9310500.23599505238235 ], [ -636799.44404224131722, 9310571.255756011232734 ], [ -636910.059913282631896, 9310681.871627053245902 ], [ -636981.079674242646433, 9310821.255756011232734 ], [ -637005.551416095113382, 9310975.764253199100494 ], [ -636981.079674242646433, 9311130.272750386968255 ], [ -636910.059913282631896, 9311269.656879344955087 ], [ -636799.44404224131722, 9311380.272750386968255 ], [ -636660.059913282631896, 9311451.292511345818639 ], [ -636505.551416095113382, 9311475.764253199100494 ], [ -636351.042918907594867, 9311451.292511345818639 ], [ -636211.658789948909543, 9311380.272750386968255 ], [ -636101.042918907594867, 9311269.656879344955087 ], [ -636030.02315794758033, 9311130.272750386968255 ], [ -636005.551416095113382, 9310975.764253199100494 ] ] ] ] } },
{ "type": "Feature", "properties": { "id": 11, "Point": "Alfamart Pluit" }, "geometry": { "type": "MultiPolygon", "coordinates": [ [ [ [ -635251.64361779903993, 9311972.286070046946406 ], [ -635276.115359651506878, 9311817.777572859078646 ], [ -635347.135120611521415, 9311678.393443901091814 ], [ -635457.750991652836092, 9311567.777572859078646 ], [ -635597.135120611521415, 9311496.757811900228262 ], [ -635751.64361779903993, 9311472.286070046946406 ], [ -635906.152114986558445, 9311496.757811900228262 ], [ -636045.536243945243768, 9311567.777572859078646 ], [ -636156.152114986558445, 9311678.393443901091814 ], [ -636227.171875946572982, 9311817.777572859078646 ], [ -636251.64361779903993, 9311972.286070046946406 ], [ -636227.171875946572982, 9312126.794567234814167 ], [ -636156.152114986558445, 9312266.178696192800999 ], [ -636045.536243945243768, 9312376.794567234814167 ], [ -635906.152114986558445, 9312447.814328193664551 ], [ -635751.64361779903993, 9312472.286070046946406 ], [ -635597.135120611521415, 9312447.814328193664551 ], [ -635457.750991652836092, 9312376.794567234814167 ], [ -635347.135120611521415, 9312266.178696192800999 ], [ -635276.115359651506878, 9312126.794567234814167 ], [ -635251.64361779903993, 9311972.286070046946406 ] ] ] ] } },
{ "type": "Feature", "properties": { "id": 12, "Point": "Alfamart Pejagalan" }, "geometry": { "type": "MultiPolygon", "coordinates": [ [ [ [ -636497.299142808653414, 9311729.320619150996208 ], [ -636521.770884661120363, 9311574.812121963128448 ], [ -636592.7906456211349, 9311435.427993005141616 ], [ -636703.406516662449576, 9311324.812121963128448 ], [ -636842.7906456211349, 9311253.792361004278064 ], [ -636997.299142808653414, 9311229.320619150996208 ], [ -637151.807639996171929, 9311253.792361004278064 ], [ -637291.191768954857253, 9311324.812121963128448 ], [ -637401.807639996171929, 9311435.427993005141616 ], [ -637472.827400956186466, 9311574.812121963128448 ], [ -637497.299142808653414, 9311729.320619150996208 ], [ -637472.827400956186466, 9311883.829116338863969 ], [ -637401.807639996171929, 9312023.213245296850801 ], [ -637291.191768954857253, 9312133.829116338863969 ], [ -637151.807639996171929, 9312204.848877297714353 ], [ -636997.299142808653414, 9312229.320619150996208 ], [ -636842.7906456211349, 9312204.848877297714353 ], [ -636703.406516662449576, 9312133.829116338863969 ], [ -636592.7906456211349, 9312023.213245296850801 ], [ -636521.770884661120363, 9311883.829116338863969 ], [ -636497.299142808653414, 9311729.320619150996208 ] ] ] ] } },
{ "type": "Feature", "properties": { "id": 13, "Point": "Alfamart Pluit" }, "geometry": { "type": "MultiPolygon", "coordinates": [ [ [ [ -635097.163948636502028, 9312393.610883001238108 ], [ -635121.635690488968976, 9312239.102385813370347 ], [ -635192.655451448983513, 9312099.718256855383515 ], [ -635303.271322490298189, 9311989.102385813370347 ], [ -635442.655451448983513, 9311918.082624854519963 ], [ -635597.163948636502028, 9311893.610883001238108 ], [ -635751.672445824020542, 9311918.082624854519963 ], [ -635891.056574782705866, 9311989.102385813370347 ], [ -636001.672445824020542, 9312099.718256855383515 ], [ -636072.692206784035079, 9312239.102385813370347 ], [ -636097.163948636502028, 9312393.610883001238108 ], [ -636072.692206784035079, 9312548.119380189105868 ], [ -636001.672445824020542, 9312687.5035091470927 ], [ -635891.056574782705866, 9312798.119380189105868 ], [ -635751.672445824020542, 9312869.139141147956252 ], [ -635597.163948636502028, 9312893.610883001238108 ], [ -635442.655451448983513, 9312869.139141147956252 ], [ -635303.271322490298189, 9312798.119380189105868 ], [ -635192.655451448983513, 9312687.5035091470927 ], [ -635121.635690488968976, 9312548.119380189105868 ], [ -635097.163948636502028, 9312393.610883001238108 ] ] ] ] } },
{ "type": "Feature", "properties": { "id": 14, "Point": "Alfamart Pluit" }, "geometry": { "type": "MultiPolygon", "coordinates": [ [ [ [ -635303.725398605223745, 9312453.393078621476889 ], [ -635328.197140457690693, 9312298.884581433609128 ], [ -635399.21690141770523, 9312159.500452475622296 ], [ -635509.832772459019907, 9312048.884581433609128 ], [ -635649.21690141770523, 9311977.864820474758744 ], [ -635803.725398605223745, 9311953.393078621476889 ], [ -635958.23389579274226, 9311977.864820474758744 ], [ -636097.618024751427583, 9312048.884581433609128 ], [ -636208.23389579274226, 9312159.500452475622296 ], [ -636279.253656752756797, 9312298.884581433609128 ], [ -636303.725398605223745, 9312453.393078621476889 ], [ -636279.253656752756797, 9312607.901575809344649 ], [ -636208.23389579274226, 9312747.285704767331481 ], [ -636097.618024751427583, 9312857.901575809344649 ], [ -635958.23389579274226, 9312928.921336768195033 ], [ -635803.725398605223745, 9312953.393078621476889 ], [ -635649.21690141770523, 9312928.921336768195033 ], [ -635509.832772459019907, 9312857.901575809344649 ], [ -635399.21690141770523, 9312747.285704767331481 ], [ -635328.197140457690693, 9312607.901575809344649 ], [ -635303.725398605223745, 9312453.393078621476889 ] ] ] ] } },
{ "type": "Feature", "properties": { "id": 15, "Point": "Alfamart Pluit" }, "geometry": { "type": "MultiPolygon", "coordinates": [ [ [ [ -635886.470605262089521, 9312608.719584155827761 ], [ -635910.942347114556469, 9312454.21108696796 ], [ -635981.962108074571006, 9312314.826958009973168 ], [ -636092.577979115885682, 9312204.21108696796 ], [ -636231.962108074571006, 9312133.191326009109616 ], [ -636386.470605262089521, 9312108.719584155827761 ], [ -636540.979102449608035, 9312133.191326009109616 ], [ -636680.363231408293359, 9312204.21108696796 ], [ -636790.979102449608035, 9312314.826958009973168 ], [ -636861.998863409622572, 9312454.21108696796 ], [ -636886.470605262089521, 9312608.719584155827761 ], [ -636861.998863409622572, 9312763.228081343695521 ], [ -636790.979102449608035, 9312902.612210301682353 ], [ -636680.363231408293359, 9313013.228081343695521 ], [ -636540.979102449608035, 9313084.247842302545905 ], [ -636386.470605262089521, 9313108.719584155827761 ], [ -636231.962108074571006, 9313084.247842302545905 ], [ -636092.577979115885682, 9313013.228081343695521 ], [ -635981.962108074571006, 9312902.612210301682353 ], [ -635910.942347114556469, 9312763.228081343695521 ], [ -635886.470605262089521, 9312608.719584155827761 ] ] ] ] } },
{ "type": "Feature", "properties": { "id": 16, "Point": "Alfamart Pluit" }, "geometry": { "type": "MultiPolygon", "coordinates": [ [ [ [ -635119.457451841328293, 9313152.81315254420042 ], [ -635143.929193693795241, 9312998.30465535633266 ], [ -635214.948954653809778, 9312858.920526398345828 ], [ -635325.564825695124455, 9312748.30465535633266 ], [ -635464.948954653809778, 9312677.284894397482276 ], [ -635619.457451841328293, 9312652.81315254420042 ], [ -635773.965949028846808, 9312677.284894397482276 ], [ -635913.350077987532131, 9312748.30465535633266 ], [ -636023.965949028846808, 9312858.920526398345828 ], [ -636094.985709988861345, 9312998.30465535633266 ], [ -636119.457451841328293, 9313152.81315254420042 ], [ -636094.985709988861345, 9313307.321649732068181 ], [ -636023.965949028846808, 9313446.705778690055013 ], [ -635913.350077987532131, 9313557.321649732068181 ], [ -635773.965949028846808, 9313628.341410690918565 ], [ -635619.457451841328293, 9313652.81315254420042 ], [ -635464.948954653809778, 9313628.341410690918565 ], [ -635325.564825695124455, 9313557.321649732068181 ], [ -635214.948954653809778, 9313446.705778690055013 ], [ -635143.929193693795241, 9313307.321649732068181 ], [ -635119.457451841328293, 9313152.81315254420042 ] ] ] ] } },
{ "type": "Feature", "properties": { "id": 17, "Point": "Alfamart Pluit" }, "geometry": { "type": "MultiPolygon", "coordinates": [ [ [ [ -636630.931251946603879, 9312406.87940414622426 ], [ -636655.402993799070828, 9312252.3709069583565 ], [ -636726.422754759085365, 9312112.986778000369668 ], [ -636837.038625800400041, 9312002.3709069583565 ], [ -636976.422754759085365, 9311931.351145999506116 ], [ -637130.931251946603879, 9311906.87940414622426 ], [ -637285.439749134122394, 9311931.351145999506116 ], [ -637424.823878092807718, 9312002.3709069583565 ], [ -637535.439749134122394, 9312112.986778000369668 ], [ -637606.459510094136931, 9312252.3709069583565 ], [ -637630.931251946603879, 9312406.87940414622426 ], [ -637606.459510094136931, 9312561.387901334092021 ], [ -637535.439749134122394, 9312700.772030292078853 ], [ -637424.823878092807718, 9312811.387901334092021 ], [ -637285.439749134122394, 9312882.407662292942405 ], [ -637130.931251946603879, 9312906.87940414622426 ], [ -636976.422754759085365, 9312882.407662292942405 ], [ -636837.038625800400041, 9312811.387901334092021 ], [ -636726.422754759085365, 9312700.772030292078853 ], [ -636655.402993799070828, 9312561.387901334092021 ], [ -636630.931251946603879, 9312406.87940414622426 ] ] ] ] } },
{ "type": "Feature", "properties": { "id": 18, "Point": "Alfamart Pluit" }, "geometry": { "type": "MultiPolygon", "coordinates": [ [ [ [ -636263.025499380426481, 9312993.111682401970029 ], [ -636287.49724123289343, 9312838.603185214102268 ], [ -636358.517002192907967, 9312699.219056256115437 ], [ -636469.132873234222643, 9312588.603185214102268 ], [ -636608.517002192907967, 9312517.583424255251884 ], [ -636763.025499380426481, 9312493.111682401970029 ], [ -636917.533996567944996, 9312517.583424255251884 ], [ -637056.91812552663032, 9312588.603185214102268 ], [ -637167.533996567944996, 9312699.219056256115437 ], [ -637238.553757527959533, 9312838.603185214102268 ], [ -637263.025499380426481, 9312993.111682401970029 ], [ -637238.553757527959533, 9313147.62017958983779 ], [ -637167.533996567944996, 9313287.004308547824621 ], [ -637056.91812552663032, 9313397.62017958983779 ], [ -636917.533996567944996, 9313468.639940548688173 ], [ -636763.025499380426481, 9313493.111682401970029 ], [ -636608.517002192907967, 9313468.639940548688173 ], [ -636469.132873234222643, 9313397.62017958983779 ], [ -636358.517002192907967, 9313287.004308547824621 ], [ -636287.49724123289343, 9313147.62017958983779 ], [ -636263.025499380426481, 9312993.111682401970029 ] ] ] ] } },
{ "type": "Feature", "properties": { "id": 19, "Point": "Alfamart Pluit" }, "geometry": { "type": "MultiPolygon", "coordinates": [ [ [ [ -636449.428409179439768, 9313032.245867369696498 ], [ -636473.900151031906717, 9312877.737370181828737 ], [ -636544.919911991921254, 9312738.353241223841906 ], [ -636655.53578303323593, 9312627.737370181828737 ], [ -636794.919911991921254, 9312556.717609222978354 ], [ -636949.428409179439768, 9312532.245867369696498 ], [ -637103.936906366958283, 9312556.717609222978354 ], [ -637243.321035325643606, 9312627.737370181828737 ], [ -637353.936906366958283, 9312738.353241223841906 ], [ -637424.95666732697282, 9312877.737370181828737 ], [ -637449.428409179439768, 9313032.245867369696498 ], [ -637424.95666732697282, 9313186.754364557564259 ], [ -637353.936906366958283, 9313326.13849351555109 ], [ -637243.321035325643606, 9313436.754364557564259 ], [ -637103.936906366958283, 9313507.774125516414642 ], [ -636949.428409179439768, 9313532.245867369696498 ], [ -636794.919911991921254, 9313507.774125516414642 ], [ -636655.53578303323593, 9313436.754364557564259 ], [ -636544.919911991921254, 9313326.13849351555109 ], [ -636473.900151031906717, 9313186.754364557564259 ], [ -636449.428409179439768, 9313032.245867369696498 ] ] ] ] } },
{ "type": "Feature", "properties": { "id": 20, "Point": "Alfamart Pluit" }, "geometry": { "type": "MultiPolygon", "coordinates": [ [ [ [ -636807.10975241009146, 9313030.108508188277483 ], [ -636831.581494262558408, 9312875.600011000409722 ], [ -636902.601255222572945, 9312736.215882042422891 ], [ -637013.217126263887621, 9312625.600011000409722 ], [ -637152.601255222572945, 9312554.580250041559339 ], [ -637307.10975241009146, 9312530.108508188277483 ], [ -637461.618249597609974, 9312554.580250041559339 ], [ -637601.002378556295298, 9312625.600011000409722 ], [ -637711.618249597609974, 9312736.215882042422891 ], [ -637782.638010557624511, 9312875.600011000409722 ], [ -637807.10975241009146, 9313030.108508188277483 ], [ -637782.638010557624511, 9313184.617005376145244 ], [ -637711.618249597609974, 9313324.001134334132075 ], [ -637601.002378556295298, 9313434.617005376145244 ], [ -637461.618249597609974, 9313505.636766334995627 ], [ -637307.10975241009146, 9313530.108508188277483 ], [ -637152.601255222572945, 9313505.636766334995627 ], [ -637013.217126263887621, 9313434.617005376145244 ], [ -636902.601255222572945, 9313324.001134334132075 ], [ -636831.581494262558408, 9313184.617005376145244 ], [ -636807.10975241009146, 9313030.108508188277483 ] ] ] ] } },
{ "type": "Feature", "properties": { "id": 21, "Point": "Alfamart Pluit" }, "geometry": { "type": "MultiPolygon", "coordinates": [ [ [ [ -636134.66042715171352, 9313120.598909635096788 ], [ -636159.132169004180469, 9312966.090412447229028 ], [ -636230.151929964195006, 9312826.706283489242196 ], [ -636340.767801005509682, 9312716.090412447229028 ], [ -636480.151929964195006, 9312645.070651488378644 ], [ -636634.66042715171352, 9312620.598909635096788 ], [ -636789.168924339232035, 9312645.070651488378644 ], [ -636928.553053297917359, 9312716.090412447229028 ], [ -637039.168924339232035, 9312826.706283489242196 ], [ -637110.188685299246572, 9312966.090412447229028 ], [ -637134.66042715171352, 9313120.598909635096788 ], [ -637110.188685299246572, 9313275.107406822964549 ], [ -637039.168924339232035, 9313414.491535780951381 ], [ -636928.553053297917359, 9313525.107406822964549 ], [ -636789.168924339232035, 9313596.127167781814933 ], [ -636634.66042715171352, 9313620.598909635096788 ], [ -636480.151929964195006, 9313596.127167781814933 ], [ -636340.767801005509682, 9313525.107406822964549 ], [ -636230.151929964195006, 9313414.491535780951381 ], [ -636159.132169004180469, 9313275.107406822964549 ], [ -636134.66042715171352, 9313120.598909635096788 ] ] ] ] } },
{ "type": "Feature", "properties": { "id": 22, "Point": "Alfamart Pluit" }, "geometry": { "type": "MultiPolygon", "coordinates": [ [ [ [ -636451.596383967669681, 9313284.26257705502212 ], [ -636476.068125820136629, 9313129.75407986715436 ], [ -636547.087886780151166, 9312990.369950909167528 ], [ -636657.703757821465842, 9312879.75407986715436 ], [ -636797.087886780151166, 9312808.734318908303976 ], [ -636951.596383967669681, 9312784.26257705502212 ], [ -637106.104881155188195, 9312808.734318908303976 ], [ -637245.489010113873519, 9312879.75407986715436 ], [ -637356.104881155188195, 9312990.369950909167528 ], [ -637427.124642115202732, 9313129.75407986715436 ], [ -637451.596383967669681, 9313284.26257705502212 ], [ -637427.124642115202732, 9313438.771074242889881 ], [ -637356.104881155188195, 9313578.155203200876713 ], [ -637245.489010113873519, 9313688.771074242889881 ], [ -637106.104881155188195, 9313759.790835201740265 ], [ -636951.596383967669681, 9313784.26257705502212 ], [ -636797.087886780151166, 9313759.790835201740265 ], [ -636657.703757821465842, 9313688.771074242889881 ], [ -636547.087886780151166, 9313578.155203200876713 ], [ -636476.068125820136629, 9313438.771074242889881 ], [ -636451.596383967669681, 9313284.26257705502212 ] ] ] ] } },
{ "type": "Feature", "properties": { "id": 23, "Point": "Alfamart Pluit" }, "geometry": { "type": "MultiPolygon", "coordinates": [ [ [ [ -636345.398811878170818, 9313565.161725547164679 ], [ -636369.870553730637766, 9313410.653228359296918 ], [ -636440.890314690652303, 9313271.269099401310086 ], [ -636551.50618573196698, 9313160.653228359296918 ], [ -636690.890314690652303, 9313089.633467400446534 ], [ -636845.398811878170818, 9313065.161725547164679 ], [ -636999.907309065689333, 9313089.633467400446534 ], [ -637139.291438024374656, 9313160.653228359296918 ], [ -637249.907309065689333, 9313271.269099401310086 ], [ -637320.92707002570387, 9313410.653228359296918 ], [ -637345.398811878170818, 9313565.161725547164679 ], [ -637320.92707002570387, 9313719.670222735032439 ], [ -637249.907309065689333, 9313859.054351693019271 ], [ -637139.291438024374656, 9313969.670222735032439 ], [ -636999.907309065689333, 9314040.689983693882823 ], [ -636845.398811878170818, 9314065.161725547164679 ], [ -636690.890314690652303, 9314040.689983693882823 ], [ -636551.50618573196698, 9313969.670222735032439 ], [ -636440.890314690652303, 9313859.054351693019271 ], [ -636369.870553730637766, 9313719.670222735032439 ], [ -636345.398811878170818, 9313565.161725547164679 ] ] ] ] } },
{ "type": "Feature", "properties": { "id": 24, "Point": "Alfamart Pluit" }, "geometry": { "type": "MultiPolygon", "coordinates": [ [ [ [ -636164.335678985342383, 9313645.117059791460633 ], [ -636188.807420837809332, 9313490.608562603592873 ], [ -636259.827181797823869, 9313351.224433645606041 ], [ -636370.443052839138545, 9313240.608562603592873 ], [ -636509.827181797823869, 9313169.588801644742489 ], [ -636664.335678985342383, 9313145.117059791460633 ], [ -636818.844176172860898, 9313169.588801644742489 ], [ -636958.228305131546222, 9313240.608562603592873 ], [ -637068.844176172860898, 9313351.224433645606041 ], [ -637139.863937132875435, 9313490.608562603592873 ], [ -637164.335678985342383, 9313645.117059791460633 ], [ -637139.863937132875435, 9313799.625556979328394 ], [ -637068.844176172860898, 9313939.009685937315226 ], [ -636958.228305131546222, 9314049.625556979328394 ], [ -636818.844176172860898, 9314120.645317938178778 ], [ -636664.335678985342383, 9314145.117059791460633 ], [ -636509.827181797823869, 9314120.645317938178778 ], [ -636370.443052839138545, 9314049.625556979328394 ], [ -636259.827181797823869, 9313939.009685937315226 ], [ -636188.807420837809332, 9313799.625556979328394 ], [ -636164.335678985342383, 9313645.117059791460633 ] ] ] ] } },
{ "type": "Feature", "properties": { "id": 25, "Point": "Alfamart Pluit" }, "geometry": { "type": "MultiPolygon", "coordinates": [ [ [ [ -636447.614586442243308, 9313949.6123037468642 ], [ -636472.086328294710256, 9313795.103806558996439 ], [ -636543.106089254724793, 9313655.719677601009607 ], [ -636653.72196029603947, 9313545.103806558996439 ], [ -636793.106089254724793, 9313474.084045600146055 ], [ -636947.614586442243308, 9313449.6123037468642 ], [ -637102.123083629761823, 9313474.084045600146055 ], [ -637241.507212588447146, 9313545.103806558996439 ], [ -637352.123083629761823, 9313655.719677601009607 ], [ -637423.142844589776359, 9313795.103806558996439 ], [ -637447.614586442243308, 9313949.6123037468642 ], [ -637423.142844589776359, 9314104.12080093473196 ], [ -637352.123083629761823, 9314243.504929892718792 ], [ -637241.507212588447146, 9314354.12080093473196 ], [ -637102.123083629761823, 9314425.140561893582344 ], [ -636947.614586442243308, 9314449.6123037468642 ], [ -636793.106089254724793, 9314425.140561893582344 ], [ -636653.72196029603947, 9314354.12080093473196 ], [ -636543.106089254724793, 9314243.504929892718792 ], [ -636472.086328294710256, 9314104.12080093473196 ], [ -636447.614586442243308, 9313949.6123037468642 ] ] ] ] } },
{ "type": "Feature", "properties": { "id": 26, "Point": "Alfamart Pluit" }, "geometry": { "type": "MultiPolygon", "coordinates": [ [ [ [ -636937.496054909424856, 9313570.04987346380949 ], [ -636961.967796761891805, 9313415.54137627594173 ], [ -637032.987557721906342, 9313276.157247317954898 ], [ -637143.603428763221018, 9313165.54137627594173 ], [ -637282.987557721906342, 9313094.521615317091346 ], [ -637437.496054909424856, 9313070.04987346380949 ], [ -637592.004552096943371, 9313094.521615317091346 ], [ -637731.388681055628695, 9313165.54137627594173 ], [ -637842.004552096943371, 9313276.157247317954898 ], [ -637913.024313056957908, 9313415.54137627594173 ], [ -637937.496054909424856, 9313570.04987346380949 ], [ -637913.024313056957908, 9313724.558370651677251 ], [ -637842.004552096943371, 9313863.942499609664083 ], [ -637731.388681055628695, 9313974.558370651677251 ], [ -637592.004552096943371, 9314045.578131610527635 ], [ -637437.496054909424856, 9314070.04987346380949 ], [ -637282.987557721906342, 9314045.578131610527635 ], [ -637143.603428763221018, 9313974.558370651677251 ], [ -637032.987557721906342, 9313863.942499609664083 ], [ -636961.967796761891805, 9313724.558370651677251 ], [ -636937.496054909424856, 9313570.04987346380949 ] ] ] ] } },
{ "type": "Feature", "properties": { "id": 27, "Point": "Alfamart Kapuk Muara" }, "geometry": { "type": "MultiPolygon", "coordinates": [ [ [ [ -638709.998728473670781, 9312045.345239650458097 ], [ -638734.470470326137729, 9311890.836742462590337 ], [ -638805.490231286152266, 9311751.452613504603505 ], [ -638916.106102327466942, 9311640.836742462590337 ], [ -639055.490231286152266, 9311569.816981503739953 ], [ -639209.998728473670781, 9311545.345239650458097 ], [ -639364.507225661189295, 9311569.816981503739953 ], [ -639503.891354619874619, 9311640.836742462590337 ], [ -639614.507225661189295, 9311751.452613504603505 ], [ -639685.526986621203832, 9311890.836742462590337 ], [ -639709.998728473670781, 9312045.345239650458097 ], [ -639685.526986621203832, 9312199.853736838325858 ], [ -639614.507225661189295, 9312339.23786579631269 ], [ -639503.891354619874619, 9312449.853736838325858 ], [ -639364.507225661189295, 9312520.873497797176242 ], [ -639209.998728473670781, 9312545.345239650458097 ], [ -639055.490231286152266, 9312520.873497797176242 ], [ -638916.106102327466942, 9312449.853736838325858 ], [ -638805.490231286152266, 9312339.23786579631269 ], [ -638734.470470326137729, 9312199.853736838325858 ], [ -638709.998728473670781, 9312045.345239650458097 ] ] ] ] } },
{ "type": "Feature", "properties": { "id": 28, "Point": "Alfamart Kapuk Muara" }, "geometry": { "type": "MultiPolygon", "coordinates": [ [ [ [ -638953.417916322592646, 9312047.9582490157336 ], [ -638977.889658175059594, 9311893.449751827865839 ], [ -639048.909419135074131, 9311754.065622869879007 ], [ -639159.525290176388808, 9311643.449751827865839 ], [ -639298.909419135074131, 9311572.429990869015455 ], [ -639453.417916322592646, 9311547.9582490157336 ], [ -639607.926413510111161, 9311572.429990869015455 ], [ -639747.310542468796484, 9311643.449751827865839 ], [ -639857.926413510111161, 9311754.065622869879007 ], [ -639928.946174470125698, 9311893.449751827865839 ], [ -639953.417916322592646, 9312047.9582490157336 ], [ -639928.946174470125698, 9312202.46674620360136 ], [ -639857.926413510111161, 9312341.850875161588192 ], [ -639747.310542468796484, 9312452.46674620360136 ], [ -639607.926413510111161, 9312523.486507162451744 ], [ -639453.417916322592646, 9312547.9582490157336 ], [ -639298.909419135074131, 9312523.486507162451744 ], [ -639159.525290176388808, 9312452.46674620360136 ], [ -639048.909419135074131, 9312341.850875161588192 ], [ -638977.889658175059594, 9312202.46674620360136 ], [ -638953.417916322592646, 9312047.9582490157336 ] ] ] ] } },
{ "type": "Feature", "properties": { "id": 29, "Point": "Alfamart Kamal Muara" }, "geometry": { "type": "MultiPolygon", "coordinates": [ [ [ [ -639870.625976546201855, 9312063.506174327805638 ], [ -639895.097718398668803, 9311908.997677139937878 ], [ -639966.11747935868334, 9311769.613548181951046 ], [ -640076.733350399998017, 9311658.997677139937878 ], [ -640216.11747935868334, 9311587.977916181087494 ], [ -640370.625976546201855, 9311563.506174327805638 ], [ -640525.13447373372037, 9311587.977916181087494 ], [ -640664.518602692405693, 9311658.997677139937878 ], [ -640775.13447373372037, 9311769.613548181951046 ], [ -640846.154234693734907, 9311908.997677139937878 ], [ -640870.625976546201855, 9312063.506174327805638 ], [ -640846.154234693734907, 9312218.014671515673399 ], [ -640775.13447373372037, 9312357.398800473660231 ], [ -640664.518602692405693, 9312468.014671515673399 ], [ -640525.13447373372037, 9312539.034432474523783 ], [ -640370.625976546201855, 9312563.506174327805638 ], [ -640216.11747935868334, 9312539.034432474523783 ], [ -640076.733350399998017, 9312468.014671515673399 ], [ -639966.11747935868334, 9312357.398800473660231 ], [ -639895.097718398668803, 9312218.014671515673399 ], [ -639870.625976546201855, 9312063.506174327805638 ] ] ] ] } },
{ "type": "Feature", "properties": { "id": 30, "Point": "Alfamart Kamal Muara" }, "geometry": { "type": "MultiPolygon", "coordinates": [ [ [ [ -640706.777557748369873, 9312159.14380850084126 ], [ -640731.249299600836821, 9312004.635311312973499 ], [ -640802.269060560851358, 9311865.251182354986668 ], [ -640912.884931602166034, 9311754.635311312973499 ], [ -641052.269060560851358, 9311683.615550354123116 ], [ -641206.777557748369873, 9311659.14380850084126 ], [ -641361.286054935888387, 9311683.615550354123116 ], [ -641500.670183894573711, 9311754.635311312973499 ], [ -641611.286054935888387, 9311865.251182354986668 ], [ -641682.305815895902924, 9312004.635311312973499 ], [ -641706.777557748369873, 9312159.14380850084126 ], [ -641682.305815895902924, 9312313.652305688709021 ], [ -641611.286054935888387, 9312453.036434646695852 ], [ -641500.670183894573711, 9312563.652305688709021 ], [ -641361.286054935888387, 9312634.672066647559404 ], [ -641206.777557748369873, 9312659.14380850084126 ], [ -641052.269060560851358, 9312634.672066647559404 ], [ -640912.884931602166034, 9312563.652305688709021 ], [ -640802.269060560851358, 9312453.036434646695852 ], [ -640731.249299600836821, 9312313.652305688709021 ], [ -640706.777557748369873, 9312159.14380850084126 ] ] ] ] } },
{ "type": "Feature", "properties": { "id": 31, "Point": "Alfamart Kamal Muara" }, "geometry": { "type": "MultiPolygon", "coordinates": [ [ [ [ -639765.084650134202093, 9313372.004379034042358 ], [ -639789.556391986669041, 9313217.495881846174598 ], [ -639860.576152946683578, 9313078.111752888187766 ], [ -639971.192023987998255, 9312967.495881846174598 ], [ -640110.576152946683578, 9312896.476120887324214 ], [ -640265.084650134202093, 9312872.004379034042358 ], [ -640419.593147321720608, 9312896.476120887324214 ], [ -640558.977276280405931, 9312967.495881846174598 ], [ -640669.593147321720608, 9313078.111752888187766 ], [ -640740.612908281735145, 9313217.495881846174598 ], [ -640765.084650134202093, 9313372.004379034042358 ], [ -640740.612908281735145, 9313526.512876221910119 ], [ -640669.593147321720608, 9313665.897005179896951 ], [ -640558.977276280405931, 9313776.512876221910119 ], [ -640419.593147321720608, 9313847.532637180760503 ], [ -640265.084650134202093, 9313872.004379034042358 ], [ -640110.576152946683578, 9313847.532637180760503 ], [ -639971.192023987998255, 9313776.512876221910119 ], [ -639860.576152946683578, 9313665.897005179896951 ], [ -639789.556391986669041, 9313526.512876221910119 ], [ -639765.084650134202093, 9313372.004379034042358 ] ] ] ] } },
{ "type": "Feature", "properties": { "id": 32, "Point": "Alfamart Kamal Muara" }, "geometry": { "type": "MultiPolygon", "coordinates": [ [ [ [ -640633.667740287724882, 9313619.223376100882888 ], [ -640658.139482140191831, 9313464.714878913015127 ], [ -640729.159243100206368, 9313325.330749955028296 ], [ -640839.775114141521044, 9313214.714878913015127 ], [ -640979.159243100206368, 9313143.695117954164743 ], [ -641133.667740287724882, 9313119.223376100882888 ], [ -641288.176237475243397, 9313143.695117954164743 ], [ -641427.560366433928721, 9313214.714878913015127 ], [ -641538.176237475243397, 9313325.330749955028296 ], [ -641609.195998435257934, 9313464.714878913015127 ], [ -641633.667740287724882, 9313619.223376100882888 ], [ -641609.195998435257934, 9313773.731873288750648 ], [ -641538.176237475243397, 9313913.11600224673748 ], [ -641427.560366433928721, 9314023.731873288750648 ], [ -641288.176237475243397, 9314094.751634247601032 ], [ -641133.667740287724882, 9314119.223376100882888 ], [ -640979.159243100206368, 9314094.751634247601032 ], [ -640839.775114141521044, 9314023.731873288750648 ], [ -640729.159243100206368, 9313913.11600224673748 ], [ -640658.139482140191831, 9313773.731873288750648 ], [ -640633.667740287724882, 9313619.223376100882888 ] ] ] ] } },
{ "type": "Feature", "properties": { "id": 33, "Point": "Alfamart Kamal Muara" }, "geometry": { "type": "MultiPolygon", "coordinates": [ [ [ [ -640748.709098007297143, 9314329.618779307231307 ], [ -640773.180839859764092, 9314175.110282119363546 ], [ -640844.200600819778629, 9314035.726153161376715 ], [ -640954.816471861093305, 9313925.110282119363546 ], [ -641094.200600819778629, 9313854.090521160513163 ], [ -641248.709098007297143, 9313829.618779307231307 ], [ -641403.217595194815658, 9313854.090521160513163 ], [ -641542.601724153500982, 9313925.110282119363546 ], [ -641653.217595194815658, 9314035.726153161376715 ], [ -641724.237356154830195, 9314175.110282119363546 ], [ -641748.709098007297143, 9314329.618779307231307 ], [ -641724.237356154830195, 9314484.127276495099068 ], [ -641653.217595194815658, 9314623.511405453085899 ], [ -641542.601724153500982, 9314734.127276495099068 ], [ -641403.217595194815658, 9314805.147037453949451 ], [ -641248.709098007297143, 9314829.618779307231307 ], [ -641094.200600819778629, 9314805.147037453949451 ], [ -640954.816471861093305, 9314734.127276495099068 ], [ -640844.200600819778629, 9314623.511405453085899 ], [ -640773.180839859764092, 9314484.127276495099068 ], [ -640748.709098007297143, 9314329.618779307231307 ] ] ] ] } },
{ "type": "Feature", "properties": { "id": 34, "Point": "Alfamart Kamal Muara" }, "geometry": { "type": "MultiPolygon", "coordinates": [ [ [ [ -640637.753846067469567, 9314269.559979747980833 ], [ -640662.225587919936515, 9314115.051482560113072 ], [ -640733.245348879951052, 9313975.667353602126241 ], [ -640843.861219921265729, 9313865.051482560113072 ], [ -640983.245348879951052, 9313794.031721601262689 ], [ -641137.753846067469567, 9313769.559979747980833 ], [ -641292.262343254988082, 9313794.031721601262689 ], [ -641431.646472213673405, 9313865.051482560113072 ], [ -641542.262343254988082, 9313975.667353602126241 ], [ -641613.282104215002619, 9314115.051482560113072 ], [ -641637.753846067469567, 9314269.559979747980833 ], [ -641613.282104215002619, 9314424.068476935848594 ], [ -641542.262343254988082, 9314563.452605893835425 ], [ -641431.646472213673405, 9314674.068476935848594 ], [ -641292.262343254988082, 9314745.088237894698977 ], [ -641137.753846067469567, 9314769.559979747980833 ], [ -640983.245348879951052, 9314745.088237894698977 ], [ -640843.861219921265729, 9314674.068476935848594 ], [ -640733.245348879951052, 9314563.452605893835425 ], [ -640662.225587919936515, 9314424.068476935848594 ], [ -640637.753846067469567, 9314269.559979747980833 ] ] ] ] } },
{ "type": "Feature", "properties": { "id": 35, "Point": "Alfamart Kapuk Muara" }, "geometry": { "type": "MultiPolygon", "coordinates": [ [ [ [ -636960.68621931085363, 9310595.921369776129723 ], [ -636985.157961163320579, 9310441.412872588261962 ], [ -637056.177722123335116, 9310302.02874363027513 ], [ -637166.793593164649792, 9310191.412872588261962 ], [ -637306.177722123335116, 9310120.393111629411578 ], [ -637460.68621931085363, 9310095.921369776129723 ], [ -637615.194716498372145, 9310120.393111629411578 ], [ -637754.578845457057469, 9310191.412872588261962 ], [ -637865.194716498372145, 9310302.02874363027513 ], [ -637936.214477458386682, 9310441.412872588261962 ], [ -637960.68621931085363, 9310595.921369776129723 ], [ -637936.214477458386682, 9310750.429866963997483 ], [ -637865.194716498372145, 9310889.813995921984315 ], [ -637754.578845457057469, 9311000.429866963997483 ], [ -637615.194716498372145, 9311071.449627922847867 ], [ -637460.68621931085363, 9311095.921369776129723 ], [ -637306.177722123335116, 9311071.449627922847867 ], [ -637166.793593164649792, 9311000.429866963997483 ], [ -637056.177722123335116, 9310889.813995921984315 ], [ -636985.157961163320579, 9310750.429866963997483 ], [ -636960.68621931085363, 9310595.921369776129723 ] ] ] ] } },
{ "type": "Feature", "properties": { "id": 36, "Point": "Alfamart Kamal Muara" }, "geometry": { "type": "MultiPolygon", "coordinates": [ [ [ [ -640118.768873204477131, 9311411.40076575614512 ], [ -640143.24061505694408, 9311256.892268568277359 ], [ -640214.260376016958617, 9311117.508139610290527 ], [ -640324.876247058273293, 9311006.892268568277359 ], [ -640464.260376016958617, 9310935.872507609426975 ], [ -640618.768873204477131, 9310911.40076575614512 ], [ -640773.277370391995646, 9310935.872507609426975 ], [ -640912.66149935068097, 9311006.892268568277359 ], [ -641023.277370391995646, 9311117.508139610290527 ], [ -641094.297131352010183, 9311256.892268568277359 ], [ -641118.768873204477131, 9311411.40076575614512 ], [ -641094.297131352010183, 9311565.90926294401288 ], [ -641023.277370391995646, 9311705.293391901999712 ], [ -640912.66149935068097, 9311815.90926294401288 ], [ -640773.277370391995646, 9311886.929023902863264 ], [ -640618.768873204477131, 9311911.40076575614512 ], [ -640464.260376016958617, 9311886.929023902863264 ], [ -640324.876247058273293, 9311815.90926294401288 ], [ -640214.260376016958617, 9311705.293391901999712 ], [ -640143.24061505694408, 9311565.90926294401288 ], [ -640118.768873204477131, 9311411.40076575614512 ] ] ] ] } },
{ "type": "Feature", "properties": { "id": 37, "Point": "Alfamart Pejagalan" }, "geometry": { "type": "MultiPolygon", "coordinates": [ [ [ [ -636564.609117516083643, 9311394.700065584853292 ], [ -636589.080859368550591, 9311240.191568396985531 ], [ -636660.100620328565128, 9311100.807439438998699 ], [ -636770.716491369879805, 9310990.191568396985531 ], [ -636910.100620328565128, 9310919.171807438135147 ], [ -637064.609117516083643, 9310894.700065584853292 ], [ -637219.117614703602158, 9310919.171807438135147 ], [ -637358.501743662287481, 9310990.191568396985531 ], [ -637469.117614703602158, 9311100.807439438998699 ], [ -637540.137375663616695, 9311240.191568396985531 ], [ -637564.609117516083643, 9311394.700065584853292 ], [ -637540.137375663616695, 9311549.208562772721052 ], [ -637469.117614703602158, 9311688.592691730707884 ], [ -637358.501743662287481, 9311799.208562772721052 ], [ -637219.117614703602158, 9311870.228323731571436 ], [ -637064.609117516083643, 9311894.700065584853292 ], [ -636910.100620328565128, 9311870.228323731571436 ], [ -636770.716491369879805, 9311799.208562772721052 ], [ -636660.100620328565128, 9311688.592691730707884 ], [ -636589.080859368550591, 9311549.208562772721052 ], [ -636564.609117516083643, 9311394.700065584853292 ] ] ] ] } },
{ "type": "Feature", "properties": { "id": 38, "Point": "Alfamart Pejagalan" }, "geometry": { "type": "MultiPolygon", "coordinates": [ [ [ [ -636202.269769724458456, 9311183.602967100217938 ], [ -636226.741511576925404, 9311029.094469912350178 ], [ -636297.761272536939941, 9310889.710340954363346 ], [ -636408.377143578254618, 9310779.094469912350178 ], [ -636547.761272536939941, 9310708.074708953499794 ], [ -636702.269769724458456, 9310683.602967100217938 ], [ -636856.778266911976971, 9310708.074708953499794 ], [ -636996.162395870662294, 9310779.094469912350178 ], [ -637106.778266911976971, 9310889.710340954363346 ], [ -637177.798027871991508, 9311029.094469912350178 ], [ -637202.269769724458456, 9311183.602967100217938 ], [ -637177.798027871991508, 9311338.111464288085699 ], [ -637106.778266911976971, 9311477.495593246072531 ], [ -636996.162395870662294, 9311588.111464288085699 ], [ -636856.778266911976971, 9311659.131225246936083 ], [ -636702.269769724458456, 9311683.602967100217938 ], [ -636547.761272536939941, 9311659.131225246936083 ], [ -636408.377143578254618, 9311588.111464288085699 ], [ -636297.761272536939941, 9311477.495593246072531 ], [ -636226.741511576925404, 9311338.111464288085699 ], [ -636202.269769724458456, 9311183.602967100217938 ] ] ] ] } },
{ "type": "Feature", "properties": { "id": 40, "Point": "Alfamart Pejagalan" }, "geometry": { "type": "MultiPolygon", "coordinates": [ [ [ [ -636455.818191904807463, 9310603.813549865037203 ], [ -636480.289933757274412, 9310449.305052677169442 ], [ -636551.309694717288949, 9310309.920923719182611 ], [ -636661.925565758603625, 9310199.305052677169442 ], [ -636801.309694717288949, 9310128.285291718319058 ], [ -636955.818191904807463, 9310103.813549865037203 ], [ -637110.326689092325978, 9310128.285291718319058 ], [ -637249.710818051011302, 9310199.305052677169442 ], [ -637360.326689092325978, 9310309.920923719182611 ], [ -637431.346450052340515, 9310449.305052677169442 ], [ -637455.818191904807463, 9310603.813549865037203 ], [ -637431.346450052340515, 9310758.322047052904963 ], [ -637360.326689092325978, 9310897.706176010891795 ], [ -637249.710818051011302, 9311008.322047052904963 ], [ -637110.326689092325978, 9311079.341808011755347 ], [ -636955.818191904807463, 9311103.813549865037203 ], [ -636801.309694717288949, 9311079.341808011755347 ], [ -636661.925565758603625, 9311008.322047052904963 ], [ -636551.309694717288949, 9310897.706176010891795 ], [ -636480.289933757274412, 9310758.322047052904963 ], [ -636455.818191904807463, 9310603.813549865037203 ] ] ] ] } }
]
}
