{
"type": "FeatureCollection",
"name": "Buffer Indomaret & Alfamart",
"crs": { "type": "name", "properties": { "name": "urn:ogc:def:crs:EPSG::32750" } },
"features": [
{ "type": "Feature", "properties": { "id": 1 }, "geometry": { "type": "MultiPolygon", "coordinates": [ [ [ [ -640099.238210969488136, 9310509.134996585547924 ], [ -640238.62233992817346, 9310580.154757544398308 ], [ -640349.238210969488136, 9310690.770628586411476 ], [ -640420.257971929502673, 9310830.154757544398308 ], [ -640439.185255061835051, 9310949.656920090317726 ], [ -640464.483894156641327, 9310936.766619633883238 ], [ -640618.992391344159842, 9310912.294877780601382 ], [ -640773.500888531678356, 9310936.766619633883238 ], [ -640912.88501749036368, 9311007.786380592733622 ], [ -641023.500888531678356, 9311118.40225163474679 ], [ -641094.520649491692893, 9311257.786380592733622 ], [ -641118.992391344159842, 9311412.294877780601382 ], [ -641094.520649491692893, 9311566.803374968469143 ], [ -641046.165011000819504, 9311661.706659071147442 ], [ -641073.664111163350753, 9311647.695167699828744 ], [ -641228.172608350869268, 9311623.223425846546888 ], [ -641382.681105538387783, 9311647.695167699828744 ], [ -641522.065234497073106, 9311718.714928658679128 ], [ -641632.681105538387783, 9311829.330799700692296 ], [ -641703.70086649840232, 9311968.714928658679128 ], [ -641728.172608350869268, 9312123.223425846546888 ], [ -641703.70086649840232, 9312277.731923034414649 ], [ -641632.681105538387783, 9312417.116051992401481 ], [ -641626.172937201568857, 9312423.624220328405499 ], [ -641611.316062797908671, 9312452.782478112727404 ], [ -641500.700191756593995, 9312563.398349154740572 ], [ -641361.316062797908671, 9312634.418110113590956 ], [ -641206.807565610390157, 9312658.889851966872811 ], [ -641052.299068422871642, 9312634.418110113590956 ], [ -640912.914939464186318, 9312563.398349154740572 ], [ -640871.882590530090965, 9312522.366000220179558 ], [ -640812.802359025343321, 9312552.468881733715534 ], [ -640658.293861837824807, 9312576.94062358699739 ], [ -640503.785364650306292, 9312552.468881733715534 ], [ -640490.925472581875511, 9312545.916439447551966 ], [ -640371.366282188566402, 9312564.852754903957248 ], [ -640216.857785001047887, 9312540.381013050675392 ], [ -640077.473656042362563, 9312469.361252091825008 ], [ -639966.857785001047887, 9312358.74538104981184 ], [ -639908.024251275113784, 9312243.278069684281945 ], [ -639858.130689530516975, 9312341.199698120355606 ], [ -639747.514818489202298, 9312451.815569162368774 ], [ -639608.130689530516975, 9312522.835330121219158 ], [ -639453.62219234299846, 9312547.307071974501014 ], [ -639434.261990596074611, 9312544.240717256441712 ], [ -639409.533166486304253, 9312548.157378222793341 ], [ -639293.547232979210094, 9312529.787011059001088 ], [ -639208.758904014946893, 9312543.216163087636232 ], [ -639054.250406827428378, 9312518.744421234354377 ], [ -638914.866277868743055, 9312447.724660275503993 ], [ -638804.250406827428378, 9312337.108789233490825 ], [ -638733.230645867413841, 9312197.724660275503993 ], [ -638708.758904014946893, 9312043.216163087636232 ], [ -638733.230645867413841, 9311888.707665899768472 ], [ -638804.250406827428378, 9311749.32353694178164 ], [ -638914.866277868743055, 9311638.707665899768472 ], [ -639054.250406827428378, 9311567.687904940918088 ], [ -639208.758904014946893, 9311543.216163087636232 ], [ -639324.744837522041053, 9311561.586530251428485 ], [ -639409.533166486304253, 9311548.157378222793341 ], [ -639428.893368233228102, 9311551.223732940852642 ], [ -639453.62219234299846, 9311547.307071974501014 ], [ -639608.130689530516975, 9311571.778813827782869 ], [ -639747.514818489202298, 9311642.798574786633253 ], [ -639858.130689530516975, 9311753.414445828646421 ], [ -639916.964223256451078, 9311868.881757194176316 ], [ -639966.857785001047887, 9311770.960128758102655 ], [ -640077.473656042362563, 9311660.344257716089487 ], [ -640167.701091157272458, 9311614.371083283796906 ], [ -640143.46413319662679, 9311566.803374968469143 ], [ -640124.536850064294413, 9311447.301212422549725 ], [ -640099.238210969488136, 9311460.191512878984213 ], [ -639944.729713781969622, 9311484.663254732266068 ], [ -639790.221216594451107, 9311460.191512878984213 ], [ -639650.837087635765783, 9311389.171751920133829 ], [ -639540.221216594451107, 9311278.555880878120661 ], [ -639469.20145563443657, 9311139.171751920133829 ], [ -639444.729713781969622, 9310984.663254732266068 ], [ -639469.20145563443657, 9310830.154757544398308 ], [ -639540.221216594451107, 9310690.770628586411476 ], [ -639650.837087635765783, 9310580.154757544398308 ], [ -639790.221216594451107, 9310509.134996585547924 ], [ -639944.729713781969622, 9310484.663254732266068 ], [ -640099.238210969488136, 9310509.134996585547924 ] ] ], [ [ [ -638498.789818821125664, 9311270.297143671661615 ], [ -638609.40568986244034, 9311380.913014713674784 ], [ -638680.425450822454877, 9311520.297143671661615 ], [ -638704.897192674921826, 9311674.805640859529376 ], [ -638680.425450822454877, 9311829.314138047397137 ], [ -638609.40568986244034, 9311968.698267005383968 ], [ -638498.789818821125664, 9312079.314138047397137 ], [ -638359.40568986244034, 9312150.33389900624752 ], [ -638204.897192674921826, 9312174.805640859529376 ], [ -638050.388695487403311, 9312150.33389900624752 ], [ -637911.004566528717987, 9312079.314138047397137 ], [ -637800.388695487403311, 9311968.698267005383968 ], [ -637729.368934527388774, 9311829.314138047397137 ], [ -637704.897192674921826, 9311674.805640859529376 ], [ -637729.368934527388774, 9311520.297143671661615 ], [ -637800.388695487403311, 9311380.913014713674784 ], [ -637911.004566528717987, 9311270.297143671661615 ], [ -638050.388695487403311, 9311199.277382712811232 ], [ -638204.897192674921826, 9311174.805640859529376 ], [ -638359.40568986244034, 9311199.277382712811232 ], [ -638498.789818821125664, 9311270.297143671661615 ] ] ], [ [ [ -641958.881701278849505, 9312897.352760786190629 ], [ -642069.497572320164181, 9313007.968631828203797 ], [ -642140.517333280178718, 9313147.352760786190629 ], [ -642164.989075132645667, 9313301.86125797405839 ], [ -642140.517333280178718, 9313456.36975516192615 ], [ -642069.497572320164181, 9313595.753884119912982 ], [ -641958.881701278849505, 9313706.36975516192615 ], [ -641856.122673436882906, 9313758.728095011785626 ], [ -641852.308246110216714, 9313766.214330155402422 ], [ -641843.242165307630785, 9313823.455311555415392 ], [ -641776.938993352581747, 9313953.582613382488489 ], [ -641801.158035211963579, 9314106.495625605806708 ], [ -641778.453456588555127, 9314249.846693279221654 ], [ -641812.329223357490264, 9314283.722460048273206 ], [ -641883.348984317504801, 9314423.106589006260037 ], [ -641907.820726169971749, 9314577.615086194127798 ], [ -641883.348984317504801, 9314732.123583381995559 ], [ -641812.329223357490264, 9314871.50771233998239 ], [ -641701.713352316175587, 9314982.123583381995559 ], [ -641562.329223357490264, 9315053.143344340845942 ], [ -641407.820726169971749, 9315077.615086194127798 ], [ -641253.312228982453234, 9315053.143344340845942 ], [ -641113.928100023767911, 9314982.123583381995559 ], [ -641078.80026160122361, 9314946.995744958519936 ], [ -640960.336978936451487, 9314928.233004234731197 ], [ -640820.952849977766164, 9314857.213243275880814 ], [ -640710.336978936451487, 9314746.597372233867645 ], [ -640639.31721797643695, 9314607.213243275880814 ], [ -640614.845476123970002, 9314452.704746088013053 ], [ -640639.31721797643695, 9314298.196248900145292 ], [ -640640.900847259326838, 9314295.088201433420181 ], [ -640636.658792604925111, 9314268.304922433570027 ], [ -640661.130534457392059, 9314113.796425245702267 ], [ -640732.150295417406596, 9313974.412296287715435 ], [ -640752.839606227120385, 9313953.722985478118062 ], [ -640659.350832875235938, 9314001.35789474286139 ], [ -640504.842335687717423, 9314025.829636596143246 ], [ -640350.333838500198908, 9314001.35789474286139 ], [ -640340.941721679177135, 9313996.572372198104858 ], [ -640266.32506316085346, 9314008.390489896759391 ], [ -640111.816565973334946, 9313983.918748043477535 ], [ -639972.432437014649622, 9313912.898987084627151 ], [ -639861.816565973334946, 9313802.283116042613983 ], [ -639790.796805013320409, 9313662.898987084627151 ], [ -639766.32506316085346, 9313508.390489896759391 ], [ -639776.376842699828558, 9313444.926051607355475 ], [ -639764.797231868840754, 9313371.815266184508801 ], [ -639789.268973721307702, 9313217.30676899664104 ], [ -639860.288734681322239, 9313077.922640038654208 ], [ -639970.904605722636916, 9312967.30676899664104 ], [ -640110.288734681322239, 9312896.287008037790656 ], [ -640264.797231868840754, 9312871.815266184508801 ], [ -640419.305729056359269, 9312896.287008037790656 ], [ -640421.291089537087828, 9312897.298599729314446 ], [ -640564.213367085787468, 9312919.93526466935873 ], [ -640648.022625331999734, 9312962.638214647769928 ], [ -640688.753928817808628, 9312956.187009941786528 ], [ -640840.545141231501475, 9312980.228376166895032 ], [ -640851.706602206802927, 9312974.541327746585011 ], [ -641006.215099394321442, 9312950.069585893303156 ], [ -641160.723596581839956, 9312974.541327746585011 ], [ -641253.441557032172568, 9313021.783488219603896 ], [ -641260.480577945127152, 9313007.968631828203797 ], [ -641371.096448986441828, 9312897.352760786190629 ], [ -641510.480577945127152, 9312826.332999827340245 ], [ -641664.989075132645667, 9312801.86125797405839 ], [ -641819.497572320164181, 9312826.332999827340245 ], [ -641958.881701278849505, 9312897.352760786190629 ] ] ], [ [ [ -637114.016538452240638, 9309967.503708142787218 ], [ -637250.029115744982846, 9310036.805577723309398 ], [ -637256.111957594635896, 9310033.706214996054769 ], [ -637410.620454782154411, 9310009.234473142772913 ], [ -637565.128951969672926, 9310033.706214996054769 ], [ -637704.513080928358249, 9310104.725975954905152 ], [ -637815.128951969672926, 9310215.341846996918321 ], [ -637853.527628863346763, 9310290.703493665903807 ], [ -637865.322699254727922, 9310302.498564057052135 ], [ -637936.342460214742459, 9310441.882693015038967 ], [ -637960.814202067209408, 9310596.391190202906728 ], [ -637936.342460214742459, 9310750.899687390774488 ], [ -637865.322699254727922, 9310890.28381634876132 ], [ -637845.165637592319399, 9310910.440878011286259 ], [ -637839.466269431752153, 9310921.626517837867141 ], [ -637728.850398390437476, 9311032.242388879880309 ], [ -637682.779827922116965, 9311055.716517005115747 ], [ -637715.683552320464514, 9311120.293712180107832 ], [ -637740.155294172931463, 9311274.802209367975593 ], [ -637715.683552320464514, 9311429.310706555843353 ], [ -637644.663791360449977, 9311568.694835513830185 ], [ -637534.047920319135301, 9311679.310706555843353 ], [ -637492.979199877474457, 9311700.236264798790216 ], [ -637497.520726893097162, 9311728.910337872803211 ], [ -637473.048985040630214, 9311883.418835060670972 ], [ -637415.09983748360537, 9311997.150440840050578 ], [ -637425.747470071422867, 9312002.575680620968342 ], [ -637536.363341112737544, 9312113.19155166298151 ], [ -637607.383102072752081, 9312252.575680620968342 ], [ -637631.854843925219029, 9312407.084177808836102 ], [ -637607.383102072752081, 9312561.592674996703863 ], [ -637584.106530582881533, 9312607.275518734008074 ], [ -637643.033308312180452, 9312637.300211643800139 ], [ -637753.649179353495128, 9312747.916082685813308 ], [ -637824.668940313509665, 9312887.300211643800139 ], [ -637849.140682165976614, 9313041.8087088316679 ], [ -637824.668940313509665, 9313196.317206019535661 ], [ -637820.004430541186593, 9313205.471821902319789 ], [ -637866.988954489934258, 9313252.456345850601792 ], [ -637938.008715449948795, 9313391.840474808588624 ], [ -637962.480457302415743, 9313546.348971996456385 ], [ -637938.008715449948795, 9313700.857469184324145 ], [ -637866.988954489934258, 9313840.241598142310977 ], [ -637756.373083448619582, 9313950.857469184324145 ], [ -637753.817116360878572, 9313952.159799464046955 ], [ -637730.385834017186426, 9313975.591081807389855 ], [ -637591.001705058501102, 9314046.610842766240239 ], [ -637539.80686040839646, 9314054.719309583306313 ], [ -637531.394520326866768, 9314063.131649665534496 ], [ -637414.063402243191376, 9314122.914840346202254 ], [ -637352.120615658466704, 9314244.484404036775231 ], [ -637241.504744617152028, 9314355.1002750787884 ], [ -637102.120615658466704, 9314426.120036037638783 ], [ -636947.612118470948189, 9314450.591777890920639 ], [ -636872.640884257038124, 9314438.717500919476151 ], [ -636808.652539564529434, 9314448.852259080857038 ], [ -636654.144042377010919, 9314424.380517227575183 ], [ -636514.759913418325596, 9314353.360756268724799 ], [ -636404.144042377010919, 9314242.744885226711631 ], [ -636333.124281416996382, 9314103.360756268724799 ], [ -636316.123738748254254, 9313996.023554243147373 ], [ -636259.394887453992851, 9313939.294702949002385 ], [ -636188.375126493978314, 9313799.910573991015553 ], [ -636163.903384641511366, 9313645.402076803147793 ], [ -636173.742300405516289, 9313583.281607495620847 ], [ -636024.516124057932757, 9313559.646503072232008 ], [ -635983.872543663834222, 9313538.937564503401518 ], [ -635927.945939462049864, 9313567.433592647314072 ], [ -635883.649812182993628, 9313574.449409974738955 ], [ -635770.422586170607246, 9313632.141563203185797 ], [ -635615.914088983088732, 9313656.613305056467652 ], [ -635461.405591795570217, 9313632.141563203185797 ], [ -635322.021462836884893, 9313561.121802244335413 ], [ -635211.405591795570217, 9313450.505931202322245 ], [ -635140.38583083555568, 9313311.121802244335413 ], [ -635115.914088983088732, 9313156.613305056467652 ], [ -635140.38583083555568, 9313002.104807868599892 ], [ -635211.405591795570217, 9312862.72067891061306 ], [ -635293.337897947872989, 9312780.788372756913304 ], [ -635196.689590724767186, 9312684.140065534040332 ], [ -635143.959131813142449, 9312580.650712914764881 ], [ -635056.949195664958097, 9312667.660649063065648 ], [ -634917.565066706272773, 9312738.680410021916032 ], [ -634763.056569518754259, 9312763.152151875197887 ], [ -634738.844796518678777, 9312759.317383758723736 ], [ -634707.95229479088448, 9312764.21027535572648 ], [ -634697.492541900719516, 9312762.553613247349858 ], [ -634589.18102607387118, 9312779.70847206376493 ], [ -634584.53217715350911, 9312778.972166730090976 ], [ -634562.773362674750388, 9312782.418424382805824 ], [ -634456.498921088408679, 9312765.586206430569291 ], [ -634441.728770632878877, 9312794.574258882552385 ], [ -634331.112899591564201, 9312905.190129924565554 ], [ -634321.080468290951103, 9312910.301908992230892 ], [ -634360.687110524508171, 9312916.574984855949879 ], [ -634500.071239483193494, 9312987.594745814800262 ], [ -634610.687110524508171, 9313098.210616856813431 ], [ -634649.38586738309823, 9313174.161203617230058 ], [ -634738.539468693430535, 9313188.281746864318848 ], [ -634877.923597652115859, 9313259.301507823169231 ], [ -634988.539468693430535, 9313369.9173788651824 ], [ -635059.559229653445072, 9313509.301507823169231 ], [ -635084.030971505912021, 9313663.810005011036992 ], [ -635059.559229653445072, 9313818.318502198904753 ], [ -634988.539468693430535, 9313957.702631156891584 ], [ -634877.923597652115859, 9314068.318502198904753 ], [ -634738.539468693430535, 9314139.338263157755136 ], [ -634584.030971505912021, 9314163.810005011036992 ], [ -634429.522474318393506, 9314139.338263157755136 ], [ -634290.138345359708183, 9314068.318502198904753 ], [ -634179.522474318393506, 9313957.702631156891584 ], [ -634169.181131929391995, 9313937.406603943556547 ], [ -634058.182697915821336, 9313919.826179094612598 ], [ -633918.798568957136013, 9313848.806418135762215 ], [ -633808.182697915821336, 9313738.190547093749046 ], [ -633737.162936955806799, 9313598.806418135762215 ], [ -633712.691195103339851, 9313444.297920947894454 ], [ -633713.568316647317261, 9313438.759993471205235 ], [ -633706.178613336989656, 9313392.103243002668023 ], [ -633730.650355189456604, 9313237.594745814800262 ], [ -633801.670116149471141, 9313098.210616856813431 ], [ -633866.912737716920674, 9313032.967995289713144 ], [ -633812.719564892700873, 9313060.580796031281352 ], [ -633658.211067705182359, 9313085.052537884563208 ], [ -633503.702570517663844, 9313060.580796031281352 ], [ -633364.31844155897852, 9312989.561035072430968 ], [ -633253.702570517663844, 9312878.9451640304178 ], [ -633182.682809557649307, 9312739.561035072430968 ], [ -633158.211067705182359, 9312585.052537884563208 ], [ -633182.682809557649307, 9312430.544040696695447 ], [ -633253.702570517663844, 9312291.159911738708615 ], [ -633260.194226364372298, 9312284.668255891650915 ], [ -633213.914377563516609, 9312261.087495129555464 ], [ -633103.298506522201933, 9312150.471624087542295 ], [ -633032.278745562187396, 9312011.087495129555464 ], [ -633007.807003709720448, 9311856.578997941687703 ], [ -633032.278745562187396, 9311702.070500753819942 ], [ -633103.298506522201933, 9311562.686371795833111 ], [ -633213.914377563516609, 9311452.070500753819942 ], [ -633353.298506522201933, 9311381.050739794969559 ], [ -633470.879603989073075, 9311362.427723478525877 ], [ -633501.254407230182551, 9311302.813815535977483 ], [ -633611.870278271497227, 9311192.197944493964314 ], [ -633751.254407230182551, 9311121.178183535113931 ], [ -633905.762904417701066, 9311096.706441681832075 ], [ -634060.27140160521958, 9311121.178183535113931 ], [ -634095.143431752221659, 9311138.946370370686054 ], [ -634099.926170674036257, 9311136.509443171322346 ], [ -634254.434667861554772, 9311112.03770131804049 ], [ -634322.563562931143679, 9311122.828258233144879 ], [ -634357.30093451810535, 9311105.128683362156153 ], [ -634383.762102596578188, 9311100.937646064907312 ], [ -634312.666713659069501, 9311064.712736060842872 ], [ -634202.050842617754824, 9310954.096865018829703 ], [ -634131.031081657740287, 9310814.712736060842872 ], [ -634106.559339805273339, 9310660.204238872975111 ], [ -634131.031081657740287, 9310505.69574168510735 ], [ -634202.050842617754824, 9310366.311612727120519 ], [ -634255.349632232799195, 9310313.012823112308979 ], [ -634254.063268502242863, 9310304.891042159870267 ], [ -634278.535010354709812, 9310150.382544972002506 ], [ -634349.554771314724348, 9310010.998416014015675 ], [ -634460.170642356039025, 9309900.382544972002506 ], [ -634599.554771314724348, 9309829.362784013152122 ], [ -634754.063268502242863, 9309804.891042159870267 ], [ -634904.120879744412377, 9309828.657832933589816 ], [ -634995.530957015813328, 9309782.082072224467993 ], [ -635150.039454203331843, 9309757.610330371186137 ], [ -635253.060137602034956, 9309773.927203653380275 ], [ -635273.767432648688555, 9309770.647490317001939 ], [ -635428.275929836207069, 9309795.119232170283794 ], [ -635567.660058794892393, 9309866.138993129134178 ], [ -635678.275929836207069, 9309976.754864171147346 ], [ -635740.828590764896944, 9310099.521373657509685 ], [ -635860.412112692487426, 9310038.590525895357132 ], [ -636014.920609880005941, 9310014.118784042075276 ], [ -636169.429107067524455, 9310038.590525895357132 ], [ -636308.813236026209779, 9310109.610286854207516 ], [ -636419.429107067524455, 9310220.226157896220684 ], [ -636452.078731204033829, 9310284.304653227329254 ], [ -636480.194825974060223, 9310312.420747997239232 ], [ -636483.979783117189072, 9310288.523469101637602 ], [ -636554.999544077203609, 9310149.13934014365077 ], [ -636665.615415118518285, 9310038.523469101637602 ], [ -636804.999544077203609, 9309967.503708142787218 ], [ -636959.508041264722124, 9309943.031966289505363 ], [ -637114.016538452240638, 9309967.503708142787218 ] ], [ [ -636497.520726893097162, 9311728.910337872803211 ], [ -636511.318807450588793, 9311641.79268585331738 ], [ -636406.469029341009445, 9311588.369055533781648 ], [ -636295.853158299694769, 9311477.753184491768479 ], [ -636292.881505825906061, 9311471.920988127589226 ], [ -636267.260188118903898, 9311458.866274707019329 ], [ -636156.644317077589221, 9311348.250403665006161 ], [ -636131.885805470403284, 9311299.659088684245944 ], [ -636102.215170204290189, 9311269.988453418016434 ], [ -636031.195409244275652, 9311130.604324460029602 ], [ -636028.947164512239397, 9311116.409465877339244 ], [ -636012.444377305335365, 9311113.795681161805987 ], [ -635976.560265417443588, 9311132.079549400135875 ], [ -635980.456647414248437, 9311156.680337134748697 ], [ -635955.984905561781488, 9311311.188834322616458 ], [ -635897.411287931725383, 9311426.146031627431512 ], [ -636003.687416978529654, 9311532.422160675749183 ], [ -636013.855738417245448, 9311552.378615153953433 ], [ -636045.83755528263282, 9311568.674164768308401 ], [ -636156.453426323947497, 9311679.290035810321569 ], [ -636208.909712192718871, 9311782.241293536499143 ], [ -636220.215117123094387, 9311776.480902006849647 ], [ -636374.723614310612902, 9311752.009160153567791 ], [ -636504.433064324432053, 9311772.553118798881769 ], [ -636497.520726893097162, 9311728.910337872803211 ] ] ] ] } }
]
}
