{
"type": "FeatureCollection",
"name": "Clip Alfamart Kapuk Muara",
"crs": { "type": "name", "properties": { "name": "urn:ogc:def:crs:OGC:1.3:CRS84" } },
"xy_coordinate_resolution": 1e-15,
"features": [
{ "type": "Feature", "properties": { "GID_4": "IDN.7.5.6.2_1", "GID_0": "IDN", "COUNTRY": "Indonesia", "GID_1": "IDN.7_1", "NAME_1": "JakartaRaya", "GID_2": "IDN.7.5_1", "NAME_2": "JakartaUtara", "GID_3": "IDN.7.5.6_1", "NAME_3": "Penjaringan", "NAME_4": "KapukMuara", "VARNAME_4": "NA", "TYPE_4": "Kelurahan", "ENGTYPE_4": "UrbanCommunity", "CC_4": "3175010002" }, "geometry": { "type": "MultiPolygon", "coordinates": [ [ [ [ 106.768961739981222, -6.13931499245652 ], [ 106.768770626245569, -6.137935433333083 ], [ 106.769014787690892, -6.136564283533744 ], [ 106.769670322833889, -6.13533575505642 ], [ 106.770673065990437, -6.134370100390106 ], [ 106.771924867241282, -6.133761843058737 ], [ 106.773275895226377, -6.1335743153252 ], [ 106.773229050271581, -6.133525584669099 ], [ 106.772621329038572, -6.132272655843287 ], [ 106.772430175592532, -6.130893086698281 ], [ 106.772674296666423, -6.129521914294939 ], [ 106.773176786270255, -6.128580129208148 ], [ 106.773086139569273, -6.127925976563906 ], [ 106.773330245298666, -6.126554798861894 ], [ 106.773864131355623, -6.125554137957974 ], [ 106.77377746465001, -6.125507813972127 ], [ 106.772812647759451, -6.124504196853513 ], [ 106.772204903512772, -6.123251286623639 ], [ 106.772013715809905, -6.121871724827049 ], [ 106.77225779474162, -6.120500547804475 ], [ 106.772507897207973, -6.120031758607923 ], [ 106.772317314383159, -6.119929893221934 ], [ 106.771352497549813, -6.118926294980699 ], [ 106.770744744248006, -6.117673399566214 ], [ 106.77055353926535, -6.116293847071243 ], [ 106.770700722822212, -6.115466926141305 ], [ 106.7733, -6.1164 ], [ 106.7748, -6.1186 ], [ 106.7731, -6.1213 ], [ 106.7774, -6.134 ], [ 106.7761, -6.1351 ], [ 106.7755, -6.1418 ], [ 106.769280570879303, -6.139972360740848 ], [ 106.768961739981222, -6.13931499245652 ] ] ], [ [ [ 106.769677524984644, -6.112844781360564 ], [ 106.769486304398058, -6.111465236140888 ], [ 106.769505487974698, -6.111357447965656 ], [ 106.7702, -6.1123 ], [ 106.769901672605258, -6.113306854957278 ], [ 106.769677524984644, -6.112844781360564 ] ] ], [ [ [ 106.752197700224272, -6.122068659978393 ], [ 106.753200355175039, -6.121103050564293 ], [ 106.754452051068085, -6.120494816798119 ], [ 106.755830269535267, -6.120303498884788 ], [ 106.756982451011666, -6.120509007447891 ], [ 106.757994528871308, -6.120368510960509 ], [ 106.759364375420503, -6.120612837454723 ], [ 106.76059175239925, -6.121268904435397 ], [ 106.761556512926489, -6.122272495932712 ], [ 106.762164213949134, -6.123525374897921 ], [ 106.762355363112945, -6.124904898765775 ], [ 106.762111244710695, -6.126276025343297 ], [ 106.761455753498893, -6.127504533507432 ], [ 106.760453056192077, -6.128470163880354 ], [ 106.759201309360037, -6.129078392350718 ], [ 106.757823049051709, -6.129269683319366 ], [ 106.756670850446042, -6.129064144357811 ], [ 106.755658755694029, -6.129204610092756 ], [ 106.754288910773809, -6.128960239681139 ], [ 106.753061563684881, -6.128304141037199 ], [ 106.752279867524734, -6.127490934059026 ], [ 106.752000848723071, -6.122437593540131 ], [ 106.752197700224272, -6.122068659978393 ] ] ], [ [ [ 106.751436253396278, -6.109279305971623 ], [ 106.75240098406816, -6.110282849020572 ], [ 106.753008678684282, -6.111535679459967 ], [ 106.753199845517955, -6.112915159469313 ], [ 106.752955767137237, -6.114286251143434 ], [ 106.752300334388664, -6.115514736772478 ], [ 106.7516530269193, -6.116138154205003 ], [ 106.751269392947265, -6.10919011671163 ], [ 106.751436253396278, -6.109279305971623 ] ] ] ] } }
]
}
