{
"type": "FeatureCollection",
"name": "Indomaret Point",
"crs": { "type": "name", "properties": { "name": "urn:ogc:def:crs:EPSG::32750" } },
"features": [
{ "type": "Feature", "properties": { "id": 1, "Point": "Indomaret" }, "geometry": { "type": "Point", "coordinates": [ -634955.732392255449668, 9311569.881177458912134 ] } },
{ "type": "Feature", "properties": { "id": 2, "Point": "Indomaret" }, "geometry": { "type": "Point", "coordinates": [ -634798.629085895139724, 9311558.87582416087389 ] } },
{ "type": "Feature", "properties": { "id": 3, "Point": "Indomaret" }, "geometry": { "type": "Point", "coordinates": [ -635148.064565645763651, 9311760.589722774922848 ] } },
{ "type": "Feature", "properties": { "id": 4, "Point": "Indomaret" }, "geometry": { "type": "Point", "coordinates": [ -634255.59600495477207, 9311611.543414847925305 ] } },
{ "type": "Feature", "properties": { "id": 5, "Point": "Indomaret" }, "geometry": { "type": "Point", "coordinates": [ -633905.878917861031368, 9311597.446949360892177 ] } },
{ "type": "Feature", "properties": { "id": 6, "Point": "Indomaret" }, "geometry": { "type": "Point", "coordinates": [ -633960.979154267348349, 9311813.645385205745697 ] } },
{ "type": "Feature", "properties": { "id": 7, "Point": "Indomaret" }, "geometry": { "type": "Point", "coordinates": [ -634086.485015960875899, 9311946.68001045845449 ] } },
{ "type": "Feature", "properties": { "id": 8, "Point": "Indomaret" }, "geometry": { "type": "Point", "coordinates": [ -634158.823166354326531, 9312072.948147526010871 ] } },
{ "type": "Feature", "properties": { "id": 9, "Point": "Indomaret" }, "geometry": { "type": "Point", "coordinates": [ -634052.645901342621073, 9312151.419893611222506 ] } },
{ "type": "Feature", "properties": { "id": 10, "Point": "Indomaret" }, "geometry": { "type": "Point", "coordinates": [ -634037.649528591660783, 9312500.635856945067644 ] } },
{ "type": "Feature", "properties": { "id": 11, "Point": "Indomaret" }, "geometry": { "type": "Point", "coordinates": [ -633658.438680353574455, 9312585.064550234004855 ] } },
{ "type": "Feature", "properties": { "id": 12, "Point": "Indomaret" }, "geometry": { "type": "Point", "coordinates": [ -634395.123734229244292, 9312024.734488628804684 ] } },
{ "type": "Feature", "properties": { "id": 13, "Point": "Indomaret" }, "geometry": { "type": "Point", "coordinates": [ -634568.509005847154185, 9312207.031450172886252 ] } },
{ "type": "Feature", "properties": { "id": 14, "Point": "Indomaret" }, "geometry": { "type": "Point", "coordinates": [ -634762.290383217390627, 9312262.884639689698815 ] } },
{ "type": "Feature", "properties": { "id": 15, "Point": "Indomaret" }, "geometry": { "type": "Point", "coordinates": [ -634681.062871633563191, 9312234.576991725713015 ] } },
{ "type": "Feature", "properties": { "id": 16, "Point": "Indomaret" }, "geometry": { "type": "Point", "coordinates": [ -634586.63052946026437, 9312263.52770708873868 ] } },
{ "type": "Feature", "properties": { "id": 17, "Point": "Indomaret" }, "geometry": { "type": "Point", "coordinates": [ -635598.932373995659873, 9311822.717230051755905 ] } },
{ "type": "Feature", "properties": { "id": 18, "Point": "Indomaret" }, "geometry": { "type": "Point", "coordinates": [ -635835.755268869455904, 9312545.441129114478827 ] } },
{ "type": "Feature", "properties": { "id": 19, "Point": "Indomaret" }, "geometry": { "type": "Point", "coordinates": [ -636660.080230238614604, 9313106.182573929429054 ] } },
{ "type": "Feature", "properties": { "id": 20, "Point": "Indomaret" }, "geometry": { "type": "Point", "coordinates": [ -636179.547013063216582, 9313084.419111296534538 ] } },
{ "type": "Feature", "properties": { "id": 21, "Point": "Indomaret" }, "geometry": { "type": "Point", "coordinates": [ -636225.74933455279097, 9312803.633649563416839 ] } },
{ "type": "Feature", "properties": { "id": 22, "Point": "Indomaret" }, "geometry": { "type": "Point", "coordinates": [ -636379.036408983403817, 9312248.99902574531734 ] } },
{ "type": "Feature", "properties": { "id": 23, "Point": "Indomaret" }, "geometry": { "type": "Point", "coordinates": [ -636966.550521350232884, 9313061.51248587295413 ] } },
{ "type": "Feature", "properties": { "id": 24, "Point": "Indomaret" }, "geometry": { "type": "Point", "coordinates": [ -637462.670738322660327, 9313546.673238385468721 ] } },
{ "type": "Feature", "properties": { "id": 25, "Point": "Indomaret" }, "geometry": { "type": "Point", "coordinates": [ -637238.273425202118233, 9313659.461395775899291 ] } },
{ "type": "Feature", "properties": { "id": 26, "Point": "Indomaret" }, "geometry": { "type": "Point", "coordinates": [ -636956.702168972231448, 9313912.975582728162408 ] } },
{ "type": "Feature", "properties": { "id": 27, "Point": "Indomaret" }, "geometry": { "type": "Point", "coordinates": [ -636841.655502829467878, 9313911.00824741832912 ] } },
{ "type": "Feature", "properties": { "id": 28, "Point": "Indomaret" }, "geometry": { "type": "Point", "coordinates": [ -635774.958215463906527, 9313095.71984251588583 ] } },
{ "type": "Feature", "properties": { "id": 29, "Point": "Indomaret" }, "geometry": { "type": "Point", "coordinates": [ -635302.939957847818732, 9311851.290769722312689 ] } },
{ "type": "Feature", "properties": { "id": 30, "Point": "Indomaret" }, "geometry": { "type": "Point", "coordinates": [ -635383.460421166615561, 9311420.671618983149529 ] } },
{ "type": "Feature", "properties": { "id": 31, "Point": "Indomaret" }, "geometry": { "type": "Point", "coordinates": [ -635478.483979410724714, 9311155.169554702937603 ] } },
{ "type": "Feature", "properties": { "id": 32, "Point": "Indomaret" }, "geometry": { "type": "Point", "coordinates": [ -635172.723001872655004, 9310767.793679075315595 ] } },
{ "type": "Feature", "properties": { "id": 33, "Point": "Indomaret" }, "geometry": { "type": "Point", "coordinates": [ -635182.298476360272616, 9310522.203286565840244 ] } },
{ "type": "Feature", "properties": { "id": 34, "Point": "Indomaret" }, "geometry": { "type": "Point", "coordinates": [ -635152.294044898822904, 9310257.824651066213846 ] } },
{ "type": "Feature", "properties": { "id": 35, "Point": "Indomaret" }, "geometry": { "type": "Point", "coordinates": [ -635273.307131588459015, 9310269.784780839458108 ] } },
{ "type": "Feature", "properties": { "id": 36, "Point": "Indomaret" }, "geometry": { "type": "Point", "coordinates": [ -635648.279509840533137, 9310678.787199474871159 ] } },
{ "type": "Feature", "properties": { "id": 37, "Point": "Indomaret" }, "geometry": { "type": "Point", "coordinates": [ -635723.412752690725029, 9310703.514839168637991 ] } },
{ "type": "Feature", "properties": { "id": 38, "Point": "Indomaret" }, "geometry": { "type": "Point", "coordinates": [ -636092.229506769450381, 9310625.832715617492795 ] } },
{ "type": "Feature", "properties": { "id": 39, "Point": "Indomaret" }, "geometry": { "type": "Point", "coordinates": [ -636582.954290226567537, 9310835.413418853655457 ] } },
{ "type": "Feature", "properties": { "id": 40, "Point": "Indomaret" }, "geometry": { "type": "Point", "coordinates": [ -636561.705760187469423, 9311054.781914504244924 ] } },
{ "type": "Feature", "properties": { "id": 41, "Point": "Indomaret" }, "geometry": { "type": "Point", "coordinates": [ -637248.588575534289703, 9311267.171636370941997 ] } },
{ "type": "Feature", "properties": { "id": 42, "Point": "Indomaret" }, "geometry": { "type": "Point", "coordinates": [ -636993.086083776317537, 9311725.27401539310813 ] } },
{ "type": "Feature", "properties": { "id": 43, "Point": "Indomaret" }, "geometry": { "type": "Point", "coordinates": [ -637071.602295003365725, 9311779.405949432402849 ] } },
{ "type": "Feature", "properties": { "id": 44, "Point": "Indomaret" }, "geometry": { "type": "Point", "coordinates": [ -638205.791419027140364, 9311676.617583958432078 ] } },
{ "type": "Feature", "properties": { "id": 45, "Point": "Indomaret" }, "geometry": { "type": "Point", "coordinates": [ -639215.071049962891266, 9312017.374716846272349 ] } },
{ "type": "Feature", "properties": { "id": 46, "Point": "Indomaret" }, "geometry": { "type": "Point", "coordinates": [ -641369.812900845427066, 9313669.550998521968722 ] } },
{ "type": "Feature", "properties": { "id": 47, "Point": "Indomaret" }, "geometry": { "type": "Point", "coordinates": [ -641390.298282374860719, 9313639.765024295076728 ] } },
{ "type": "Feature", "properties": { "id": 48, "Point": "Indomaret" }, "geometry": { "type": "Point", "coordinates": [ -641388.231132346903905, 9313590.899888411164284 ] } },
{ "type": "Feature", "properties": { "id": 49, "Point": "Indomaret" }, "geometry": { "type": "Point", "coordinates": [ -641108.405771568184718, 9313618.777688657864928 ] } },
{ "type": "Feature", "properties": { "id": 50, "Point": "Indomaret" }, "geometry": { "type": "Point", "coordinates": [ -641351.125205863267183, 9314122.261528884992003 ] } },
{ "type": "Feature", "properties": { "id": 51, "Point": "Indomaret" }, "geometry": { "type": "Point", "coordinates": [ -641466.560385902877897, 9314590.297658771276474 ] } },
{ "type": "Feature", "properties": { "id": 52, "Point": "Indomaret" }, "geometry": { "type": "Point", "coordinates": [ -641114.975400765426457, 9314452.438071765005589 ] } },
{ "type": "Feature", "properties": { "id": 53, "Point": "Indomaret" }, "geometry": { "type": "Point", "coordinates": [ -641233.58778906124644, 9314526.12208679318428 ] } },
{ "type": "Feature", "properties": { "id": 54, "Point": "Indomaret" }, "geometry": { "type": "Point", "coordinates": [ -639778.769161071628332, 9313470.855478961020708 ] } },
{ "type": "Feature", "properties": { "id": 55, "Point": "Indomaret" }, "geometry": { "type": "Point", "coordinates": [ -641006.428497715853155, 9313448.974791545420885 ] } },
{ "type": "Feature", "properties": { "id": 56, "Point": "Indomaret" }, "geometry": { "type": "Point", "coordinates": [ -640687.785940032219514, 9313456.078614424914122 ] } },
{ "type": "Feature", "properties": { "id": 57, "Point": "Indomaret" }, "geometry": { "type": "Point", "coordinates": [ -640504.203252488048747, 9313526.988594762980938 ] } },
{ "type": "Feature", "properties": { "id": 58, "Point": "Indomaret" }, "geometry": { "type": "Point", "coordinates": [ -640409.498077260795981, 9313396.556119138374925 ] } },
{ "type": "Feature", "properties": { "id": 59, "Point": "Indomaret" }, "geometry": { "type": "Point", "coordinates": [ -640262.05939247389324, 9313503.6271703671664 ] } },
{ "type": "Feature", "properties": { "id": 60, "Point": "Indomaret" }, "geometry": { "type": "Point", "coordinates": [ -639410.251345968805254, 9312048.380276592448354 ] } },
{ "type": "Feature", "properties": { "id": 61, "Point": "Indomaret" }, "geometry": { "type": "Point", "coordinates": [ -640670.1877190109808, 9312085.17786112986505 ] } },
{ "type": "Feature", "properties": { "id": 62, "Point": "Indomaret" }, "geometry": { "type": "Point", "coordinates": [ -637409.239693357609212, 9310508.580561967566609 ] } },
{ "type": "Feature", "properties": { "id": 63, "Point": "Indomaret" }, "geometry": { "type": "Point", "coordinates": [ -637349.99626081623137, 9313040.853913601487875 ] } },
{ "type": "Feature", "properties": { "id": 64, "Point": "Indomaret" }, "geometry": { "type": "Point", "coordinates": [ -641228.862261332571507, 9312121.447490030899644 ] } },
{ "type": "Feature", "properties": { "id": 65, "Point": "Indomaret" }, "geometry": { "type": "Point", "coordinates": [ -636958.500793060753495, 9310443.64675965346396 ] } },
{ "type": "Feature", "properties": { "id": 66, "Point": "Indomaret" }, "geometry": { "type": "Point", "coordinates": [ -636933.33406888297759, 9310555.499810881912708 ] } },
{ "type": "Feature", "properties": { "id": 67, "Point": "Indomaret" }, "geometry": { "type": "Point", "coordinates": [ -639944.219870548695326, 9310981.082942409440875 ] } },
{ "type": "Feature", "properties": { "id": 68, "Point": "Indomaret" }, "geometry": { "type": "Point", "coordinates": [ -634206.309486162150279, 9313391.991525212302804 ] } },
{ "type": "Feature", "properties": { "id": 69, "Point": "Indomaret" }, "geometry": { "type": "Point", "coordinates": [ -634584.740203002467752, 9313664.583937982097268 ] } },
{ "type": "Feature", "properties": { "id": 70, "Point": "Indomaret" }, "geometry": { "type": "Point", "coordinates": [ -640993.366702530067414, 9315829.690714808180928 ] } },
{ "type": "Feature", "properties": { "id": null, "Point": "Indomaret" }, "geometry": { "type": "Point", "coordinates": [ -637433.223432752303779, 9310630.416018581017852 ] } },
{ "type": "Feature", "properties": { "id": null, "Point": "Indomaret" }, "geometry": { "type": "Point", "coordinates": [ -633507.386231634533033, 9311855.504467684775591 ] } }
]
}
