{
"type": "FeatureCollection",
"name": "Kelurahan Pejagalan",
"crs": { "type": "name", "properties": { "name": "urn:ogc:def:crs:OGC:1.3:CRS84" } },
"features": [
{ "type": "Feature", "properties": { "GID_4": "IDN.7.5.6.3_1", "GID_0": "IDN", "COUNTRY": "Indonesia", "GID_1": "IDN.7_1", "NAME_1": "JakartaRaya", "GID_2": "IDN.7.5_1", "NAME_2": "JakartaUtara", "GID_3": "IDN.7.5.6_1", "NAME_3": "Penjaringan", "NAME_4": "Pejagalan", "VARNAME_4": "NA", "TYPE_4": "Kelurahan", "ENGTYPE_4": "UrbanCommunity", "CC_4": "3175010003" }, "geometry": { "type": "MultiPolygon", "coordinates": [ [ [ [ 106.7751, -6.1452 ], [ 106.7761, -6.1351 ], [ 106.7774, -6.134 ], [ 106.7732, -6.1216 ], [ 106.7771, -6.1241 ], [ 106.7839, -6.1254 ], [ 106.7851, -6.1315 ], [ 106.7925, -6.1325 ], [ 106.7929, -6.1372 ], [ 106.8002, -6.1366 ], [ 106.8005, -6.1419 ], [ 106.7751, -6.1452 ] ] ] ] } }
]
}
