{
"type": "FeatureCollection",
"name": "Populasi Wilayah Kamal Muara",
"crs": { "type": "name", "properties": { "name": "urn:ogc:def:crs:OGC:1.3:CRS84" } },
"xy_coordinate_resolution": 1e-15,
"features": [
{ "type": "Feature", "properties": { "GID_4": "IDN.7.5.6.1_1", "GID_0": "IDN", "COUNTRY": "Indonesia", "GID_1": "IDN.7_1", "NAME_1": "JakartaRaya", "GID_2": "IDN.7.5_1", "NAME_2": "JakartaUtara", "GID_3": "IDN.7.5.6_1", "NAME_3": "Penjaringan", "NAME_4": "KamalMuara", "VARNAME_4": "NA", "TYPE_4": "Kelurahan", "ENGTYPE_4": "UrbanCommunity", "CC_4": "3175010001", "Populasi Wilayah Kamalsum": 98142.553190231323 }, "geometry": { "type": "MultiPolygon", "coordinates": [ [ [ [ 106.711, -6.0956 ], [ 106.7186, -6.0919 ], [ 106.7221, -6.0919 ], [ 106.7254, -6.089 ], [ 106.7269, -6.0896 ], [ 106.7263, -6.0913 ], [ 106.7283, -6.0942 ], [ 106.7381, -6.1012 ], [ 106.7448, -6.1022 ], [ 106.7468, -6.0999 ], [ 106.7499, -6.1005 ], [ 106.7534, -6.1307 ], [ 106.7527, -6.1351 ], [ 106.733, -6.123 ], [ 106.711, -6.0956 ] ] ] ] } }
]
}
