{
"type": "FeatureCollection",
"name": "Populasi Alfamart Pejagalan",
"crs": { "type": "name", "properties": { "name": "urn:ogc:def:crs:OGC:1.3:CRS84" } },
"xy_coordinate_resolution": 1e-15,
"features": [
{ "type": "Feature", "properties": { "GID_4": "IDN.7.5.6.3_1", "GID_0": "IDN", "COUNTRY": "Indonesia", "GID_1": "IDN.7_1", "NAME_1": "JakartaRaya", "GID_2": "IDN.7.5_1", "NAME_2": "JakartaUtara", "GID_3": "IDN.7.5.6_1", "NAME_3": "Penjaringan", "NAME_4": "Pejagalan", "VARNAME_4": "NA", "TYPE_4": "Kelurahan", "ENGTYPE_4": "UrbanCommunity", "CC_4": "3175010003", "Populasi Alfa pejagalsum": 28883.23942565918 }, "geometry": { "type": "MultiPolygon", "coordinates": [ [ [ [ 106.792974314427937, -6.142366321531403 ], [ 106.792838424446998, -6.141385663311785 ], [ 106.792103847435158, -6.141742609127154 ], [ 106.79072541600668, -6.1419339526456 ], [ 106.789623968640072, -6.141737498907682 ], [ 106.788637564685402, -6.142687431123291 ], [ 106.787385679020872, -6.143295725792433 ], [ 106.786007261142785, -6.143487047243204 ], [ 106.784637244899898, -6.143242672370134 ], [ 106.783409738294438, -6.142586527979478 ], [ 106.782444895571572, -6.141582846492344 ], [ 106.781837156698259, -6.14032987673235 ], [ 106.781760677853612, -6.139777896862921 ], [ 106.781256181639321, -6.14072338057041 ], [ 106.780253393470829, -6.141689067912041 ], [ 106.779001535132494, -6.142297330256119 ], [ 106.777623153584884, -6.142488628678672 ], [ 106.776253179120943, -6.142244242332637 ], [ 106.775459015264246, -6.141819720521632 ], [ 106.775433451344441, -6.141832141421134 ], [ 106.7761, -6.1351 ], [ 106.7774, -6.134 ], [ 106.7732, -6.1216 ], [ 106.7771, -6.1241 ], [ 106.780492124396133, -6.124748494369849 ], [ 106.781180790130946, -6.125464834330907 ], [ 106.781788566987956, -6.126717773561118 ], [ 106.781979767336608, -6.128097377056443 ], [ 106.781839574624698, -6.128884916726131 ], [ 106.782746446800331, -6.129369637314765 ], [ 106.78371130663075, -6.130373282013318 ], [ 106.784025515428198, -6.131021037711438 ], [ 106.784460443966282, -6.131253506302378 ], [ 106.78542530987032, -6.132257158931981 ], [ 106.786033086377827, -6.133510122960762 ], [ 106.786182139801625, -6.134585702171452 ], [ 106.787280097381284, -6.134781518316052 ], [ 106.78826646116238, -6.133831568501161 ], [ 106.789518308452202, -6.133223233103096 ], [ 106.790896706800098, -6.133031856004227 ], [ 106.79226673366793, -6.133276175298998 ], [ 106.792580321987913, -6.133443783357974 ], [ 106.7929, -6.1372 ], [ 106.8002, -6.1366 ], [ 106.8005, -6.1419 ], [ 106.793207679335694, -6.142847427487881 ], [ 106.792974314427937, -6.142366321531403 ] ] ] ] } }
]
}
