{
"type": "FeatureCollection",
"name": "Populasi Yang Tidak Terlayani",
"crs": { "type": "name", "properties": { "name": "urn:ogc:def:crs:EPSG::32750" } },
"features": [
{ "type": "Feature", "properties": { "id": null, "GID_3": "IDN.7.5.6_1", "GID_0": "IDN", "COUNTRY": "Indonesia", "GID_1": "IDN.7_1", "NAME_1": "JakartaRaya", "NL_NAME_1": "NA", "GID_2": "IDN.7.5_1", "NAME_2": "JakartaUtara", "NL_NAME_2": "NA", "NAME_3": "Penjaringan", "VARNAME_3": "NA", "NL_NAME_3": "NA", "TYPE_3": "Kecamatan", "ENGTYPE_3": "Sub-district", "CC_3": "3175010", "HASC_3": "NA", "PopulasiYangTidakTerjangkauLayanansum": 147463.06222724915 }, "geometry": { "type": "MultiPolygon", "coordinates": [ [ [ [ -637259.075559923774563, 9310033.236826499924064 ], [ -637256.111957594635896, 9310033.706214996054769 ], [ -637250.029115744982846, 9310036.805577723309398 ], [ -637114.016538452240638, 9309967.503708142787218 ], [ -636959.508041264722124, 9309943.031966289505363 ], [ -636804.999544077203609, 9309967.503708142787218 ], [ -636665.615415118518285, 9310038.523469101637602 ], [ -636554.999544077203609, 9310149.13934014365077 ], [ -636483.979783117189072, 9310288.523469101637602 ], [ -636480.194825974060223, 9310312.420747997239232 ], [ -636452.078731204033829, 9310284.304653227329254 ], [ -636419.429107067524455, 9310220.226157896220684 ], [ -636308.813236026209779, 9310109.610286854207516 ], [ -636169.429107067524455, 9310038.590525895357132 ], [ -636016.74751658376772, 9310014.408137638121843 ], [ -637234.831508207833394, 9309861.239257629960775 ], [ -637259.075559923774563, 9310033.236826499924064 ] ] ], [ [ [ -638018.829839050536975, 9310284.224460568279028 ], [ -639490.782816258375533, 9310787.798952460289001 ], [ -639469.20145563443657, 9310830.154757544398308 ], [ -639444.729713781969622, 9310984.663254732266068 ], [ -639469.20145563443657, 9311139.171751920133829 ], [ -639540.221216594451107, 9311278.555880878120661 ], [ -639650.837087635765783, 9311389.171751920133829 ], [ -639790.221216594451107, 9311460.191512878984213 ], [ -639944.729713781969622, 9311484.663254732266068 ], [ -640099.238210969488136, 9311460.191512878984213 ], [ -640124.536850064294413, 9311447.301212422549725 ], [ -640143.46413319662679, 9311566.803374968469143 ], [ -640167.701091157272458, 9311614.371083283796906 ], [ -640077.473656042362563, 9311660.344257716089487 ], [ -639966.857785001047887, 9311770.960128758102655 ], [ -639916.964223256451078, 9311868.881757194176316 ], [ -639858.130689530516975, 9311753.414445828646421 ], [ -639747.514818489202298, 9311642.798574786633253 ], [ -639608.130689530516975, 9311571.778813827782869 ], [ -639453.62219234299846, 9311547.307071974501014 ], [ -639428.893368233228102, 9311551.223732940852642 ], [ -639409.533166486304253, 9311548.157378222793341 ], [ -639324.744837522041053, 9311561.586530251428485 ], [ -639208.758904014946893, 9311543.216163087636232 ], [ -639054.250406827428378, 9311567.687904940918088 ], [ -638914.866277868743055, 9311638.707665899768472 ], [ -638804.250406827428378, 9311749.32353694178164 ], [ -638733.230645867413841, 9311888.707665899768472 ], [ -638708.758904014946893, 9312043.216163087636232 ], [ -638733.230645867413841, 9312197.724660275503993 ], [ -638804.250406827428378, 9312337.108789233490825 ], [ -638914.866277868743055, 9312447.724660275503993 ], [ -639054.250406827428378, 9312518.744421234354377 ], [ -639208.758904014946893, 9312543.216163087636232 ], [ -639293.547232979210094, 9312529.787011059001088 ], [ -639409.533166486304253, 9312548.157378222793341 ], [ -639434.261990596074611, 9312544.240717256441712 ], [ -639453.62219234299846, 9312547.307071974501014 ], [ -639608.130689530516975, 9312522.835330121219158 ], [ -639747.514818489202298, 9312451.815569162368774 ], [ -639858.130689530516975, 9312341.199698120355606 ], [ -639908.024251275113784, 9312243.278069684281945 ], [ -639966.857785001047887, 9312358.74538104981184 ], [ -640077.473656042362563, 9312469.361252091825008 ], [ -640216.857785001047887, 9312540.381013050675392 ], [ -640371.366282188566402, 9312564.852754903957248 ], [ -640490.925472581875511, 9312545.916439447551966 ], [ -640503.785364650306292, 9312552.468881733715534 ], [ -640658.293861837824807, 9312576.94062358699739 ], [ -640812.802359025343321, 9312552.468881733715534 ], [ -640871.882590530090965, 9312522.366000220179558 ], [ -640912.914939464186318, 9312563.398349154740572 ], [ -641052.299068422871642, 9312634.418110113590956 ], [ -641206.807565610390157, 9312658.889851966872811 ], [ -641361.316062797908671, 9312634.418110113590956 ], [ -641500.700191756593995, 9312563.398349154740572 ], [ -641611.316062797908671, 9312452.782478112727404 ], [ -641626.172937201568857, 9312423.624220328405499 ], [ -641632.681105538387783, 9312417.116051992401481 ], [ -641703.70086649840232, 9312277.731923034414649 ], [ -641728.172608350869268, 9312123.223425846546888 ], [ -641710.174640190321952, 9312009.588727110996842 ], [ -641979.796251838328317, 9312173.782319536432624 ], [ -642655.206163123017177, 9312789.917921809479594 ], [ -644546.640382735291496, 9315225.301207613199949 ], [ -643700.195557276718318, 9315657.342315988615155 ], [ -643306.70328129734844, 9315664.91750006005168 ], [ -642941.965914804022759, 9315997.769851479679346 ], [ -642772.032537262886763, 9315933.624417344108224 ], [ -642835.814686472294852, 9315741.39273495040834 ], [ -642604.700353569351137, 9315420.008384041488171 ], [ -641808.90422247548122, 9314874.932713221758604 ], [ -641812.329223357490264, 9314871.50771233998239 ], [ -641883.348984317504801, 9314732.123583381995559 ], [ -641907.820726169971749, 9314577.615086194127798 ], [ -641883.348984317504801, 9314423.106589006260037 ], [ -641812.329223357490264, 9314283.722460048273206 ], [ -641778.453456588555127, 9314249.846693279221654 ], [ -641801.158035211963579, 9314106.495625605806708 ], [ -641776.938993352581747, 9313953.582613382488489 ], [ -641843.242165307630785, 9313823.455311555415392 ], [ -641852.308246110216714, 9313766.214330155402422 ], [ -641856.122673436882906, 9313758.728095011785626 ], [ -641958.881701278849505, 9313706.36975516192615 ], [ -642069.497572320164181, 9313595.753884119912982 ], [ -642140.517333280178718, 9313456.36975516192615 ], [ -642164.989075132645667, 9313301.86125797405839 ], [ -642140.517333280178718, 9313147.352760786190629 ], [ -642069.497572320164181, 9313007.968631828203797 ], [ -641958.881701278849505, 9312897.352760786190629 ], [ -641819.497572320164181, 9312826.332999827340245 ], [ -641664.989075132645667, 9312801.86125797405839 ], [ -641510.480577945127152, 9312826.332999827340245 ], [ -641371.096448986441828, 9312897.352760786190629 ], [ -641260.480577945127152, 9313007.968631828203797 ], [ -641253.441557032172568, 9313021.783488219603896 ], [ -641160.723596581839956, 9312974.541327746585011 ], [ -641006.215099394321442, 9312950.069585893303156 ], [ -640851.706602206802927, 9312974.541327746585011 ], [ -640840.545141231501475, 9312980.228376166895032 ], [ -640688.753928817808628, 9312956.187009941786528 ], [ -640648.022625331999734, 9312962.638214647769928 ], [ -640564.213367085787468, 9312919.93526466935873 ], [ -640421.291089537087828, 9312897.298599729314446 ], [ -640419.305729056359269, 9312896.287008037790656 ], [ -640264.797231868840754, 9312871.815266184508801 ], [ -640110.288734681322239, 9312896.287008037790656 ], [ -639970.904605722636916, 9312967.30676899664104 ], [ -639860.288734681322239, 9313077.922640038654208 ], [ -639789.268973721307702, 9313217.30676899664104 ], [ -639764.797231868840754, 9313371.815266184508801 ], [ -639776.376842699828558, 9313444.926051607355475 ], [ -639766.32506316085346, 9313508.390489896759391 ], [ -639790.796805013320409, 9313662.898987084627151 ], [ -639861.816565973334946, 9313802.283116042613983 ], [ -639972.432437014649622, 9313912.898987084627151 ], [ -640111.816565973334946, 9313983.918748043477535 ], [ -640266.32506316085346, 9314008.390489896759391 ], [ -640340.941721679177135, 9313996.572372198104858 ], [ -640350.333838500198908, 9314001.35789474286139 ], [ -640504.842335687717423, 9314025.829636596143246 ], [ -640659.350832875235938, 9314001.35789474286139 ], [ -640752.839606227120385, 9313953.722985478118062 ], [ -640732.150295417406596, 9313974.412296287715435 ], [ -640661.130534457392059, 9314113.796425245702267 ], [ -640636.658792604925111, 9314268.304922433570027 ], [ -640640.900847259326838, 9314295.088201433420181 ], [ -640639.31721797643695, 9314298.196248900145292 ], [ -640614.845476123970002, 9314452.704746088013053 ], [ -640639.31721797643695, 9314607.213243275880814 ], [ -640643.292021091212519, 9314615.014233626425266 ], [ -640321.526143609546125, 9314823.516050273552537 ], [ -640046.119059212505817, 9314536.706803312525153 ], [ -639323.659633826697245, 9314393.309497226029634 ], [ -638717.29352941759862, 9314438.662437416613102 ], [ -638351.950775303412229, 9314737.76699479855597 ], [ -638201.078258115332574, 9314493.51152409426868 ], [ -638204.096017536940053, 9314650.731437379494309 ], [ -637794.042940507875755, 9314377.749813476577401 ], [ -637706.05781471147202, 9314480.544246040284634 ], [ -637668.887908992590383, 9314301.51406023465097 ], [ -637143.601962981279939, 9314468.866860687732697 ], [ -637167.80159761721734, 9314392.653904182836413 ], [ -637241.504744617152028, 9314355.1002750787884 ], [ -637352.120615658466704, 9314244.484404036775231 ], [ -637414.063402243191376, 9314122.914840346202254 ], [ -637531.394520326866768, 9314063.131649665534496 ], [ -637539.80686040839646, 9314054.719309583306313 ], [ -637591.001705058501102, 9314046.610842766240239 ], [ -637730.385834017186426, 9313975.591081807389855 ], [ -637753.817116360878572, 9313952.159799464046955 ], [ -637756.373083448619582, 9313950.857469184324145 ], [ -637866.988954489934258, 9313840.241598142310977 ], [ -637938.008715449948795, 9313700.857469184324145 ], [ -637962.480457302415743, 9313546.348971996456385 ], [ -637938.008715449948795, 9313391.840474808588624 ], [ -637866.988954489934258, 9313252.456345850601792 ], [ -637820.004430541186593, 9313205.471821902319789 ], [ -637824.668940313509665, 9313196.317206019535661 ], [ -637849.140682165976614, 9313041.8087088316679 ], [ -637824.668940313509665, 9312887.300211643800139 ], [ -637753.649179353495128, 9312747.916082685813308 ], [ -637643.033308312180452, 9312637.300211643800139 ], [ -637584.106530582881533, 9312607.275518734008074 ], [ -637607.383102072752081, 9312561.592674996703863 ], [ -637631.854843925219029, 9312407.084177808836102 ], [ -637607.383102072752081, 9312252.575680620968342 ], [ -637536.363341112737544, 9312113.19155166298151 ], [ -637425.747470071422867, 9312002.575680620968342 ], [ -637415.09983748360537, 9311997.150440840050578 ], [ -637473.048985040630214, 9311883.418835060670972 ], [ -637497.520726893097162, 9311728.910337872803211 ], [ -637492.979199877474457, 9311700.236264798790216 ], [ -637534.047920319135301, 9311679.310706555843353 ], [ -637644.663791360449977, 9311568.694835513830185 ], [ -637715.683552320464514, 9311429.310706555843353 ], [ -637740.155294172931463, 9311274.802209367975593 ], [ -637715.683552320464514, 9311120.293712180107832 ], [ -637682.779827922116965, 9311055.716517005115747 ], [ -637728.850398390437476, 9311032.242388879880309 ], [ -637839.466269431752153, 9310921.626517837867141 ], [ -637845.165637592319399, 9310910.440878011286259 ], [ -637865.322699254727922, 9310890.28381634876132 ], [ -637936.342460214742459, 9310750.899687390774488 ], [ -637960.814202067209408, 9310596.391190202906728 ], [ -637936.342460214742459, 9310441.882693015038967 ], [ -637865.322699254727922, 9310302.498564057052135 ], [ -637853.527628863346763, 9310290.703493665903807 ], [ -637843.73238644504454, 9310271.479247990995646 ], [ -638018.829839050536975, 9310284.224460568279028 ] ], [ [ -638680.425450822454877, 9311520.297143671661615 ], [ -638609.40568986244034, 9311380.913014713674784 ], [ -638498.789818821125664, 9311270.297143671661615 ], [ -638359.40568986244034, 9311199.277382712811232 ], [ -638204.897192674921826, 9311174.805640859529376 ], [ -638050.388695487403311, 9311199.277382712811232 ], [ -637911.004566528717987, 9311270.297143671661615 ], [ -637800.388695487403311, 9311380.913014713674784 ], [ -637729.368934527388774, 9311520.297143671661615 ], [ -637704.897192674921826, 9311674.805640859529376 ], [ -637729.368934527388774, 9311829.314138047397137 ], [ -637800.388695487403311, 9311968.698267005383968 ], [ -637911.004566528717987, 9312079.314138047397137 ], [ -638050.388695487403311, 9312150.33389900624752 ], [ -638204.897192674921826, 9312174.805640859529376 ], [ -638359.40568986244034, 9312150.33389900624752 ], [ -638498.789818821125664, 9312079.314138047397137 ], [ -638609.40568986244034, 9311968.698267005383968 ], [ -638680.425450822454877, 9311829.314138047397137 ], [ -638704.897192674921826, 9311674.805640859529376 ], [ -638680.425450822454877, 9311520.297143671661615 ] ] ], [ [ [ -641107.190987844835036, 9311642.385032100602984 ], [ -641073.664111163350753, 9311647.695167699828744 ], [ -641046.165011000819504, 9311661.706659071147442 ], [ -641068.130072191124782, 9311618.59779922477901 ], [ -641107.190987844835036, 9311642.385032100602984 ] ] ], [ [ [ -636160.574701147619635, 9313633.967790465801954 ], [ -636144.772263705264777, 9313982.509098814800382 ], [ -635605.471295526018366, 9314004.082180021330714 ], [ -635625.188856010558084, 9315621.301349297165871 ], [ -635301.801528310170397, 9315762.282833034172654 ], [ -634882.273183754878119, 9315579.337631050497293 ], [ -634992.87715636449866, 9314307.882059317082167 ], [ -634959.154419492580928, 9313987.087680358439684 ], [ -634988.539468693430535, 9313957.702631156891584 ], [ -635059.559229653445072, 9313818.318502198904753 ], [ -635084.030971505912021, 9313663.810005011036992 ], [ -635059.559229653445072, 9313509.301507823169231 ], [ -634988.539468693430535, 9313369.9173788651824 ], [ -634877.923597652115859, 9313259.301507823169231 ], [ -634738.539468693430535, 9313188.281746864318848 ], [ -634649.38586738309823, 9313174.161203617230058 ], [ -634610.687110524508171, 9313098.210616856813431 ], [ -634500.071239483193494, 9312987.594745814800262 ], [ -634360.687110524508171, 9312916.574984855949879 ], [ -634321.080468290951103, 9312910.301908992230892 ], [ -634331.112899591564201, 9312905.190129924565554 ], [ -634441.728770632878877, 9312794.574258882552385 ], [ -634456.498921088408679, 9312765.586206430569291 ], [ -634562.773362674750388, 9312782.418424382805824 ], [ -634584.53217715350911, 9312778.972166730090976 ], [ -634589.18102607387118, 9312779.70847206376493 ], [ -634697.492541900719516, 9312762.553613247349858 ], [ -634707.95229479088448, 9312764.21027535572648 ], [ -634738.844796518678777, 9312759.317383758723736 ], [ -634763.056569518754259, 9312763.152151875197887 ], [ -634917.565066706272773, 9312738.680410021916032 ], [ -635056.949195664958097, 9312667.660649063065648 ], [ -635143.959131813142449, 9312580.650712914764881 ], [ -635196.689590724767186, 9312684.140065534040332 ], [ -635293.337897947872989, 9312780.788372756913304 ], [ -635211.405591795570217, 9312862.72067891061306 ], [ -635140.38583083555568, 9313002.104807868599892 ], [ -635115.914088983088732, 9313156.613305056467652 ], [ -635140.38583083555568, 9313311.121802244335413 ], [ -635211.405591795570217, 9313450.505931202322245 ], [ -635322.021462836884893, 9313561.121802244335413 ], [ -635461.405591795570217, 9313632.141563203185797 ], [ -635615.914088983088732, 9313656.613305056467652 ], [ -635770.422586170607246, 9313632.141563203185797 ], [ -635883.649812182993628, 9313574.449409974738955 ], [ -635927.945939462049864, 9313567.433592647314072 ], [ -635983.872543663834222, 9313538.937564503401518 ], [ -636024.516124057932757, 9313559.646503072232008 ], [ -636173.742300405516289, 9313583.281607495620847 ], [ -636164.168236465542577, 9313643.72986819781363 ], [ -636160.574701147619635, 9313633.967790465801954 ] ] ], [ [ [ -634685.400646244175732, 9315279.808518901467323 ], [ -634517.447945934953168, 9315316.717824721708894 ], [ -634268.963140526553616, 9314669.959298882633448 ], [ -634033.792231500148773, 9314719.388139983639121 ], [ -634139.588482893304899, 9315548.595284460112453 ], [ -633627.649158952757716, 9313080.212007071822882 ], [ -633658.211067705182359, 9313085.052537884563208 ], [ -633812.719564892700873, 9313060.580796031281352 ], [ -633866.912737716920674, 9313032.967995289713144 ], [ -633801.670116149471141, 9313098.210616856813431 ], [ -633730.650355189456604, 9313237.594745814800262 ], [ -633706.178613336989656, 9313392.103243002668023 ], [ -633713.568316647317261, 9313438.759993471205235 ], [ -633712.691195103339851, 9313444.297920947894454 ], [ -633737.162936955806799, 9313598.806418135762215 ], [ -633808.182697915821336, 9313738.190547093749046 ], [ -633918.798568957136013, 9313848.806418135762215 ], [ -634058.182697915821336, 9313919.826179094612598 ], [ -634169.181131929391995, 9313937.406603943556547 ], [ -634179.522474318393506, 9313957.702631156891584 ], [ -634290.138345359708183, 9314068.318502198904753 ], [ -634429.522474318393506, 9314139.338263157755136 ], [ -634475.658859511138871, 9314146.645548705011606 ], [ -634685.400646244175732, 9315279.808518901467323 ] ] ], [ [ [ -634339.620580415474251, 9311078.446417134255171 ], [ -634383.762102596578188, 9311100.937646064907312 ], [ -634357.30093451810535, 9311105.128683362156153 ], [ -634337.641783732571639, 9311115.145521001890302 ], [ -634339.620580415474251, 9311078.446417134255171 ] ] ], [ [ [ -635999.016807667212561, 9310016.637698855251074 ], [ -635860.412112692487426, 9310038.590525895357132 ], [ -635740.828590764896944, 9310099.521373657509685 ], [ -635716.686347375041805, 9310052.139553153887391 ], [ -635999.016807667212561, 9310016.637698855251074 ] ] ], [ [ [ -636406.469029341009445, 9311588.369055533781648 ], [ -636511.318807450588793, 9311641.79268585331738 ], [ -636497.520726893097162, 9311728.910337872803211 ], [ -636504.433064324432053, 9311772.553118798881769 ], [ -636374.723614310612902, 9311752.009160153567791 ], [ -636220.215117123094387, 9311776.480902006849647 ], [ -636208.909712192718871, 9311782.241293536499143 ], [ -636156.453426323947497, 9311679.290035810321569 ], [ -636045.83755528263282, 9311568.674164768308401 ], [ -636013.855738417245448, 9311552.378615153953433 ], [ -636003.687416978529654, 9311532.422160675749183 ], [ -635897.411287931725383, 9311426.146031627431512 ], [ -635955.984905561781488, 9311311.188834322616458 ], [ -635980.456647414248437, 9311156.680337134748697 ], [ -635976.560265417443588, 9311132.079549400135875 ], [ -636012.444377305335365, 9311113.795681161805987 ], [ -636028.947164512239397, 9311116.409465877339244 ], [ -636031.195409244275652, 9311130.604324460029602 ], [ -636102.215170204290189, 9311269.988453418016434 ], [ -636131.885805470403284, 9311299.659088684245944 ], [ -636156.644317077589221, 9311348.250403665006161 ], [ -636267.260188118903898, 9311458.866274707019329 ], [ -636292.881505825906061, 9311471.920988127589226 ], [ -636295.853158299694769, 9311477.753184491768479 ], [ -636406.469029341009445, 9311588.369055533781648 ] ] ] ] } }
]
}
