{
"type": "FeatureCollection",
"name": "Populasi Wilayah Penjaringan",
"crs": { "type": "name", "properties": { "name": "urn:ogc:def:crs:OGC:1.3:CRS84" } },
"xy_coordinate_resolution": 1e-15,
"features": [
{ "type": "Feature", "properties": { "GID_4": "IDN.7.5.6.4_1", "GID_0": "IDN", "COUNTRY": "Indonesia", "GID_1": "IDN.7_1", "NAME_1": "JakartaRaya", "GID_2": "IDN.7.5_1", "NAME_2": "JakartaUtara", "GID_3": "IDN.7.5.6_1", "NAME_3": "Penjaringan", "NAME_4": "Penjaringan", "VARNAME_4": "NA", "TYPE_4": "Kelurahan", "ENGTYPE_4": "UrbanCommunity", "CC_4": "3175010004", "Populasi Wilayah Penjaringansum": 59350.345195770264 }, "geometry": { "type": "MultiPolygon", "coordinates": [ [ [ [ 106.8063, -6.1319 ], [ 106.8011, -6.1337 ], [ 106.8002, -6.1366 ], [ 106.7929, -6.1372 ], [ 106.7925, -6.1325 ], [ 106.7851, -6.1315 ], [ 106.7839, -6.1262 ], [ 106.7894, -6.1264 ], [ 106.7943, -6.1244 ], [ 106.8019, -6.1252 ], [ 106.8019, -6.1146 ], [ 106.7975, -6.1122 ], [ 106.7962, -6.1091 ], [ 106.8006, -6.1083 ], [ 106.7987, -6.0968 ], [ 106.8002, -6.0965 ], [ 106.8023, -6.1023 ], [ 106.8044, -6.1019 ], [ 106.8036, -6.0945 ], [ 106.8104, -6.1308 ], [ 106.8063, -6.1319 ] ] ] ] } }
]
}
