{
"type": "FeatureCollection",
"name": "Populasi Indomaret Kamal Muara",
"crs": { "type": "name", "properties": { "name": "urn:ogc:def:crs:OGC:1.3:CRS84" } },
"features": [
{ "type": "Feature", "properties": { "GID_4": "IDN.7.5.6.1_1", "GID_0": "IDN", "COUNTRY": "Indonesia", "GID_1": "IDN.7_1", "NAME_1": "JakartaRaya", "GID_2": "IDN.7.5_1", "NAME_2": "JakartaUtara", "GID_3": "IDN.7.5.6_1", "NAME_3": "Penjaringan", "NAME_4": "KamalMuara", "VARNAME_4": "NA", "TYPE_4": "Kelurahan", "ENGTYPE_4": "UrbanCommunity", "CC_4": "3175010001", "Populasi indo kamalsum": 41995.312961578369 }, "geometry": { "type": "MultiPolygon", "coordinates": [ [ [ [ 106.747651041449203, -6.131452242452758 ], [ 106.7486537370105, -6.130486684930949 ], [ 106.749905460811931, -6.129878507548195 ], [ 106.751283691758459, -6.129687244989895 ], [ 106.752653523701511, -6.129931624158476 ], [ 106.75335436987416, -6.13030627719994 ], [ 106.7534, -6.1307 ], [ 106.7527, -6.1351 ], [ 106.747431354143515, -6.131863928179515 ], [ 106.747651041449203, -6.131452242452758 ] ] ], [ [ [ 106.752481302151864, -6.127304817045515 ], [ 106.75187365332711, -6.126051957501273 ], [ 106.751682542773239, -6.124672474427331 ], [ 106.75192667302521, -6.123301396448531 ], [ 106.752432645959047, -6.122353116560982 ], [ 106.753078522829753, -6.127926111273941 ], [ 106.752481302151864, -6.127304817045515 ] ] ], [ [ [ 106.74237056770157, -6.127846107652996 ], [ 106.742150010797019, -6.127616650868428 ], [ 106.741271191933507, -6.128043638329265 ], [ 106.741222535593707, -6.128050389882422 ], [ 106.735662440640752, -6.124635306180362 ], [ 106.735532694652107, -6.12369857307548 ], [ 106.735776850415093, -6.122327571550996 ], [ 106.736432322923562, -6.121099184363779 ], [ 106.737434952643156, -6.120133650165991 ], [ 106.738686600775409, -6.119525480693751 ], [ 106.740064753633234, -6.119334209863774 ], [ 106.741434512708068, -6.119578565394468 ], [ 106.742661797683482, -6.120234633773612 ], [ 106.742882357353196, -6.120464085551884 ], [ 106.743761156391329, -6.120037072347691 ], [ 106.745139331026962, -6.119845787225772 ], [ 106.746509115280574, -6.120090135485521 ], [ 106.74773642637237, -6.120746204324055 ], [ 106.748701123864848, -6.121749777593165 ], [ 106.749308770868552, -6.123002620027899 ], [ 106.749499880312086, -6.124382092634549 ], [ 106.749255740374977, -6.12575315823149 ], [ 106.748600247924571, -6.126981601658737 ], [ 106.747597569802466, -6.127947169871885 ], [ 106.746345860707251, -6.128555344844743 ], [ 106.744967652998795, -6.128746596219166 ], [ 106.74359785995054, -6.128502207770716 ], [ 106.74237056770157, -6.127846107652996 ] ] ], [ [ [ 106.733592612227781, -6.116749098298852 ], [ 106.732627983177451, -6.11574555994043 ], [ 106.732020388099087, -6.114492777780909 ], [ 106.731829296278008, -6.113113380813575 ], [ 106.732073408418941, -6.111742389223878 ], [ 106.732728827884159, -6.110513999507408 ], [ 106.733731400336112, -6.109548450565025 ], [ 106.734680296786863, -6.109087347343522 ], [ 106.734779107791923, -6.108532343870594 ], [ 106.735391272751329, -6.107384973308638 ], [ 106.735201457061223, -6.106015059611495 ], [ 106.73543736479742, -6.104689907995013 ], [ 106.735177277496007, -6.104419345997075 ], [ 106.734569640065146, -6.1031665787604 ], [ 106.734378495064462, -6.101787178856222 ], [ 106.734622548410314, -6.100416166757994 ], [ 106.735277909225218, -6.099187740970997 ], [ 106.735280007698222, -6.099185719784439 ], [ 106.7381, -6.1012 ], [ 106.7448, -6.1022 ], [ 106.745471676928801, -6.101427571531882 ], [ 106.745637707852865, -6.101769854798657 ], [ 106.745828889429319, -6.103149299389178 ], [ 106.745584843871328, -6.104520363030291 ], [ 106.744929458818703, -6.105748830753488 ], [ 106.744014728652701, -6.106629847009141 ], [ 106.743930561899589, -6.107102663368519 ], [ 106.74441711883064, -6.107608804786476 ], [ 106.745361514356105, -6.107149855989191 ], [ 106.746739653531364, -6.106958509921554 ], [ 106.748109421431408, -6.107202799662692 ], [ 106.748202043143678, -6.107252307398971 ], [ 106.748862085012618, -6.107160661826827 ], [ 106.750231863414001, -6.107404948485827 ], [ 106.75073117287937, -6.107671834559132 ], [ 106.751581695466342, -6.115010629452403 ], [ 106.751320672766639, -6.115262021169281 ], [ 106.750710514898472, -6.115558525517334 ], [ 106.750011101653101, -6.116232122507644 ], [ 106.748759436397762, -6.116840353791551 ], [ 106.747381257172492, -6.117031663684243 ], [ 106.746011474456296, -6.116787330232679 ], [ 106.745299101533348, -6.116406531308073 ], [ 106.74492492043322, -6.116458471182496 ], [ 106.743582238741965, -6.116218967563937 ], [ 106.743468797049019, -6.116274091733074 ], [ 106.742090640627822, -6.116465386874643 ], [ 106.740720884219982, -6.116221045990914 ], [ 106.739881746898675, -6.115772475582449 ], [ 106.739821972248095, -6.115884504343911 ], [ 106.738819360484229, -6.116850063687464 ], [ 106.737567723520399, -6.117458244222544 ], [ 106.736189586655513, -6.117649515051542 ], [ 106.734819856223751, -6.117405158050787 ], [ 106.733592612227781, -6.116749098298852 ] ] ] ] } }
]
}
