{
"type": "FeatureCollection",
"name": "Populasi Alfamart Penjaringan",
"crs": { "type": "name", "properties": { "name": "urn:ogc:def:crs:OGC:1.3:CRS84" } },
"xy_coordinate_resolution": 1e-15,
"features": [
{ "type": "Feature", "properties": { "GID_4": "IDN.7.5.6.4_1", "GID_0": "IDN", "COUNTRY": "Indonesia", "GID_1": "IDN.7_1", "NAME_1": "JakartaRaya", "GID_2": "IDN.7.5_1", "NAME_2": "JakartaUtara", "GID_3": "IDN.7.5.6_1", "NAME_3": "Penjaringan", "NAME_4": "Penjaringan", "VARNAME_4": "NA", "TYPE_4": "Kelurahan", "ENGTYPE_4": "UrbanCommunity", "CC_4": "3175010004", "Populasi Alfa Penjaringansum": 38330.611068725586 }, "geometry": { "type": "MultiPolygon", "coordinates": [ [ [ [ 106.801968554423254, -6.119954647312551 ], [ 106.802933521359293, -6.120958288003174 ], [ 106.803541404284871, -6.122211278320012 ], [ 106.803725577838335, -6.123539645044935 ], [ 106.804648689729348, -6.123411423942297 ], [ 106.806018763930609, -6.123655676203636 ], [ 106.807246379886024, -6.124311740530427 ], [ 106.808211367343418, -6.125315401200247 ], [ 106.808819261060378, -6.126568414395414 ], [ 106.80901054983795, -6.127948124427173 ], [ 106.808766504306661, -6.12931947090303 ], [ 106.808111012079138, -6.130548211196936 ], [ 106.807108239947738, -6.13151406322096 ], [ 106.806331547028464, -6.131891536163094 ], [ 106.8063, -6.1319 ], [ 106.80552390169845, -6.132168649412072 ], [ 106.804477897449274, -6.13231391086662 ], [ 106.803331476276156, -6.132109498775534 ], [ 106.803151247740843, -6.132447327108265 ], [ 106.802271782319224, -6.133294383043345 ], [ 106.8011, -6.1337 ], [ 106.801018616624773, -6.133962235320197 ], [ 106.800896589794903, -6.134021537838519 ], [ 106.800681881057542, -6.134051351832303 ], [ 106.800946986975461, -6.134193041967957 ], [ 106.8002, -6.1366 ], [ 106.7929, -6.1372 ], [ 106.792580321987913, -6.133443783357974 ], [ 106.793494282542568, -6.133932280998932 ], [ 106.79445918973471, -6.134935953337504 ], [ 106.794815237217165, -6.135669943109893 ], [ 106.795047247709334, -6.135235082133429 ], [ 106.796050022850793, -6.134269301383418 ], [ 106.796455412345608, -6.134072296432402 ], [ 106.79634689690694, -6.134052945439294 ], [ 106.795119333445271, -6.133396840172698 ], [ 106.794154421023364, -6.132393171670121 ], [ 106.793546606437317, -6.131140187482282 ], [ 106.793355380478189, -6.129760536401735 ], [ 106.793599456980147, -6.12838926352014 ], [ 106.794254942773748, -6.127160592896074 ], [ 106.794782523595188, -6.126652445113143 ], [ 106.794328198165545, -6.126179884704683 ], [ 106.793720365794371, -6.124926912031601 ], [ 106.793715746889248, -6.124893591711132 ], [ 106.79364647946953, -6.125023432822518 ], [ 106.793026923500861, -6.125620172909922 ], [ 106.793100056815831, -6.126147765037127 ], [ 106.792855990023796, -6.127519037180621 ], [ 106.79220050196713, -6.128747699939923 ], [ 106.791197759037516, -6.129713478812661 ], [ 106.789945922254674, -6.130321835150068 ], [ 106.788567536460704, -6.130513220826159 ], [ 106.787197532356856, -6.130268906448222 ], [ 106.785970016751406, -6.129612812898507 ], [ 106.785005144768022, -6.128609167618103 ], [ 106.784397359239776, -6.127356215883378 ], [ 106.784238817993071, -6.126212320654293 ], [ 106.7894, -6.1264 ], [ 106.7943, -6.1244 ], [ 106.8019, -6.1252 ], [ 106.8019, -6.119918010358435 ], [ 106.801968554423254, -6.119954647312551 ] ] ], [ [ [ 106.79838865117884, -6.111763597173157 ], [ 106.799044050831981, -6.110534868535285 ], [ 106.800046709093479, -6.109568991160148 ], [ 106.801298484337948, -6.108960510377141 ], [ 106.802676850407224, -6.108768990557787 ], [ 106.804046887909095, -6.109013183762736 ], [ 106.805274489280151, -6.109669192338349 ], [ 106.806239485690966, -6.110672806017095 ], [ 106.806847411022289, -6.111925785577475 ], [ 106.807038750984688, -6.113305478619676 ], [ 106.80679477120556, -6.114676826412312 ], [ 106.806139352868712, -6.115905586200715 ], [ 106.805136655538433, -6.116871473991124 ], [ 106.803884835763085, -6.117479940475869 ], [ 106.802506436710075, -6.117671426744871 ], [ 106.8019, -6.117563319471909 ], [ 106.8019, -6.1146 ], [ 106.798239259848401, -6.112603232644579 ], [ 106.79838865117884, -6.111763597173157 ] ] ] ] } }
]
}
