{
"type": "FeatureCollection",
"name": "Populasi Indomaret Kapuk Muara",
"crs": { "type": "name", "properties": { "name": "urn:ogc:def:crs:OGC:1.3:CRS84" } },
"features": [
{ "type": "Feature", "properties": { "GID_4": "IDN.7.5.6.2_1", "GID_0": "IDN", "COUNTRY": "Indonesia", "GID_1": "IDN.7_1", "NAME_1": "JakartaRaya", "GID_2": "IDN.7.5_1", "NAME_2": "JakartaUtara", "GID_3": "IDN.7.5.6_1", "NAME_3": "Penjaringan", "NAME_4": "KapukMuara", "VARNAME_4": "NA", "TYPE_4": "Kelurahan", "ENGTYPE_4": "UrbanCommunity", "CC_4": "3175010002", "Populasi Indomaret Kapuksum": 27332.954399108887 }, "geometry": { "type": "MultiPolygon", "coordinates": [ [ [ [ 106.769269496041233, -6.139137035274422 ], [ 106.769212674952186, -6.139019881664429 ], [ 106.769021559234361, -6.137640321735036 ], [ 106.769265718804462, -6.136269170522974 ], [ 106.769921252362863, -6.135040640164598 ], [ 106.770923994380482, -6.134074983333154 ], [ 106.771302334350196, -6.133891145811948 ], [ 106.771022700651073, -6.133314622190604 ], [ 106.77083155651853, -6.131935058708818 ], [ 106.771075685543735, -6.130563894688972 ], [ 106.771731189419427, -6.129335343522476 ], [ 106.772733905522784, -6.128369659921095 ], [ 106.773985686581483, -6.127761370242529 ], [ 106.775229254206025, -6.127588727538742 ], [ 106.7774, -6.134 ], [ 106.7761, -6.1351 ], [ 106.7755, -6.1418 ], [ 106.76938965474055, -6.140004416086041 ], [ 106.769269496041233, -6.139137035274422 ] ] ], [ [ [ 106.77316542070875, -6.120479328026013 ], [ 106.77193797974104, -6.11982326792296 ], [ 106.770973164648282, -6.118819670495705 ], [ 106.770365412687724, -6.117566776333608 ], [ 106.770174208515655, -6.116187225406692 ], [ 106.770326335821466, -6.115332530807704 ], [ 106.7733, -6.1164 ], [ 106.7748, -6.1186 ], [ 106.773571161847698, -6.12055168412425 ], [ 106.77316542070875, -6.120479328026013 ] ] ], [ [ [ 106.769455973306748, -6.113046771377427 ], [ 106.769264754236772, -6.111667226906652 ], [ 106.769355995631116, -6.111154565499367 ], [ 106.7702, -6.1123 ], [ 106.769780506903956, -6.113715789199148 ], [ 106.769455973306748, -6.113046771377427 ] ] ], [ [ [ 106.752653523701511, -6.129931624158476 ], [ 106.753880869199051, -6.130587729223357 ], [ 106.754845584451175, -6.131591340490528 ], [ 106.755453230832757, -6.132844218978104 ], [ 106.755644321332412, -6.134223722167176 ], [ 106.755400145979777, -6.135594809886221 ], [ 106.755262378716608, -6.135852979710582 ], [ 106.7527, -6.1351 ], [ 106.752412252952695, -6.129888581254347 ], [ 106.752653523701511, -6.129931624158476 ] ] ], [ [ [ 106.764098236237416, -6.13184489872137 ], [ 106.763133475440924, -6.130841274748446 ], [ 106.762525790387485, -6.129588378943869 ], [ 106.762334659176801, -6.128208851438176 ], [ 106.762578786365353, -6.126837725211055 ], [ 106.763234273829141, -6.125609209950736 ], [ 106.764236960556701, -6.124643556852618 ], [ 106.765488702155437, -6.124035289289701 ], [ 106.766866975780047, -6.123843950770866 ], [ 106.768236871099418, -6.124088275626691 ], [ 106.769464294468122, -6.124744353335124 ], [ 106.770429094469023, -6.125747966874472 ], [ 106.771036824189537, -6.127000877039477 ], [ 106.771227988468652, -6.128380438214403 ], [ 106.770983870118854, -6.129751604559064 ], [ 106.770328363888055, -6.130980151061692 ], [ 106.769325637956086, -6.131945814593383 ], [ 106.768073851690289, -6.132554067795875 ], [ 106.766695544997262, -6.132745372645473 ], [ 106.765325640839109, -6.132501007672111 ], [ 106.764098236237416, -6.13184489872137 ] ] ], [ [ [ 106.753446014697104, -6.128308416483094 ], [ 106.752481302151864, -6.127304817045515 ], [ 106.75224239310981, -6.126812230766483 ], [ 106.75203711465835, -6.123094409923277 ], [ 106.752582145662942, -6.122072928525397 ], [ 106.753584801132007, -6.121107317217392 ], [ 106.75483649810495, -6.120499081807983 ], [ 106.756214718107827, -6.120307762662817 ], [ 106.757584556057921, -6.120552092221589 ], [ 106.758811923921613, -6.121208159506718 ], [ 106.759776675709332, -6.122211748519058 ], [ 106.760384369222507, -6.123464622453051 ], [ 106.760575512841328, -6.124844139235337 ], [ 106.760331391401138, -6.126215257365631 ], [ 106.759675899956207, -6.127443756546904 ], [ 106.758673205244705, -6.128409378280146 ], [ 106.757421463583313, -6.129017599299801 ], [ 106.756043210515486, -6.129208884736626 ], [ 106.754673363753625, -6.128964515026361 ], [ 106.753446014697104, -6.128308416483094 ] ] ], [ [ [ 106.751459189763253, -6.108060967113022 ], [ 106.752423922127591, -6.109064506471627 ], [ 106.753031620206471, -6.110317334613104 ], [ 106.753222791934718, -6.11169681394166 ], [ 106.752978719401867, -6.113067906618697 ], [ 106.752323292882622, -6.1142963948363 ], [ 106.751590312708316, -6.11500233016173 ], [ 106.751199379525687, -6.107922095853975 ], [ 106.751459189763253, -6.108060967113022 ] ] ] ] } }
]
}
