{
"type": "FeatureCollection",
"name": "Populasi Indomaret Pejagalan",
"crs": { "type": "name", "properties": { "name": "urn:ogc:def:crs:OGC:1.3:CRS84" } },
"features": [
{ "type": "Feature", "properties": { "GID_4": "IDN.7.5.6.3_1", "GID_0": "IDN", "COUNTRY": "Indonesia", "GID_1": "IDN.7_1", "NAME_1": "JakartaRaya", "GID_2": "IDN.7.5_1", "NAME_2": "JakartaUtara", "GID_3": "IDN.7.5.6_1", "NAME_3": "Penjaringan", "NAME_4": "Pejagalan", "VARNAME_4": "NA", "TYPE_4": "Kelurahan", "ENGTYPE_4": "UrbanCommunity", "CC_4": "3175010003", "Populasi Indomaret Pejagalansum": 30204.012382507324 }, "geometry": { "type": "MultiPolygon", "coordinates": [ [ [ [ 106.775364005885436, -6.127570020157001 ], [ 106.776733948633051, -6.12781434512282 ], [ 106.777961416539696, -6.128470434603404 ], [ 106.778926253833404, -6.1294740704231 ], [ 106.779279946739365, -6.130203237632443 ], [ 106.780013640746333, -6.129846702751513 ], [ 106.781391990626204, -6.129655342041311 ], [ 106.782761965964283, -6.129899664669455 ], [ 106.783989465288016, -6.130555760325461 ], [ 106.784954329753333, -6.131559410227932 ], [ 106.785562106144766, -6.132812371613988 ], [ 106.785666951909747, -6.133568937092982 ], [ 106.786219735752439, -6.133667522945133 ], [ 106.78652418454314, -6.133519577929036 ], [ 106.78649319882301, -6.133295987240111 ], [ 106.786737304979269, -6.131924749602017 ], [ 106.786838572411398, -6.131734942217756 ], [ 106.7925, -6.1325 ], [ 106.7929, -6.1372 ], [ 106.798017958765627, -6.13677934585488 ], [ 106.798044142830889, -6.136968268982667 ], [ 106.797802384901061, -6.138326350277433 ], [ 106.797917417964044, -6.139156380274348 ], [ 106.797800955970473, -6.139810584001019 ], [ 106.797955809649807, -6.140129817876863 ], [ 106.798147009750565, -6.141509493638355 ], [ 106.798020128552039, -6.142222188022767 ], [ 106.788766170943447, -6.143424473853804 ], [ 106.788362997034653, -6.14259326907466 ], [ 106.78826170167504, -6.141862212007363 ], [ 106.787896642188542, -6.141797098617661 ], [ 106.787758336090775, -6.141723171048672 ], [ 106.78668327714351, -6.142245548291479 ], [ 106.785304865452929, -6.142436871977109 ], [ 106.783934854523011, -6.142192500291782 ], [ 106.782707351835313, -6.141536359729969 ], [ 106.781899436589114, -6.140695924197783 ], [ 106.781857707831833, -6.140930279739433 ], [ 106.781202147946559, -6.142158859207108 ], [ 106.780199352741448, -6.143124541807438 ], [ 106.77894748835962, -6.14373279831253 ], [ 106.777569102353667, -6.143924090369707 ], [ 106.776199125453743, -6.143679697754935 ], [ 106.775298207320049, -6.143198106067521 ], [ 106.7761, -6.1351 ], [ 106.7774, -6.134 ], [ 106.775228476540633, -6.12758883550091 ], [ 106.775364005885436, -6.127570020157001 ] ] ], [ [ [ 106.783077994163222, -6.127937365266012 ], [ 106.781708020992198, -6.127693051656632 ], [ 106.780480534200279, -6.12703696633622 ], [ 106.779515686087549, -6.126033335941338 ], [ 106.778907917147691, -6.124780404290459 ], [ 106.778860256637117, -6.124436519651214 ], [ 106.7839, -6.1254 ], [ 106.784364027208753, -6.127758804977835 ], [ 106.783077994163222, -6.127937365266012 ] ] ] ] } }
]
}
