{
"type": "FeatureCollection",
"name": "Populasi Yang Terlayani Alfamart",
"crs": { "type": "name", "properties": { "name": "urn:ogc:def:crs:OGC:1.3:CRS84" } },
"xy_coordinate_resolution": 1e-15,
"features": [
{ "type": "Feature", "properties": { "GID_3": "IDN.7.5.6_1", "GID_0": "IDN", "COUNTRY": "Indonesia", "GID_1": "IDN.7_1", "NAME_1": "JakartaRaya", "NL_NAME_1": "NA", "GID_2": "IDN.7.5_1", "NAME_2": "JakartaUtara", "NL_NAME_2": "NA", "NAME_3": "Penjaringan", "VARNAME_3": "NA", "NL_NAME_3": "NA", "TYPE_3": "Kecamatan", "ENGTYPE_3": "Sub-district", "CC_3": "3175010", "HASC_3": "NA", "PopulasiYangTerlayaniAlfamartsum": 181593.88188934326 }, "geometry": { "type": "MultiPolygon", "coordinates": [ [ [ [ 106.768961739981222, -6.13931499245652 ], [ 106.768770626245569, -6.137935433333083 ], [ 106.769014787690892, -6.136564283533744 ], [ 106.769670322833889, -6.13533575505642 ], [ 106.770673065990437, -6.134370100390106 ], [ 106.771924867241282, -6.133761843058737 ], [ 106.773275895226377, -6.1335743153252 ], [ 106.773229050271581, -6.133525584669099 ], [ 106.772621329038572, -6.132272655843287 ], [ 106.772430175592532, -6.130893086698281 ], [ 106.772674296666423, -6.129521914294939 ], [ 106.773176786270255, -6.128580129208148 ], [ 106.773086139569273, -6.127925976563906 ], [ 106.773330245298666, -6.126554798861894 ], [ 106.773864131355623, -6.125554137957974 ], [ 106.77377746465001, -6.125507813972127 ], [ 106.772812647759451, -6.124504196853513 ], [ 106.772204903512772, -6.123251286623639 ], [ 106.772013715809905, -6.121871724827049 ], [ 106.77225779474162, -6.120500547804475 ], [ 106.772507897207973, -6.120031758607923 ], [ 106.772317314383159, -6.119929893221934 ], [ 106.771352497549813, -6.118926294980699 ], [ 106.770744744248006, -6.117673399566214 ], [ 106.77055353926535, -6.116293847071243 ], [ 106.770797594386735, -6.114922672924905 ], [ 106.770897818335357, -6.114734806004734 ], [ 106.770285286982315, -6.114097664489303 ], [ 106.769677524984644, -6.112844781360564 ], [ 106.769486304398058, -6.111465236140888 ], [ 106.769730338537173, -6.110094063546391 ], [ 106.770385738392903, -6.108865477808915 ], [ 106.771388351530916, -6.107899737028038 ], [ 106.772640040757622, -6.107291373163635 ], [ 106.774018288345758, -6.107099939152112 ], [ 106.774095758196353, -6.107113751346264 ], [ 106.774151750260287, -6.10679910473774 ], [ 106.774807131987842, -6.105570489744082 ], [ 106.775809734554088, -6.104604716799026 ], [ 106.776468281391118, -6.104284623162616 ], [ 106.7745, -6.1101 ], [ 106.7765, -6.106 ], [ 106.7844, -6.1086 ], [ 106.78526742448949, -6.111105892969601 ], [ 106.785024444071325, -6.112471353256031 ], [ 106.784654709432914, -6.113164468185504 ], [ 106.785251576073733, -6.114394803164093 ], [ 106.785442836257801, -6.115774412559417 ], [ 106.785317255215602, -6.11648007222025 ], [ 106.785753058021584, -6.116712987653242 ], [ 106.785583547198158, -6.115490241382668 ], [ 106.785827570447537, -6.114118995056302 ], [ 106.786482985940808, -6.112890335258204 ], [ 106.787485639704599, -6.111924527341194 ], [ 106.788737390560456, -6.111316109835428 ], [ 106.790115714743322, -6.111124640922067 ], [ 106.791485696963861, -6.111368867684846 ], [ 106.792713235068589, -6.112024889191497 ], [ 106.793678166416129, -6.113028493912687 ], [ 106.794286031249385, -6.114281443503934 ], [ 106.794477321195131, -6.115661088495367 ], [ 106.794233306774004, -6.117032374853014 ], [ 106.793577872562182, -6.118261065829655 ], [ 106.792901997574418, -6.118912086411643 ], [ 106.79374688439411, -6.119790861054799 ], [ 106.794354730967257, -6.121043823887586 ], [ 106.794359350288673, -6.121077144210317 ], [ 106.794428615560832, -6.120947301871965 ], [ 106.795431319311888, -6.119981479721527 ], [ 106.796683126648972, -6.119373059405436 ], [ 106.798061508277883, -6.119181599375811 ], [ 106.798233775445354, -6.119212310893614 ], [ 106.799370925719387, -6.1190543546408 ], [ 106.800740966713022, -6.119298598111349 ], [ 106.801968554423254, -6.119954647312551 ], [ 106.802933521359293, -6.120958288003174 ], [ 106.803541404284871, -6.122211278320012 ], [ 106.803725577838335, -6.123539645044935 ], [ 106.804648689729348, -6.123411423942297 ], [ 106.806018763930609, -6.123655676203636 ], [ 106.807246379886024, -6.124311740530427 ], [ 106.808211367343418, -6.125315401200247 ], [ 106.808819261060378, -6.126568414395414 ], [ 106.80901054983795, -6.127948124427173 ], [ 106.808766504306661, -6.12931947090303 ], [ 106.808111012079138, -6.130548211196936 ], [ 106.807108239947738, -6.13151406322096 ], [ 106.80585635178241, -6.132122481164861 ], [ 106.804477897449274, -6.13231391086662 ], [ 106.803331476276156, -6.132109498775534 ], [ 106.803151247740843, -6.132447327108265 ], [ 106.802210027072789, -6.133353862525691 ], [ 106.8011, -6.1337 ], [ 106.801083105229978, -6.13393089519036 ], [ 106.800896589794903, -6.134021537838519 ], [ 106.800681881057542, -6.134051351832303 ], [ 106.801059522789075, -6.134253188549444 ], [ 106.8005, -6.1419 ], [ 106.793128220268358, -6.142683614380923 ], [ 106.792974314427937, -6.142366321531403 ], [ 106.792838424446998, -6.141385663311785 ], [ 106.792103847435158, -6.141742609127154 ], [ 106.79072541600668, -6.1419339526456 ], [ 106.789623968640072, -6.141737498907682 ], [ 106.788637564685402, -6.142687431123291 ], [ 106.7873901146978, -6.143293570484879 ], [ 106.785843984232955, -6.143457922935866 ], [ 106.784637244899898, -6.143242672370134 ], [ 106.783409738294438, -6.142586527979478 ], [ 106.782444895571572, -6.141582846492344 ], [ 106.781837156698259, -6.14032987673235 ], [ 106.781760677853612, -6.139777896862921 ], [ 106.781256181639321, -6.14072338057041 ], [ 106.780253393470829, -6.141689067912041 ], [ 106.779001535132494, -6.142297330256119 ], [ 106.777623153584884, -6.142488628678672 ], [ 106.776253179120943, -6.142244242332637 ], [ 106.775459015264246, -6.141819720521632 ], [ 106.774801707938082, -6.142139090489215 ], [ 106.7747, -6.1413 ], [ 106.769842090123689, -6.14085157754988 ], [ 106.769569426056094, -6.140567924825546 ], [ 106.768961739981222, -6.13931499245652 ] ], [ [ 106.780215936536308, -6.124461207823188 ], [ 106.781180790130946, -6.125464834330907 ], [ 106.781788566987956, -6.126717773561118 ], [ 106.781979767336608, -6.128097377056443 ], [ 106.781839574624698, -6.128884916726131 ], [ 106.782746446800331, -6.129369637314765 ], [ 106.78371130663075, -6.130373282013318 ], [ 106.784025515428198, -6.131021037711438 ], [ 106.784460443966282, -6.131253506302378 ], [ 106.78542530987032, -6.132257158931981 ], [ 106.786033086377827, -6.133510122960762 ], [ 106.786182139801625, -6.134585702171452 ], [ 106.787280097381284, -6.134781518316052 ], [ 106.78826646116238, -6.133831568501161 ], [ 106.789518308452202, -6.133223233103096 ], [ 106.790896706800098, -6.133031856004227 ], [ 106.79226673366793, -6.133276175298998 ], [ 106.793494282542568, -6.133932280998932 ], [ 106.79445918973471, -6.134935953337504 ], [ 106.794815237217165, -6.135669943109893 ], [ 106.795047247709334, -6.135235082133429 ], [ 106.796050022850793, -6.134269301383418 ], [ 106.796455412345608, -6.134072296432402 ], [ 106.79634689690694, -6.134052945439294 ], [ 106.795119333445271, -6.133396840172698 ], [ 106.794154421023364, -6.132393171670121 ], [ 106.793546606437317, -6.131140187482282 ], [ 106.793355380478189, -6.129760536401735 ], [ 106.793599456980147, -6.12838926352014 ], [ 106.794254942773748, -6.127160592896074 ], [ 106.794782523595188, -6.126652445113143 ], [ 106.794328198165545, -6.126179884704683 ], [ 106.793720365794371, -6.124926912031601 ], [ 106.793715746889248, -6.124893591711132 ], [ 106.79364647946953, -6.125023432822518 ], [ 106.793026923500861, -6.125620172909922 ], [ 106.793100056815831, -6.126147765037127 ], [ 106.792855990023796, -6.127519037180621 ], [ 106.79220050196713, -6.128747699939923 ], [ 106.791197759037516, -6.129713478812661 ], [ 106.789945922254674, -6.130321835150068 ], [ 106.788567536460704, -6.130513220826159 ], [ 106.787197532356856, -6.130268906448222 ], [ 106.785970016751406, -6.129612812898507 ], [ 106.785005144768022, -6.128609167618103 ], [ 106.784397359239776, -6.127356215883378 ], [ 106.784206148111025, -6.125976603306438 ], [ 106.784450223764992, -6.124605371205111 ], [ 106.784506356180103, -6.124500155612902 ], [ 106.784408714625854, -6.12454760772201 ], [ 106.783030369426584, -6.124739000261413 ], [ 106.781660402461711, -6.124494700297162 ], [ 106.78043586435723, -6.123840202676802 ], [ 106.780129267564888, -6.12441488427342 ], [ 106.780215936536308, -6.124461207823188 ] ] ], [ [ [ 106.741681433019707, -6.127616545411945 ], [ 106.74146376154809, -6.127722304491253 ], [ 106.740595751366286, -6.127842750869458 ], [ 106.73599226843109, -6.124913261728872 ], [ 106.735916322142657, -6.124756663519713 ], [ 106.735725258346974, -6.123377244566273 ], [ 106.735969412216903, -6.122006241885023 ], [ 106.736624883024305, -6.120777853058279 ], [ 106.737627511401328, -6.119812316898814 ], [ 106.738879158680803, -6.119204145334843 ], [ 106.740257311258958, -6.119012872487831 ], [ 106.741627070654388, -6.119257226273552 ], [ 106.742854356519175, -6.119913293350478 ], [ 106.743819030882875, -6.120916857744029 ], [ 106.744173586539461, -6.121647891218577 ], [ 106.745046557311923, -6.120807198188495 ], [ 106.746298229401873, -6.120198998475678 ], [ 106.747676414616691, -6.120007705802242 ], [ 106.749046211279833, -6.120252050020936 ], [ 106.750273535397341, -6.12090811872324 ], [ 106.751238245257852, -6.121911695773605 ], [ 106.751734987449183, -6.122935863282098 ], [ 106.752197700224272, -6.122068659978393 ], [ 106.753200355175039, -6.121103050564293 ], [ 106.754452051068085, -6.120494816798119 ], [ 106.755830269535267, -6.120303498884788 ], [ 106.756982451011666, -6.120509007447891 ], [ 106.757994528871308, -6.120368510960509 ], [ 106.759364375420503, -6.120612837454723 ], [ 106.76059175239925, -6.121268904435397 ], [ 106.761556512926489, -6.122272495932712 ], [ 106.762164213949134, -6.123525374897921 ], [ 106.762355363112945, -6.124904898765775 ], [ 106.762111244710695, -6.126276025343297 ], [ 106.761455753498893, -6.127504533507432 ], [ 106.760453056192077, -6.128470163880354 ], [ 106.759201309360037, -6.129078392350718 ], [ 106.757823049051709, -6.129269683319366 ], [ 106.756670850446042, -6.129064144357811 ], [ 106.755658755694029, -6.129204610092756 ], [ 106.754288910773809, -6.128960239681139 ], [ 106.753061563684881, -6.128304141037199 ], [ 106.752096853040356, -6.127300542109581 ], [ 106.751600119415997, -6.126276366867886 ], [ 106.751137391335391, -6.12714356198686 ], [ 106.750134709131601, -6.128109142287706 ], [ 106.749322395285517, -6.12850383092263 ], [ 106.749527284747316, -6.128926286049835 ], [ 106.749718371461356, -6.130305763275473 ], [ 106.749474203691577, -6.131676825570328 ], [ 106.748818681026819, -6.13290525809726 ], [ 106.748712218544611, -6.133007775437475 ], [ 106.741316106929347, -6.128301158955037 ], [ 106.741681433019707, -6.127616545411945 ] ] ], [ [ [ 106.746070756205384, -6.116379521328128 ], [ 106.745106064799572, -6.115375967875989 ], [ 106.744498414864069, -6.114123151859442 ], [ 106.744395489544161, -6.113380317187562 ], [ 106.743616142909232, -6.114130891917947 ], [ 106.742364504391702, -6.114739103825543 ], [ 106.740986357329035, -6.114930402018828 ], [ 106.739616609051723, -6.114686065693319 ], [ 106.738389341308917, -6.114030017901204 ], [ 106.737424684936357, -6.113026481614598 ], [ 106.736817061637439, -6.111773691435554 ], [ 106.736625943462769, -6.110394277143418 ], [ 106.736870033698708, -6.109023260621724 ], [ 106.737525437852071, -6.107794840809116 ], [ 106.73758391509061, -6.107738521069212 ], [ 106.737488140747033, -6.107687325552202 ], [ 106.736523480596773, -6.10668380983364 ], [ 106.735915843631702, -6.105431034466198 ], [ 106.735724703241914, -6.104051627777844 ], [ 106.73596876489141, -6.102680610906938 ], [ 106.736624136888551, -6.1014521828264 ], [ 106.737402923865275, -6.100702088475192 ], [ 106.7381, -6.1012 ], [ 106.7448, -6.1022 ], [ 106.744816445631287, -6.102189777040014 ], [ 106.745402080093371, -6.103397112949205 ], [ 106.745593254462094, -6.104776557636557 ], [ 106.745349200708475, -6.106147618958278 ], [ 106.744693807273876, -6.107376082172648 ], [ 106.74442885535359, -6.107631266192124 ], [ 106.744719432765464, -6.107933539787275 ], [ 106.745327100760875, -6.109186344410038 ], [ 106.745430036652152, -6.109929179640369 ], [ 106.746209368947291, -6.109178587703003 ], [ 106.747460994147175, -6.108570337414235 ], [ 106.748839146246226, -6.108378990672253 ], [ 106.750208926803538, -6.108623282622606 ], [ 106.751436253396278, -6.109279305971623 ], [ 106.75240098406816, -6.110282849020572 ], [ 106.753008678684282, -6.111535679459967 ], [ 106.753199845517955, -6.112915159469313 ], [ 106.752955767137237, -6.114286251143434 ], [ 106.752300334388664, -6.115514736772478 ], [ 106.75129770827138, -6.116480359184392 ], [ 106.750046038390863, -6.117088595050309 ], [ 106.748667853263115, -6.117279908052438 ], [ 106.747298063944896, -6.117035575932709 ], [ 106.746070756205384, -6.116379521328128 ] ] ], [ [ [ 106.799908807682968, -6.116771153826435 ], [ 106.798943850340919, -6.115767529732413 ], [ 106.798335969540489, -6.114514564470296 ], [ 106.79814466256181, -6.113134904978447 ], [ 106.79838865117884, -6.111763597173157 ], [ 106.799044050831981, -6.110534868535285 ], [ 106.800046709093479, -6.109568991160148 ], [ 106.801298484337948, -6.108960510377141 ], [ 106.802676850407224, -6.108768990557787 ], [ 106.804046887909095, -6.109013183762736 ], [ 106.805274489280151, -6.109669192338349 ], [ 106.806239485690966, -6.110672806017095 ], [ 106.806847411022289, -6.111925785577475 ], [ 106.807038750984688, -6.113305478619676 ], [ 106.80679477120556, -6.114676826412312 ], [ 106.806139352868712, -6.115905586200715 ], [ 106.805136655538433, -6.116871473991124 ], [ 106.803884835763085, -6.117479940475869 ], [ 106.802506436710075, -6.117671426744871 ], [ 106.801136390370303, -6.117427193552579 ], [ 106.799908807682968, -6.116771153826435 ] ] ] ] } }
]
}
