{
"type": "FeatureCollection",
"name": "Populasi-buffer-indomaret",
"crs": { "type": "name", "properties": { "name": "urn:ogc:def:crs:EPSG::32750" } },
"xy_coordinate_resolution": 1e-15,
"features": [
{ "type": "Feature", "properties": { "id": 1, "Indomaret": "Indomaret Penjaringan", "Populasi Indomaret_count": 1906.0 }, "geometry": { "type": "MultiPolygon", "coordinates": [ [ [ [ -637564.08262874733191, 9310034.301947062835097 ], [ -637703.466757706017233, 9310105.321708021685481 ], [ -637814.08262874733191, 9310215.937579063698649 ], [ -637885.102389707346447, 9310355.321708021685481 ], [ -637902.008882683701813, 9310462.065103659406304 ], [ -637908.649490843177773, 9310475.098030995577574 ], [ -637933.121232695644721, 9310629.606528183445334 ], [ -637908.649490843177773, 9310784.115025371313095 ], [ -637837.629729883163236, 9310923.499154329299927 ], [ -637727.01385884184856, 9311034.115025371313095 ], [ -637684.88686488464009, 9311055.579800901934505 ], [ -637717.566042751655914, 9311119.716298695653677 ], [ -637742.037784604122862, 9311274.224795883521438 ], [ -637717.566042751655914, 9311428.733293071389198 ], [ -637646.546281791641377, 9311568.11742202937603 ], [ -637535.930410750326701, 9311678.733293071389198 ], [ -637396.546281791641377, 9311749.753054030239582 ], [ -637242.037784604122862, 9311774.224795883521438 ], [ -637087.529287416604348, 9311749.753054030239582 ], [ -636948.145158457919024, 9311678.733293071389198 ], [ -636837.529287416604348, 9311568.11742202937603 ], [ -636796.198270529625006, 9311487.000734083354473 ], [ -636714.504114287090488, 9311528.625985763967037 ], [ -636559.995617099571973, 9311553.097727617248893 ], [ -636405.487119912053458, 9311528.625985763967037 ], [ -636266.102990953368135, 9311457.606224805116653 ], [ -636155.487119912053458, 9311346.990353763103485 ], [ -636084.467358952038921, 9311207.606224805116653 ], [ -636071.047395569155924, 9311122.875910669565201 ], [ -636008.704517260659486, 9311113.001768779009581 ], [ -635974.806169759482145, 9311130.273839527741075 ], [ -635978.772212309762836, 9311155.314446685835719 ], [ -635954.300470457295887, 9311309.82294387370348 ], [ -635897.102186030941084, 9311422.080897785723209 ], [ -636003.360231599654071, 9311528.338943354785442 ], [ -636074.379992559668608, 9311667.723072312772274 ], [ -636098.851734412135556, 9311822.231569500640035 ], [ -636096.529329180135392, 9311836.894659051671624 ], [ -636219.699439283809625, 9311774.136353338137269 ], [ -636374.207936471328139, 9311749.664611484855413 ], [ -636528.716433658846654, 9311774.136353338137269 ], [ -636668.100562617531978, 9311845.156114296987653 ], [ -636778.716433658846654, 9311955.771985339000821 ], [ -636849.736194618861191, 9312095.156114296987653 ], [ -636874.207936471328139, 9312249.664611484855413 ], [ -636849.736194618861191, 9312404.173108672723174 ], [ -636778.716433658846654, 9312543.557237630710006 ], [ -636707.209818286355585, 9312615.06385300308466 ], [ -636741.662311459309421, 9312620.520591853186488 ], [ -636811.138511436874978, 9312585.12069983035326 ], [ -636965.647008624393493, 9312560.648957977071404 ], [ -637120.155505811912008, 9312585.12069983035326 ], [ -637138.788028820417821, 9312594.614444490522146 ], [ -637195.469629215891473, 9312565.733726572245359 ], [ -637349.978126403409988, 9312541.261984718963504 ], [ -637504.486623590928502, 9312565.733726572245359 ], [ -637643.870752549613826, 9312636.753487531095743 ], [ -637754.486623590928502, 9312747.369358573108912 ], [ -637825.506384550943039, 9312886.753487531095743 ], [ -637849.978126403409988, 9313041.261984718963504 ], [ -637825.506384550943039, 9313195.770481906831264 ], [ -637820.018243032624014, 9313206.541566105559468 ], [ -637866.471921621006913, 9313252.995244694873691 ], [ -637937.49168258102145, 9313392.379373652860522 ], [ -637961.963424433488399, 9313546.887870840728283 ], [ -637937.49168258102145, 9313701.396368028596044 ], [ -637866.471921621006913, 9313840.780496986582875 ], [ -637755.856050579692237, 9313951.396368028596044 ], [ -637616.471921621006913, 9314022.416128987446427 ], [ -637564.584225018857978, 9314030.634332774206996 ], [ -637531.511853595380671, 9314063.706704197451472 ], [ -637392.127724636695348, 9314134.726465156301856 ], [ -637256.713293701061048, 9314156.174004012718797 ], [ -637212.238288039923646, 9314243.461117355152965 ], [ -637101.622416998608969, 9314354.076988397166133 ], [ -636962.238288039923646, 9314425.096749356016517 ], [ -636807.729790852405131, 9314449.568491209298372 ], [ -636653.221293664886616, 9314425.096749356016517 ], [ -636513.837164706201293, 9314354.076988397166133 ], [ -636403.221293664886616, 9314243.461117355152965 ], [ -636332.201532704872079, 9314104.076988397166133 ], [ -636307.729790852405131, 9313949.568491209298372 ], [ -636332.201532704872079, 9313795.059994021430612 ], [ -636403.221293664886616, 9313655.67586506344378 ], [ -636485.912101571680978, 9313572.985057156533003 ], [ -636396.899044296820648, 9313527.6306391377002 ], [ -636333.728529725805856, 9313559.817623969167471 ], [ -636179.220032538287342, 9313584.289365822449327 ], [ -636024.711535350768827, 9313559.817623969167471 ], [ -635987.686958021600731, 9313540.952659564092755 ], [ -635928.41461884661112, 9313571.153424823656678 ], [ -635773.906121659092605, 9313595.625166676938534 ], [ -635619.39762447157409, 9313571.153424823656678 ], [ -635480.013495512888767, 9313500.133663864806294 ], [ -635369.39762447157409, 9313389.517792822793126 ], [ -635298.377863511559553, 9313250.133663864806294 ], [ -635273.906121659092605, 9313095.625166676938534 ], [ -635298.377863511559553, 9312941.116669489070773 ], [ -635369.39762447157409, 9312801.732540531083941 ], [ -635397.759536409750581, 9312773.370628593489528 ], [ -635360.750989444437437, 9312700.737265525385737 ], [ -635336.279247591970488, 9312546.228768337517977 ], [ -635360.750989444437437, 9312391.720271149650216 ], [ -635385.014208649401553, 9312344.101022241637111 ], [ -635302.396900410763919, 9312357.18631836771965 ], [ -635249.913122869562358, 9312348.873704634606838 ], [ -635239.185070225852542, 9312416.607963263988495 ], [ -635168.165309265838005, 9312555.992092221975327 ], [ -635057.549438224523328, 9312666.607963263988495 ], [ -634918.165309265838005, 9312737.627724222838879 ], [ -634763.65681207831949, 9312762.099466076120734 ], [ -634731.653136598062702, 9312757.030581846833229 ], [ -634588.921898155007511, 9312779.636989165097475 ], [ -634460.136638715513982, 9312759.239407926797867 ], [ -634442.144754256936722, 9312794.550469378009439 ], [ -634331.528883215622045, 9312905.166340420022607 ], [ -634321.423048816737719, 9312910.315520234405994 ], [ -634360.601891417172737, 9312916.520839292556047 ], [ -634499.986020375858061, 9312987.540600251406431 ], [ -634610.601891417172737, 9313098.1564712934196 ], [ -634649.681924372445792, 9313174.855354527011514 ], [ -634738.896512856357731, 9313188.98555719293654 ], [ -634878.280641815043055, 9313260.005318151786923 ], [ -634988.896512856357731, 9313370.621189193800092 ], [ -635059.916273816372268, 9313510.005318151786923 ], [ -635084.388015668839216, 9313664.513815339654684 ], [ -635059.916273816372268, 9313819.022312527522445 ], [ -634988.896512856357731, 9313958.406441485509276 ], [ -634878.280641815043055, 9314069.022312527522445 ], [ -634738.896512856357731, 9314140.042073486372828 ], [ -634584.388015668839216, 9314164.513815339654684 ], [ -634429.879518481320702, 9314140.042073486372828 ], [ -634290.495389522635378, 9314069.022312527522445 ], [ -634179.879518481320702, 9313958.406441485509276 ], [ -634140.799485526047647, 9313881.707558251917362 ], [ -634051.584897042135708, 9313867.577355585992336 ], [ -633912.200768083450384, 9313796.557594627141953 ], [ -633801.584897042135708, 9313685.941723585128784 ], [ -633730.565136082121171, 9313546.557594627141953 ], [ -633706.093394229654223, 9313392.049097439274192 ], [ -633730.565136082121171, 9313237.540600251406431 ], [ -633801.584897042135708, 9313098.1564712934196 ], [ -633866.668868364300579, 9313033.07249996997416 ], [ -633812.734105142648332, 9313060.553634444251657 ], [ -633658.225607955129817, 9313085.025376297533512 ], [ -633503.717110767611302, 9313060.553634444251657 ], [ -633364.332981808925979, 9312989.533873485401273 ], [ -633253.717110767611302, 9312878.918002443388104 ], [ -633182.697349807596765, 9312739.533873485401273 ], [ -633158.225607955129817, 9312585.025376297533512 ], [ -633182.697349807596765, 9312430.516879109665751 ], [ -633253.717110767611302, 9312291.13275015167892 ], [ -633260.430341257131658, 9312284.419519662857056 ], [ -633213.32242371106986, 9312260.416836800053716 ], [ -633102.706552669755183, 9312149.800965758040547 ], [ -633031.686791709740646, 9312010.416836800053716 ], [ -633007.215049857273698, 9311855.908339612185955 ], [ -633031.686791709740646, 9311701.399842424318194 ], [ -633102.706552669755183, 9311562.015713466331363 ], [ -633213.32242371106986, 9311451.399842424318194 ], [ -633352.706552669755183, 9311380.380081465467811 ], [ -633471.751966736745089, 9311361.525140184909105 ], [ -633501.299502771697007, 9311303.534835550934076 ], [ -633611.915373813011684, 9311192.918964508920908 ], [ -633751.299502771697007, 9311121.899203550070524 ], [ -633905.807999959215522, 9311097.427461696788669 ], [ -634060.316497146734037, 9311121.899203550070524 ], [ -634094.606012879870832, 9311139.370584467425942 ], [ -634100.903832364012487, 9311136.161685163155198 ], [ -634255.412329551531002, 9311111.689943309873343 ], [ -634409.920826739049517, 9311136.161685163155198 ], [ -634484.537246602121741, 9311174.180650033056736 ], [ -634504.728901894879527, 9311153.988994739949703 ], [ -634644.113030853564851, 9311082.969233781099319 ], [ -634769.391229919739999, 9311063.127116335555911 ], [ -634768.096321652294137, 9311061.832208069041371 ], [ -634697.0765606922796, 9310922.44807911105454 ], [ -634672.604818839812651, 9310767.939581923186779 ], [ -634696.840880472445861, 9310614.919111080467701 ], [ -634682.118355963146314, 9310521.964749660342932 ], [ -634693.793165809591301, 9310448.252901308238506 ], [ -634675.699220721027814, 9310412.741534592583776 ], [ -634651.227478868560866, 9310258.233037404716015 ], [ -634675.699220721027814, 9310103.724540216848254 ], [ -634746.718981681042351, 9309964.340411258861423 ], [ -634857.334852722357027, 9309853.724540216848254 ], [ -634996.718981681042351, 9309782.70477925799787 ], [ -635151.227478868560866, 9309758.233037404716015 ], [ -635248.794260301394388, 9309773.686097476631403 ], [ -635272.977423063945025, 9309769.855860777199268 ], [ -635427.48592025146354, 9309794.327602630481124 ], [ -635566.870049210148863, 9309865.347363589331508 ], [ -635677.48592025146354, 9309975.963234631344676 ], [ -635748.505681211478077, 9310115.347363589331508 ], [ -635761.473022527061403, 9310197.219934461638331 ], [ -635802.643608340178616, 9310203.740714654326439 ], [ -635818.348106895107776, 9310211.742556339129806 ], [ -635938.045087867067195, 9310150.753898307681084 ], [ -636092.55358505458571, 9310126.282156454399228 ], [ -636247.062082242104225, 9310150.753898307681084 ], [ -636386.446211200789548, 9310221.773659266531467 ], [ -636479.071069421479478, 9310314.398517487570643 ], [ -636483.253574038739316, 9310287.991222625598311 ], [ -636554.273334998753853, 9310148.60709366761148 ], [ -636664.88920604006853, 9310037.991222625598311 ], [ -636804.273334998753853, 9309966.971461666747928 ], [ -636958.781832186272368, 9309942.499719813466072 ], [ -637113.290329373790883, 9309966.971461666747928 ], [ -637250.249740863684565, 9310036.755767367780209 ], [ -637255.06563437229488, 9310034.301947062835097 ], [ -637409.574131559813395, 9310009.830205209553242 ], [ -637564.08262874733191, 9310034.301947062835097 ] ] ], [ [ [ -640098.665392838534899, 9310508.733723441138864 ], [ -640238.049521797220223, 9310579.753484399989247 ], [ -640348.665392838534899, 9310690.369355442002416 ], [ -640419.685153798549436, 9310829.753484399989247 ], [ -640444.156895651016384, 9310984.261981587857008 ], [ -640419.685153798549436, 9311138.770478775724769 ], [ -640348.665392838534899, 9311278.1546077337116 ], [ -640238.049521797220223, 9311388.770478775724769 ], [ -640098.665392838534899, 9311459.790239734575152 ], [ -639944.156895651016384, 9311484.261981587857008 ], [ -639789.64839846349787, 9311459.790239734575152 ], [ -639650.264269504812546, 9311388.770478775724769 ], [ -639539.64839846349787, 9311278.1546077337116 ], [ -639468.628637503483333, 9311138.770478775724769 ], [ -639444.156895651016384, 9310984.261981587857008 ], [ -639468.628637503483333, 9310829.753484399989247 ], [ -639539.64839846349787, 9310690.369355442002416 ], [ -639650.264269504812546, 9310579.753484399989247 ], [ -639789.64839846349787, 9310508.733723441138864 ], [ -639944.156895651016384, 9310484.261981587857008 ], [ -640098.665392838534899, 9310508.733723441138864 ] ] ], [ [ [ -638359.681018809205852, 9311198.733488300815225 ], [ -638499.065147767891176, 9311269.753249259665608 ], [ -638609.681018809205852, 9311380.369120301678777 ], [ -638680.700779769220389, 9311519.753249259665608 ], [ -638705.172521621687338, 9311674.261746447533369 ], [ -638680.700779769220389, 9311828.77024363540113 ], [ -638609.681018809205852, 9311968.154372593387961 ], [ -638499.065147767891176, 9312078.77024363540113 ], [ -638359.681018809205852, 9312149.790004594251513 ], [ -638205.172521621687338, 9312174.261746447533369 ], [ -638050.664024434168823, 9312149.790004594251513 ], [ -637911.279895475483499, 9312078.77024363540113 ], [ -637800.664024434168823, 9311968.154372593387961 ], [ -637729.644263474154286, 9311828.77024363540113 ], [ -637705.172521621687338, 9311674.261746447533369 ], [ -637729.644263474154286, 9311519.753249259665608 ], [ -637800.664024434168823, 9311380.369120301678777 ], [ -637911.279895475483499, 9311269.753249259665608 ], [ -638050.664024434168823, 9311198.733488300815225 ], [ -638205.172521621687338, 9311174.261746447533369 ], [ -638359.681018809205852, 9311198.733488300815225 ] ] ], [ [ [ -639564.702247231849469, 9311572.783990560099483 ], [ -639704.086376190534793, 9311643.803751518949866 ], [ -639814.702247231849469, 9311754.419622560963035 ], [ -639885.722008191864006, 9311893.803751518949866 ], [ -639910.193750044330955, 9312048.312248706817627 ], [ -639885.722008191864006, 9312202.820745894685388 ], [ -639814.702247231849469, 9312342.204874852672219 ], [ -639704.086376190534793, 9312452.820745894685388 ], [ -639564.702247231849469, 9312523.840506853535771 ], [ -639410.193750044330955, 9312548.312248706817627 ], [ -639255.68525285681244, 9312523.840506853535771 ], [ -639116.301123898127116, 9312452.820745894685388 ], [ -639005.68525285681244, 9312342.204874852672219 ], [ -638934.665491896797903, 9312202.820745894685388 ], [ -638910.193750044330955, 9312048.312248706817627 ], [ -638934.665491896797903, 9311893.803751518949866 ], [ -639005.68525285681244, 9311754.419622560963035 ], [ -639116.301123898127116, 9311643.803751518949866 ], [ -639255.68525285681244, 9311572.783990560099483 ], [ -639410.193750044330955, 9311548.312248706817627 ], [ -639564.702247231849469, 9311572.783990560099483 ] ] ], [ [ [ -640810.681420105160214, 9311600.661283429712057 ], [ -640950.065549063845538, 9311671.681044388562441 ], [ -640975.356434319866821, 9311696.971929645165801 ], [ -641073.218631637864746, 9311647.108649568632245 ], [ -641227.727128825383261, 9311622.636907715350389 ], [ -641382.235626012901776, 9311647.108649568632245 ], [ -641521.619754971587099, 9311718.128410527482629 ], [ -641632.235626012901776, 9311828.744281569495797 ], [ -641703.255386972916313, 9311968.128410527482629 ], [ -641727.727128825383261, 9312122.636907715350389 ], [ -641703.255386972916313, 9312277.14540490321815 ], [ -641632.235626012901776, 9312416.529533861204982 ], [ -641521.619754971587099, 9312527.14540490321815 ], [ -641382.235626012901776, 9312598.165165862068534 ], [ -641227.727128825383261, 9312622.636907715350389 ], [ -641073.218631637864746, 9312598.165165862068534 ], [ -640933.834502679179423, 9312527.14540490321815 ], [ -640908.543617423158139, 9312501.85451964661479 ], [ -640810.681420105160214, 9312551.717799723148346 ], [ -640656.172922917641699, 9312576.189541576430202 ], [ -640501.664425730123185, 9312551.717799723148346 ], [ -640362.280296771437861, 9312480.698038764297962 ], [ -640251.664425730123185, 9312370.082167722284794 ], [ -640180.644664770108648, 9312230.698038764297962 ], [ -640156.172922917641699, 9312076.189541576430202 ], [ -640180.644664770108648, 9311921.681044388562441 ], [ -640251.664425730123185, 9311782.296915430575609 ], [ -640362.280296771437861, 9311671.681044388562441 ], [ -640501.664425730123185, 9311600.661283429712057 ], [ -640656.172922917641699, 9311576.189541576430202 ], [ -640810.681420105160214, 9311600.661283429712057 ] ] ], [ [ [ -641821.511423767893575, 9312827.908796330913901 ], [ -641960.895552726578899, 9312898.928557289764285 ], [ -642071.511423767893575, 9313009.544428331777453 ], [ -642142.531184727908112, 9313148.928557289764285 ], [ -642167.00292658037506, 9313303.437054477632046 ], [ -642142.531184727908112, 9313457.945551665499806 ], [ -642071.511423767893575, 9313597.329680623486638 ], [ -641960.895552726578899, 9313707.945551665499806 ], [ -641855.221267543151043, 9313761.789289321750402 ], [ -641845.314756170730107, 9313824.336540505290031 ], [ -641778.980234962422401, 9313954.525368705391884 ], [ -641803.283578564645723, 9314107.970641186460853 ], [ -641779.630432428442873, 9314257.310728430747986 ], [ -641809.454337069182657, 9314287.1346330717206 ], [ -641880.474098029197194, 9314426.518762029707432 ], [ -641904.945839881664142, 9314581.027259217575192 ], [ -641880.474098029197194, 9314735.535756405442953 ], [ -641809.454337069182657, 9314874.919885363429785 ], [ -641698.83846602786798, 9314985.535756405442953 ], [ -641559.454337069182657, 9315056.555517364293337 ], [ -641404.945839881664142, 9315081.027259217575192 ], [ -641250.437342694145627, 9315056.555517364293337 ], [ -641111.053213735460304, 9314985.535756405442953 ], [ -641071.48245699913241, 9314945.964999668300152 ], [ -640960.272748399176635, 9314928.351112212985754 ], [ -640820.888619440491311, 9314857.33135125413537 ], [ -640710.272748399176635, 9314746.715480212122202 ], [ -640639.252987439162098, 9314607.33135125413537 ], [ -640614.78124558669515, 9314452.82285406626761 ], [ -640639.252987439162098, 9314298.314356878399849 ], [ -640710.272748399176635, 9314158.930227920413017 ], [ -640811.197242445196025, 9314058.005733873695135 ], [ -640819.636477666324936, 9314004.722499713301659 ], [ -640763.845897691673599, 9313948.931919738650322 ], [ -640658.674644295009784, 9314002.519349899142981 ], [ -640504.16614710749127, 9314026.991091752424836 ], [ -640349.657649919972755, 9314002.519349899142981 ], [ -640339.138733821571805, 9313997.159694446250796 ], [ -640265.139449216425419, 9314008.88002972304821 ], [ -640110.630952028906904, 9313984.408287869766355 ], [ -639971.246823070221581, 9313913.388526910915971 ], [ -639860.630952028906904, 9313802.772655868902802 ], [ -639789.611191068892367, 9313663.388526910915971 ], [ -639765.139449216425419, 9313508.88002972304821 ], [ -639789.611191068892367, 9313354.371532535180449 ], [ -639860.630952028906904, 9313214.987403577193618 ], [ -639971.246823070221581, 9313104.371532535180449 ], [ -640039.19338155654259, 9313069.751031780615449 ], [ -640116.357128668227233, 9312992.587284669280052 ], [ -640255.741257626912557, 9312921.567523710429668 ], [ -640410.249754814431071, 9312897.095781857147813 ], [ -640564.758252001949586, 9312921.567523710429668 ], [ -640645.662091118749231, 9312962.790088701993227 ], [ -640687.612164582591504, 9312956.145849794149399 ], [ -640839.065131997922435, 9312980.133643275126815 ], [ -640851.698055968037806, 9312973.696847010403872 ], [ -641006.206553155556321, 9312949.225105157122016 ], [ -641160.715050343074836, 9312973.696847010403872 ], [ -641256.017600112827495, 9313022.255921518430114 ], [ -641262.494429392856546, 9313009.544428331777453 ], [ -641373.110300434171222, 9312898.928557289764285 ], [ -641512.494429392856546, 9312827.908796330913901 ], [ -641667.00292658037506, 9312803.437054477632046 ], [ -641821.511423767893575, 9312827.908796330913901 ] ] ] ] } }
]
}
