{
"type": "FeatureCollection",
"name": "Zona Populasi Indomaret Pluit",
"crs": { "type": "name", "properties": { "name": "urn:ogc:def:crs:EPSG::32750" } },
"features": [
{ "type": "Feature", "properties": { "GID_4": "IDN.7.5.6.5_1", "GID_0": "IDN", "COUNTRY": "Indonesia", "GID_1": "IDN.7_1", "NAME_1": "JakartaRaya", "GID_2": "IDN.7.5_1", "NAME_2": "JakartaUtara", "GID_3": "IDN.7.5.6_1", "NAME_3": "Penjaringan", "NAME_4": "Pluit", "VARNAME_4": "NA", "TYPE_4": "Kelurahan", "ENGTYPE_4": "UrbanCommunity", "CC_4": "3175010005", "Populasi indomaret pluit_count": 440.0 }, "geometry": { "type": "MultiPolygon", "coordinates": [ [ [ [ -636874.207936471328139, 9312249.664611484855413 ], [ -636849.736194618744776, 9312404.173108672723174 ], [ -636778.716433658730239, 9312543.557237630710006 ], [ -636707.20981828449294, 9312615.06385300308466 ], [ -636741.662311459425837, 9312620.520591853186488 ], [ -636811.138511437224224, 9312585.12069983035326 ], [ -636965.647008625091985, 9312560.648957977071404 ], [ -637120.155505810398608, 9312585.12069983035326 ], [ -637138.788028820650652, 9312594.614444490522146 ], [ -637195.469629216240719, 9312565.733726572245359 ], [ -637349.978126402711496, 9312541.261984718963504 ], [ -637439.368219720665365, 9312555.420022239908576 ], [ -637324.816887591965497, 9312780.311518033966422 ], [ -637498.170287803513929, 9313024.12391759082675 ], [ -637834.724217914044857, 9313137.571984264999628 ], [ -637825.506384551059455, 9313195.770481906831264 ], [ -637820.018243031809106, 9313206.541566105559468 ], [ -637866.471921621821821, 9313252.995244694873691 ], [ -637899.568368068896234, 9313317.950599987059832 ], [ -637855.471698754234239, 9313477.848558669909835 ], [ -637952.813881889218464, 9313604.656418807804585 ], [ -637937.491682581836358, 9313701.396368028596044 ], [ -637866.471921620657668, 9313840.780496986582875 ], [ -637755.856050580274314, 9313951.396368028596044 ], [ -637616.47192162158899, 9314022.416128987446427 ], [ -637564.584225019440055, 9314030.634332774206996 ], [ -637531.511853594565764, 9314063.706704197451472 ], [ -637392.12772463564761, 9314134.726465156301856 ], [ -637256.713293701410294, 9314156.174004012718797 ], [ -637220.036399648757651, 9314228.156520865857601 ], [ -637376.881257889093831, 9313734.190282966941595 ], [ -637160.912450019735843, 9314198.923555484041572 ], [ -636309.715650513069704, 9313937.03046078234911 ], [ -636332.201532703591511, 9313795.059994021430612 ], [ -636403.221293662674725, 9313655.67586506344378 ], [ -636485.912101571448147, 9313572.985057156533003 ], [ -636396.899044295540079, 9313527.6306391377002 ], [ -636333.728529726155102, 9313559.817623969167471 ], [ -636179.220032538287342, 9313584.289365822449327 ], [ -636024.711535350652412, 9313559.817623969167471 ], [ -635987.686958021018654, 9313540.952659564092755 ], [ -635928.414618845796213, 9313571.153424823656678 ], [ -635773.906121659558266, 9313595.625166676938534 ], [ -635619.39762446959503, 9313571.153424823656678 ], [ -635480.01349551230669, 9313500.133663864806294 ], [ -635369.397624471690506, 9313389.517792822793126 ], [ -635298.377863511675969, 9313250.133663864806294 ], [ -635273.906121659092605, 9313095.625166676938534 ], [ -635298.377863509580493, 9312941.116669489070773 ], [ -635369.397624471923336, 9312801.732540531083941 ], [ -635397.75953640951775, 9312773.370628593489528 ], [ -635360.750989444088191, 9312700.737265525385737 ], [ -635336.279247591970488, 9312546.228768337517977 ], [ -635360.750989443389699, 9312391.720271149650216 ], [ -635385.014208649517968, 9312344.101022241637111 ], [ -635302.396900410531089, 9312357.18631836771965 ], [ -635249.913122869562358, 9312348.873704634606838 ], [ -635239.185070226201788, 9312416.607963263988495 ], [ -635168.165309263393283, 9312555.992092221975327 ], [ -635057.549438223941252, 9312666.607963263988495 ], [ -634918.165309265488759, 9312737.627724222838879 ], [ -634763.656812077853829, 9312762.099466076120734 ], [ -634731.653136597480625, 9312757.030581846833229 ], [ -634588.921898153144866, 9312779.636989165097475 ], [ -634460.136638715164736, 9312759.239407926797867 ], [ -634442.144754256587476, 9312794.550469378009439 ], [ -634331.52888321573846, 9312905.166340420022607 ], [ -634321.42304881522432, 9312910.315520234405994 ], [ -634360.601891416125, 9312916.520839292556047 ], [ -634499.98602037364617, 9312987.540600251406431 ], [ -634610.601891417521983, 9313098.1564712934196 ], [ -634649.681924370350316, 9313174.855354527011514 ], [ -634738.896512855542824, 9313188.98555719293654 ], [ -634878.28064181515947, 9313260.005318151786923 ], [ -634988.896512855542824, 9313370.621189193800092 ], [ -635059.916273816023022, 9313510.005318151786923 ], [ -635084.388015669304878, 9313664.513815339654684 ], [ -635059.916273817187175, 9313819.022312527522445 ], [ -634988.896512855309993, 9313958.406441485509276 ], [ -634948.145543188555166, 9313999.157561790198088 ], [ -634951.630316779017448, 9313915.513126181438565 ], [ -634787.17551283002831, 9313547.972790110856295 ], [ -634287.476988549577072, 9313287.95864181779325 ], [ -634264.644991246284917, 9312097.70841396227479 ], [ -635120.549055689712986, 9312171.135022504255176 ], [ -635666.963349954690784, 9311935.96813347376883 ], [ -636854.240054972236976, 9312123.592099711298943 ], [ -636874.207936471328139, 9312249.664611484855413 ] ] ] ] } }
]
}
