{
"type": "FeatureCollection",
"name": "Zona Populasi Alfamart Kamal Muara",
"crs": { "type": "name", "properties": { "name": "urn:ogc:def:crs:OGC:1.3:CRS84" } },
"xy_coordinate_resolution": 1e-15,
"features": [
{ "type": "Feature", "properties": { "GID_4": "IDN.7.5.6.1_1", "GID_0": "IDN", "COUNTRY": "Indonesia", "GID_1": "IDN.7_1", "NAME_1": "JakartaRaya", "GID_2": "IDN.7.5_1", "NAME_2": "JakartaUtara", "GID_3": "IDN.7.5.6_1", "NAME_3": "Penjaringan", "NAME_4": "KamalMuara", "VARNAME_4": "NA", "TYPE_4": "Kelurahan", "ENGTYPE_4": "UrbanCommunity", "CC_4": "3175010001", "Populasi alfa kml muara_count": 356.0 }, "geometry": { "type": "MultiPolygon", "coordinates": [ [ [ [ 106.741681433019707, -6.127616545411945 ], [ 106.74146376154809, -6.127722304491253 ], [ 106.740831270749325, -6.127810069851104 ], [ 106.735940207555288, -6.124805914285225 ], [ 106.735916322142657, -6.124756663519713 ], [ 106.735725258346974, -6.123377244566273 ], [ 106.735969412216903, -6.122006241885023 ], [ 106.736624883024305, -6.120777853058279 ], [ 106.737627511401328, -6.119812316898814 ], [ 106.738879158680803, -6.119204145334843 ], [ 106.740257311258958, -6.119012872487831 ], [ 106.741627070654388, -6.119257226273552 ], [ 106.742854356519175, -6.119913293350478 ], [ 106.743819030882875, -6.120916857744029 ], [ 106.744173586539461, -6.121647891218577 ], [ 106.745046557311923, -6.120807198188495 ], [ 106.746298229401873, -6.120198998475678 ], [ 106.747676414616691, -6.120007705802242 ], [ 106.749046211279833, -6.120252050020936 ], [ 106.750273535397341, -6.12090811872324 ], [ 106.751238245257852, -6.121911695773605 ], [ 106.751734987449183, -6.122935863282098 ], [ 106.752197700224272, -6.122068659978393 ], [ 106.752379399326998, -6.121893674192918 ], [ 106.753126347801171, -6.128338772455834 ], [ 106.753061563684881, -6.128304141037199 ], [ 106.752096853040356, -6.127300542109581 ], [ 106.751600119415997, -6.126276366867886 ], [ 106.751137391335391, -6.12714356198686 ], [ 106.750134709131601, -6.128109142287706 ], [ 106.749322395285517, -6.12850383092263 ], [ 106.749527284747316, -6.128926286049835 ], [ 106.749718371461356, -6.130305763275473 ], [ 106.749474203691577, -6.131676825570328 ], [ 106.74889472652093, -6.132762750807266 ], [ 106.741393792366026, -6.128155578052228 ], [ 106.741681433019707, -6.127616545411945 ] ] ], [ [ [ 106.746070756205384, -6.116379521328128 ], [ 106.745106064799572, -6.115375967875989 ], [ 106.744498414864069, -6.114123151859442 ], [ 106.744395489544161, -6.113380317187562 ], [ 106.743616142909232, -6.114130891917947 ], [ 106.742364504391702, -6.114739103825543 ], [ 106.740986357329035, -6.114930402018828 ], [ 106.739616609051723, -6.114686065693319 ], [ 106.738389341308917, -6.114030017901204 ], [ 106.737424684936357, -6.113026481614598 ], [ 106.736817061637439, -6.111773691435554 ], [ 106.736625943462769, -6.110394277143418 ], [ 106.736870033698708, -6.109023260621724 ], [ 106.737525437852071, -6.107794840809116 ], [ 106.73758391509061, -6.107738521069212 ], [ 106.737488140747033, -6.107687325552202 ], [ 106.736523480596773, -6.10668380983364 ], [ 106.735915843631702, -6.105431034466198 ], [ 106.735724703241914, -6.104051627777844 ], [ 106.73596876489141, -6.102680610906938 ], [ 106.736624136888551, -6.1014521828264 ], [ 106.737402923865275, -6.100702088475192 ], [ 106.7381, -6.1012 ], [ 106.7448, -6.1022 ], [ 106.744813739953926, -6.102184199052986 ], [ 106.745402080093371, -6.103397112949205 ], [ 106.745593254462094, -6.104776557636557 ], [ 106.745349200708475, -6.106147618958278 ], [ 106.744693807273876, -6.107376082172648 ], [ 106.74442885535359, -6.107631266192124 ], [ 106.744719432765464, -6.107933539787275 ], [ 106.745327100760875, -6.109186344410038 ], [ 106.745430036652152, -6.109929179640369 ], [ 106.746209368947291, -6.109178587703003 ], [ 106.747460994147175, -6.108570337414235 ], [ 106.748839146246226, -6.108378990672253 ], [ 106.750208926803538, -6.108623282622606 ], [ 106.750883209848425, -6.108983696406443 ], [ 106.751706410376144, -6.116086740959862 ], [ 106.75129770827138, -6.116480359184392 ], [ 106.750046038390863, -6.117088595050309 ], [ 106.748667853263115, -6.117279908052438 ], [ 106.747298063944896, -6.117035575932709 ], [ 106.746070756205384, -6.116379521328128 ] ] ] ] } }
]
}
