{
"type": "FeatureCollection",
"name": "Zona Populasi Indomaret Penjaringan",
"crs": { "type": "name", "properties": { "name": "urn:ogc:def:crs:OGC:1.3:CRS84" } },
"features": [
{ "type": "Feature", "properties": { "GID_4": "IDN.7.5.6.4_1", "GID_0": "IDN", "COUNTRY": "Indonesia", "GID_1": "IDN.7_1", "NAME_1": "JakartaRaya", "GID_2": "IDN.7.5_1", "NAME_2": "JakartaUtara", "GID_3": "IDN.7.5.6_1", "NAME_3": "Penjaringan", "NAME_4": "Penjaringan", "VARNAME_4": "NA", "TYPE_4": "Kelurahan", "ENGTYPE_4": "UrbanCommunity", "CC_4": "3175010004", "Populasi penjaringan indo_count": 406.0 }, "geometry": { "type": "MultiPolygon", "coordinates": [ [ [ [ 106.787265240465501, -6.130935230547407 ], [ 106.786338376003073, -6.129971119358841 ], [ 106.785730588466237, -6.128718161326574 ], [ 106.785539378372889, -6.127338542624829 ], [ 106.785562542197738, -6.127208410214172 ], [ 106.78445634993534, -6.127745986354922 ], [ 106.784256322854745, -6.127773759275127 ], [ 106.7839, -6.1262 ], [ 106.7894, -6.1264 ], [ 106.7943, -6.1244 ], [ 106.8019, -6.1252 ], [ 106.8019, -6.1146 ], [ 106.7975, -6.1122 ], [ 106.7962, -6.1091 ], [ 106.8006, -6.1083 ], [ 106.80037159980138, -6.106917577745216 ], [ 106.800778636311563, -6.106990127513374 ], [ 106.802006220420722, -6.10764612930315 ], [ 106.80297120328386, -6.10864973264523 ], [ 106.803305721681951, -6.10933920192443 ], [ 106.804096795080241, -6.109480202182836 ], [ 106.805324396848931, -6.110136212541003 ], [ 106.806289392908852, -6.111139827702203 ], [ 106.806897317175057, -6.112392808299937 ], [ 106.80708865546228, -6.113772501832959 ], [ 106.806844673561642, -6.115143849521888 ], [ 106.806189252864399, -6.116372608622198 ], [ 106.805599286604192, -6.116940916233452 ], [ 106.806083679761258, -6.116705467052819 ], [ 106.807462089769118, -6.116513965011306 ], [ 106.807732869885783, -6.116562231890274 ], [ 106.8104, -6.1308 ], [ 106.8063, -6.1319 ], [ 106.8011, -6.1337 ], [ 106.801055221572966, -6.133844286042703 ], [ 106.800443548441379, -6.133735215671331 ], [ 106.79978638571707, -6.133383984324489 ], [ 106.799603340835247, -6.13356028096944 ], [ 106.798351464425579, -6.134168658571024 ], [ 106.797233807684918, -6.134323846594838 ], [ 106.797245103418192, -6.134335595981087 ], [ 106.797852925190966, -6.135588596488655 ], [ 106.798017958765627, -6.13677934585488 ], [ 106.7929, -6.1372 ], [ 106.7925, -6.1325 ], [ 106.786838572411398, -6.131734942217756 ], [ 106.787265240465501, -6.130935230547407 ] ] ] ] } }
]
}
